0192726575949602017010100537+45062-093351FM-15+0265KMIC V0301905N004152200059N0160935N5-00615-01065100895ADDAA101000095GA1005+999999999GD10991+9999999GF100991999999999999999999MA1100755097615REMMET09712/31/16 18:53:03 METAR KMIC 010053Z 19008KT 10SM CLR M06/M11 A2975 RMK AO2 SLP089 T10611106 (FD)
0217726575949602017010101537+45062-093351FM-15+0265KMIC V0301905N00415033535MN0160935N5-00505-01005100855ADDAA101000095GA1075+033535999GD13991+0335359GE19MSL   +99999+99999GF199999999999033531999999MA1100715097585REMMET10012/31/16 19:53:03 METAR KMIC 010153Z 19008KT 10SM BKN110 M05/M10 A2974 RMK AO2 SLP085 T10501100 (FD)
0237726575949602017010102537+45062-093351FM-15+0265KMIC V0302105N00465027435MN0160935N5-00395-00895100855ADDAA101000095GA1085+027435999GD14991+0274359GE19MSL   +99999+99999GF199999999999027431999999MA1100715097585MD1690089+9999REMMET10612/31/16 20:53:03 METAR KMIC 010253Z 21009KT 10SM OVC090 M04/M09 A2974 RMK AO2 SLP085 T10391089 56008 (FD)
0255726575949602017010103537+45062-093351FM-15+0265KMIC V0302005N00415028965MN0160935N5-00395-00895100855ADDAA101000095GA1075+028965999GA2075+036585999GD13991+0289659GD23991+0365859GE19MSL   +99999+99999GF199999999999028961999999MA1100715097585REMMET10712/31/16 21:53:03 METAR KMIC 010353Z 20008KT 10SM BKN095 BKN120 M04/M09 A2974 RMK AO2 SLP085 T10391089 TSNO
0217726575949602017010104537+45062-093351FM-15+0265KMIC V0302005N00465027435MN0160935N5-00335-00835100855ADDAA101000095GA1085+027435999GD14991+0274359GE19MSL   +99999+99999GF199999999999027431999999MA1100715097585REMMET10012/31/16 22:53:03 METAR KMIC 010453Z 20009KT 10SM OVC090 M03/M08 A2974 RMK AO2 SLP085 T10331083 TSNO
0330726575949602017010105537+45062-093351FM-15+0265KMIC V0302105N005152200059N0160935N5-00335-00895100855ADDAA101000095GA1025+025915999GD11991+0259159GE19AGL   +99999+99999GF102995999999025911999999KA1060M-00281KA2060N-00671KA3240M-00111KA4240N-00671MA1100715097585MD1190019+9999REMMET12812/31/16 23:53:03 METAR KMIC 010553Z 21010KT 10SM FEW085 M03/M09 A2974 RMK AO2 SLP085 T10331089 11028 21067 410111067 51001 TSNOEQDD01      0ADE726
0965726575949602017010105596+45062-093351SOD  +0265KMIC V030999999999999999999999999999+99999+99999999999ADDAA124000025KA1240M-00105KA2240N-00665KG1024W-0061D4KG2024D-0100D4MF1097494100754MG1097484099974OE11240120730008065OE22240089431008065OE33240051499999995RH1024X071D4RH2024N052D4RH3024M065D4REMSOD73024 HR PRECIPITATION (IN):T     24 HR MAX TEMP (F):30 24 HR MAX TEMP TIME (LST):0334 24 HR MIN TEMP (F):20 24 HR MIN TEMP TIME (LST):1815 AVERAGE STATION PRESSURE:28.785 MINIMUM SEA LEVEL PRESSURE:29.52 TIME OF OCCURRENCE:0114 PEAK WIND SPEED (MPH):27  PEAK WIND DIR (DEG):300 PEAK WIND TIME (LST):0806  FASTEST 2MIN SPEED (MPH):20 FASTEST 2MIN DIR (DEG):310 FASTEST 2MIN TIME (LST):0806 AVERAGE WIND SPEED (MPH):11.5 24 HR AVG TEMP (F):25 HEATING DEGREE DAYS:40  COOLING DEGREE DAYS:0   LATEST DAY MAX TEMP (0700-1900 LST):25  LATEST NIGHT MIN TEMP(1900-0800 LST):21 HOURLY INCREMENTAL PRECIPITATION VALUES (IN):.00 0.00 0.00 T    T    T    0.00 0.00 0.00 0.00 0.00 0.00 0.00 0.00 0.00 0.00 0.00 0.00 0.00 0.00 0.00 0.00 0.00 0.00EQDR01     N7GJS072R02     N7GKS075
1234726575949602017010105596+45062-093351SOM  +0265KMIC V030999999999999999999999999999+99999+99999999999ADDAD1002089252599999999UAE102P03P01P00PAH1005001092520495AH2010001892520545AH3015002392515565AH4020002592521025AH5030003392515565AH6045004392515565AI1060005192515565AI2080005892516075AI3100006492516075AI4120008192515565AI5150010292516075AI6180010992516075KB1744N-09785KB2744M-03065KB3744A-06395KC1N9-02881899995KC2M9+00612699995KD1744H13755KD2744C00005KE101P00P31P07PMH109851U10183UMK110362091053U09956260153UREMSOM796PCP MTOT:1.21 PCP GT 24HRS:0.82 DATE(S):25-26 DAYS W/PCP >=.01:9  DAYS W/PCP >=.10:3  DAYS W/ PCP >=.50:1 DAYS W/PCP >=1.00:0 MSDP AMTS W/DATE-TIME TAGS:MIN:5 0.04  25/2049 MIN:10 0.07  25/2054 MIN:15 0.09  25/1556 MIN:20 0.10  25/2102 MIN:30 0.13  25/1556 MIN:45 0.17  25/1556 MIN:60 0.20  25/1556 MIN:80 0.23  25/1607 MIN:100 0.25  25/1607 MIN:120 0.32  25/1556 MIN:150 0.40  25/1607 MIN:180 0.43  25/1607 AVG DLY MIN:14.4  AVG DLY MAX:26.5  AVG MLY TMP:20.5  MIN TMP:-20DATE(S):18 MAX TMP:43  DATE(S):26 DAYS MAX <=32:1 DAYS MAX >=90:0  DAYS MIN <=32:31 DAYS MIN  <=0:7  AVG STP:29.090 LWST SLP:29.39 DATE/TIME:260132 HGST SLP:30.61 DATE/TIME:091047 HDD MTH TOT:1375 DEP NORM:-2553 SEASON(JUL 1-JUN 30):2550 DEP NORM:-25536 CDD MTH TOT:0 DEP NORM:-2553 SEASON(JAN 1-DEC 31):794 DEP NORM:-25536EQDR01  1.217ABP070
0203726575949602017010106537+45062-093351FM-15+0265KMIC V0202205N007252200059N0160935N5-00285-00895100875ADDAA101000095GA1005+999999999GD10991+9999999GF100991999999999999999999MA1100755097615OC101085REMMET10001/01/17 00:53:02 METAR KMIC 010653Z 22014G21KT 10SM CLR M03/M09 A2975 RMK AO2 SLP087 T10281089 TSNO
0192726575949602017010107537+45062-093351FM-15+0265KMIC V0202305N005152200059N0160935N5-00335-00895100945ADDAA101000095GA1005+999999999GD10991+9999999GF100991999999999999999999MA1100815097685REMMET09701/01/17 01:53:02 METAR KMIC 010753Z 23010KT 10SM CLR M03/M09 A2977 RMK AO2 SLP094 T10331089 TSNO
0212726575949602017010108537+45062-093351FM-15+0265KMIC V0202205N004652200059N0160935N5-00335-00895101035ADDAA101000095GA1005+999999999GD10991+9999999GF100991999999999999999999MA1100915097785MD1390179+9999REMMET10301/01/17 02:53:02 METAR KMIC 010853Z 22009KT 10SM CLR M03/M09 A2980 RMK AO2 SLP103 T10331089 53017 TSNO
0192726575949602017010109537+45062-093351FM-15+0265KMIC V0202505N004152200059N0160935N5-00395-00895101095ADDAA101000095GA1005+999999999GD10991+9999999GF100991999999999999999999MA1100955097815REMMET09701/01/17 03:53:02 METAR KMIC 010953Z 25008KT 10SM CLR M04/M09 A2981 RMK AO2 SLP109 T10391089 TSNO
0192726575949602017010110537+45062-093351FM-15+0265KMIC V0202405N003152200059N0160935N5-00445-00895101185ADDAA101000095GA1005+999999999GD10991+9999999GF100991999999999999999999MA1101055097915REMMET09701/01/17 04:53:02 METAR KMIC 011053Z 24006KT 10SM CLR M04/M09 A2984 RMK AO2 SLP118 T10441089 TSNO
0250726575949602017010111537+45062-093351FM-15+0265KMIC V0202605N003152200059N0160935N5-00505-00945101255ADDAA101000095GA1005+999999999GD10991+9999999GF100991999999999999999999KA1060M-00281KA2060N-00501MA1101125097985MD1390209+9999REMMET11501/01/17 05:53:02 METAR KMIC 011153Z 26006KT 10SM CLR M05/M09 A2986 RMK AO2 SLP125 T10501094 11028 21050 53020 TSNO
0146726575949602017010112516+45062-093351FM-16+0265KMIC V0202405N00315006715MN0160935N5-00605-00905999999ADDGA1075+006715999GD13991+0067159MA1101225098085REMMET08801/01/17 06:51:02 SPECI KMIC 011251Z 24006KT 10SM BKN022 M06/M09 A2989 RMK AO2 FIBI (FD)
0217726575949602017010112537+45062-093351FM-15+0265KMIC V0202505N00265006715MN0160935N5-00565-00945101375ADDAA101000095GA1075+006715999GD13991+0067159GE19MSL   +99999+99999GF199999999999006711999999MA1101225098085REMMET10001/01/17 06:53:02 METAR KMIC 011253Z 25005KT 10SM BKN022 M06/M09 A2989 RMK AO2 SLP137 T10561094 (FD)
0217726575949602017010113537+45062-093351FM-15+0265KMIC V0202205N00215006405MN0160935N5-00615-00945101495ADDAA101000095GA1075+006405999GD13991+0064059GE19MSL   +99999+99999GF199999999999006401999999MA1101355098215REMMET10001/01/17 07:53:02 METAR KMIC 011353Z 22004KT 10SM BKN021 M06/M09 A2993 RMK AO2 SLP149 T10611094 (FD)
0218726575949602017010114267+45062-093351FM-16+0265KMIC V0202105N002652200059N0160935N5-00615-00945999999ADDGA1045+006715999GD12991+0067159GE19AGL   +99999+99999GF104995999999006711999999MA1101425098275REMMET09301/01/17 08:26:02 SPECI KMIC 011426Z 21005KT 10SM SCT022 M06/M09 A2995 RMK AO2 T10611094 (FD)EQDD01      0ADE726
0199726575949602017010114347+45062-093351FM-16+0265KMIC V0202105N00265006715MN0160935N5-00615-00945999999ADDGA1075+006715999GD13991+0067159GE19MSL   +99999+99999GF199999999999006711999999MA1101425098275REMMET09301/01/17 08:34:02 SPECI KMIC 011434Z 21005KT 10SM BKN022 M06/M09 A2995 RMK AO2 T10611094 (FD)
0218726575949602017010114417+45062-093351FM-16+0265KMIC V0202105N003152200059N0160935N5-00565-00945999999ADDGA1025+006715999GD11991+0067159GE19AGL   +99999+99999GF102995999999006711999999MA1101465098315REMMET09301/01/17 08:41:02 SPECI KMIC 011441Z 21006KT 10SM FEW022 M06/M09 A2996 RMK AO2 T10561094 (FD)EQDD01      0ADE726
0256726575949602017010114537+45062-093351FM-15+0265KMIC V0202405N002652200059N0160935N5-00565-00895101585ADDAA101000095GA1025+007015999GD11991+0070159GE19AGL   +99999+99999GF102995999999007011999999MA1101465098315MD1190339+9999REMMET10601/01/17 08:53:02 METAR KMIC 011453Z 24005KT 10SM FEW023 M06/M09 A2996 RMK AO2 SLP158 T10561089 51033 (FD)EQDD01      0ADE726
0192726575949602017010115537+45062-093351FM-15+0265KMIC V0202605N002652200059N0160935N5-00395-00835101685ADDAA101000095GA1005+999999999GD10991+9999999GF100991999999999999999999MA1101565098415REMMET09701/01/17 09:53:02 METAR KMIC 011553Z 26005KT 10SM CLR M04/M08 A2999 RMK AO2 SLP168 T10391083 (FD)
0192726575949602017010116537+45062-093351FM-15+0265KMIC V0203205N002152200059N0160935N5-00285-00835101785ADDAA101000095GA1005+999999999GD10991+9999999GF100991999999999999999999MA1101665098515REMMET09701/01/17 10:53:02 METAR KMIC 011653Z 32004KT 10SM CLR M03/M08 A3002 RMK AO2 SLP178 T10281083 (FD)
0199726575949602017010117377+45062-093351FM-16+0265KMIC V0203605N00215007625MN0160935N5-00115-00785999999ADDGA1075+007625999GD13991+0076259GE19MSL   +99999+99999GF199999999999007621999999MA1101635098475REMMET09301/01/17 11:37:02 SPECI KMIC 011737Z 36004KT 10SM BKN025 M01/M08 A3001 RMK AO2 T10111078 (FD)
0275726575949602017010117537+45062-093351FM-15+0265KMIC V0209999V00155007625MN0160935N5-00175-00835101755ADDAA101000095GA1085+007625999GD14991+0076259GE19MSL   +99999+99999GF199999999999007621999999KA1060M-00111KA2060N-00671MA1101635098475MD1090189+9999REMMET11801/01/17 11:53:02 METAR KMIC 011753Z VRB03KT 10SM OVC025 M02/M08 A3001 RMK AO2 SLP175 T10171083 11011 21067 50018 (FD)
0217726575949602017010118537+45062-093351FM-15+0265KMIC V0200205N00265007625MN0160935N5-00175-00835101725ADDAA101000095GA1085+007625999GD14991+0076259GE19MSL   +99999+99999GF199999999999007621999999MA1101595098445REMMET10001/01/17 12:53:02 METAR KMIC 011853Z 02005KT 10SM OVC025 M02/M08 A3000 RMK AO2 SLP172 T10171083 (FD)
0218726575949602017010119277+45062-093351FM-16+0265KMIC V0200205N002652200059N0160935N5-00115-00835999999ADDGA1045+007625999GD12991+0076259GE19AGL   +99999+99999GF104995999999007621999999MA1101595098445REMMET09301/01/17 13:27:02 SPECI KMIC 011927Z 02005KT 10SM SCT025 M01/M08 A3000 RMK AO2 T10111083 (FD)EQDD01      0ADE726
0146726575949602017010119516+45062-093351FM-16+0265KMIC V0200605N00315007625MN0160935N5-00105-00805999999ADDGA1075+007625999GD13991+0076259MA1101595098445REMMET08801/01/17 13:51:02 SPECI KMIC 011951Z 06006KT 10SM BKN025 M01/M08 A3000 RMK AO2 FIBI (FD)
0217726575949602017010119537+45062-093351FM-15+0265KMIC V0200505N00415007625MN0160935N5-00115-00835101715ADDAA101000095GA1075+007625999GD13991+0076259GE19MSL   +99999+99999GF199999999999007621999999MA1101595098445REMMET10001/01/17 13:53:02 METAR KMIC 011953Z 05008KT 10SM BKN025 M01/M08 A3000 RMK AO2 SLP171 T10111083 (FD)
0218726575949602017010120047+45062-093351FM-16+0265KMIC V0200805N002652200059N0160935N5-00115-00835999999ADDGA1045+007625999GD12991+0076259GE19AGL   +99999+99999GF104995999999007621999999MA1101665098515REMMET09301/01/17 14:04:02 SPECI KMIC 012004Z 08005KT 10SM SCT025 M01/M08 A3002 RMK AO2 T10111083 (FD)EQDD01      0ADE726
0256726575949602017010120537+45062-093351FM-15+0265KMIC V0200605N003152200059N0160935N5-00175-00835101805ADDAA101000095GA1025+007925999GD11991+0079259GE19AGL   +99999+99999GF102995999999007921999999MA1101695098545MD1390059+9999REMMET10601/01/17 14:53:02 METAR KMIC 012053Z 06006KT 10SM FEW026 M02/M08 A3003 RMK AO2 SLP180 T10171083 53005 (FD)EQDD01      0ADE726
0192726575949602017010121537+45062-093351FM-15+0265KMIC V0200705N003152200059N0160935N5-00175-00895101855ADDAA101000095GA1005+999999999GD10991+9999999GF100991999999999999999999MA1101735098575REMMET09701/01/17 15:53:02 METAR KMIC 012153Z 07006KT 10SM CLR M02/M09 A3004 RMK AO2 SLP185 T10171089 (FD)
0192726575949602017010122537+45062-093351FM-15+0265KMIC V0200805N002152200059N0160935N5-00225-00895101935ADDAA101000095GA1005+999999999GD10991+9999999GF100991999999999999999999MA1101795098645REMMET09701/01/17 16:53:02 METAR KMIC 012253Z 08004KT 10SM CLR M02/M09 A3006 RMK AO2 SLP193 T10221089 (FD)
0250726575949602017010123537+45062-093351FM-15+0265KMIC V0200605N002152200059N0160935N5-00285-00895102005ADDAA101000095GA1005+999999999GD10991+9999999GF100991999999999999999999KA1060M-00111KA2060N-00281MA1101865098705MD1390179+9999REMMET11501/01/17 17:53:02 METAR KMIC 012353Z 06004KT 10SM CLR M03/M09 A3008 RMK AO2 SLP200 T10281089 11011 21028 53017 (FD)
0231726575949602017010200537+45062-093351FM-15+0265KMIC V0200705N002652200059N0160935N5-00225-00835102025ADDAA101000095GA1025+036585999GD11991+0365859GE19AGL   +99999+99999GF102995999999036581999999MA1101905098745REMMET09501/01/17 18:53:01 METAR KMIC 020053Z 07005KT 10SM FEW120 M02/M08 A3009 RMK AO2 SLP202 T10221083EQDD01      0ADE726
0231726575949602017010201537+45062-093351FM-15+0265KMIC V0200705N002152200059N0160935N5-00225-00835102045ADDAA101000095GA1025+036585999GD11991+0365859GE19AGL   +99999+99999GF102995999999036581999999MA1101905098745REMMET09501/01/17 19:53:01 METAR KMIC 020153Z 07004KT 10SM FEW120 M02/M08 A3009 RMK AO2 SLP204 T10221083EQDD01      0ADE726
0270726575949602017010202537+45062-093351FM-15+0265KMIC V0200705N00365027435MN0160935N5-00285-00835102015ADDAA101000095GA1075+027435999GA2085+033535999GD13991+0274359GD24991+0335359GE19MSL   +99999+99999GF199999999999027431999999MA1101865098705MD1090019+9999REMMET10801/01/17 20:53:02 METAR KMIC 020253Z 07007KT 10SM BKN090 OVC110 M03/M08 A3008 RMK AO2 SLP201 T10281083 50001
0212726575949602017010203537+45062-093351FM-15+0265KMIC V0200905N00315027435MN0160935N5-00225-00835101995ADDAA101000095GA1085+027435999GD14991+0274359GE19MSL   +99999+99999GF199999999999027431999999MA1101865098705REMMET09501/01/17 21:53:02 METAR KMIC 020353Z 09006KT 10SM OVC090 M02/M08 A3008 RMK AO2 SLP199 T10221083
0212726575949602017010204537+45062-093351FM-15+0265KMIC V0201005N00265019815MN0160935N5-00225-00785102015ADDAA101000095GA1085+019815999GD14991+0198159GE19MSL   +99999+99999GF199999999999019811999999MA1101905098745REMMET09501/01/17 22:53:02 METAR KMIC 020453Z 10005KT 10SM OVC065 M02/M08 A3009 RMK AO2 SLP201 T10221078
0344726575949602017010205537+45062-093351FM-15+0265KMIC V0200705N00215021345MN0160935N5-00225-00785102025ADDAA101000095GA1075+021345999GA2085+024385999GD13991+0213459GD24991+0243859GE19MSL   +99999+99999GF199999999999021341999999KA1060M-00221KA2060N-00281KA3240M-00111KA4240N-00671MA1101905098745MD1390039+9999REMMET13001/01/17 23:53:02 METAR KMIC 020553Z 07004KT 10SM BKN070 OVC080 M02/M08 A3009 RMK AO2 SLP202 T10221078 11022 21028 410111067 53003
0886726575949602017010205596+45062-093351SOD  +0265KMIC V020999999999999999999999999999+99999+99999999999ADDAA124000095KA1240M-00105KA2240N-00665MG1098464100814OE11240111822000465OE22240089422000335OE33240030899999995REMSOD73024 HR PRECIPITATION (IN):0.00  24 HR MAX TEMP (F):30 24 HR MAX TEMP TIME (LST):1433 24 HR MIN TEMP (F):20 24 HR MIN TEMP TIME (LST):0804 AVERAGE STATION PRESSURE:29.075 MINIMUM SEA LEVEL PRESSURE:29.77 TIME OF OCCURRENCE:0019 PEAK WIND SPEED (MPH):25  PEAK WIND DIR (DEG):220 PEAK WIND TIME (LST):0046  FASTEST 2MIN SPEED (MPH):20 FASTEST 2MIN DIR (DEG):220 FASTEST 2MIN TIME (LST):0033 AVERAGE WIND SPEED (MPH):6.9  24 HR AVG TEMP (F):25 HEATING DEGREE DAYS:40  COOLING DEGREE DAYS:0   LATEST DAY MAX TEMP (0700-1900 LST):30  LATEST NIGHT MIN TEMP(1900-0800 LST):20 HOURLY INCREMENTAL PRECIPITATION VALUES (IN):.00 0.00 0.00 0.00 0.00 0.00 0.00 0.00 0.00 0.00 0.00 0.00 0.00 0.00 0.00 0.00 0.00 0.00 0.00 0.00 0.00 0.00 0.00 0.00EQDR01     N7GJS072R02     N7GKS075
0212726575949602017010206537+45062-093351FM-15+0265KMIC V0200605N00315021345MN0160935N5-00225-00785102015ADDAA101000095GA1085+021345999GD14991+0213459GE19MSL   +99999+99999GF199999999999021341999999MA1101905098745REMMET09501/02/17 00:53:02 METAR KMIC 020653Z 06006KT 10SM OVC070 M02/M08 A3009 RMK AO2 SLP201 T10221078
0282726575949602017010207537+45062-093351FM-15+0265KMIC V0200905N00315024385MN0096565N5-00285-00725101975ADDAA101000025AU110030015AW1715GA1045+012195999GA2085+024385999GD12991+0121959GD24991+0243859GE19MSL   +99999+99999GF199999999999012191999999MA1101865098705REMMET11701/02/17 01:53:02 METAR KMIC 020753Z 09006KT 6SM -SN SCT040 OVC080 M03/M07 A3008 RMK AO2 SNB40 SLP197 P0000 T10281072
0282726575949602017010208537+45062-093351FM-15+0265KMIC V0200705N00315033535MN0160935N5-00285-00725102025ADDAA101000095AA203000021GA1085+033535999GD14991+0335359GE19MSL   +99999+99999GF199999999999033531999999MA1101905098745MD1590009+9999REMMET12101/02/17 02:53:02 METAR KMIC 020853Z 07006KT 10SM OVC110 M03/M07 A3009 RMK AO2 SNE0755 SLP202 P0000 60000 T10281072 55000EQDQ01  00008PRCP03
0212726575949602017010209537+45062-093351FM-15+0265KMIC V0200805N00265033535MN0160935N5-00285-00675101995ADDAA101000095GA1085+033535999GD14991+0335359GE19MSL   +99999+99999GF199999999999033531999999MA1101865098705REMMET09501/02/17 03:53:02 METAR KMIC 020953Z 08005KT 10SM OVC110 M03/M07 A3008 RMK AO2 SLP199 T10281067
0212726575949602017010210537+45062-093351FM-15+0265KMIC V0200905N00265030485MN0160935N5-00225-00725101985ADDAA101000095GA1085+030485999GD14991+0304859GE19MSL   +99999+99999GF199999999999030481999999MA1101865098705REMMET09501/02/17 04:53:02 METAR KMIC 021053Z 09005KT 10SM OVC100 M02/M07 A3008 RMK AO2 SLP198 T10221072
0287726575949602017010211537+45062-093351FM-15+0265KMIC V0201005N00365025915MN0160935N5-00225-00725101915ADDAA101000095AA206000021GA1085+025915999GD14991+0259159GE19MSL   +99999+99999GF199999999999025911999999KA1060M-00221KA2060N-00281MA1101795098645MD1890109+9999REMMET11901/02/17 05:53:02 METAR KMIC 021153Z 10007KT 10SM OVC085 M02/M07 A3006 RMK AO2 SLP191 60000 T10221072 11022 21028 58010
0217726575949602017010212537+45062-093351FM-15+0265KMIC V0200905N00315022865MN0160935N5-00225-00725101905ADDAA101000095GA1085+022865999GD14991+0228659GE19MSL   +99999+99999GF199999999999022861999999MA1101795098645REMMET10001/02/17 06:53:02 METAR KMIC 021253Z 09006KT 10SM OVC075 M02/M07 A3006 RMK AO2 SLP190 T10221072 (FD)
0217726575949602017010213537+45062-093351FM-15+0265KMIC V0200905N00415019815MN0160935N5-00175-00725101865ADDAA101000095GA1085+019815999GD14991+0198159GE19MSL   +99999+99999GF199999999999019811999999MA1101765098605REMMET10001/02/17 07:53:02 METAR KMIC 021353Z 09008KT 10SM OVC065 M02/M07 A3005 RMK AO2 SLP186 T10171072 (FD)
0313726575949602017010214537+45062-093351FM-15+0265KMIC V0200905N00365021345MN0160935N5-00175-00725101865ADDAA101000095GA1045+015245999GA2075+021345999GA3085+024385999GD12991+0152459GD23991+0213459GD34991+0243859GE19MSL   +99999+99999GF199999999999015241999999MA1101765098605MD1690059+9999REMMET12001/02/17 08:53:02 METAR KMIC 021453Z 09007KT 10SM SCT050 BKN070 OVC080 M02/M07 A3005 RMK AO2 SLP186 T10171072 56005 (FD)
0217726575949602017010215537+45062-093351FM-15+0265KMIC V0201005N00365013115MN0160935N5-00115-00675101885ADDAA101000095GA1085+013115999GD14991+0131159GE19MSL   +99999+99999GF199999999999013111999999MA1101765098605REMMET10001/02/17 09:53:02 METAR KMIC 021553Z 10007KT 10SM OVC043 M01/M07 A3005 RMK AO2 SLP188 T10111067 (FD)
0217726575949602017010216537+45062-093351FM-15+0265KMIC V0200905N00415012505MN0160935N5-00065-00675101875ADDAA101000095GA1085+012505999GD14991+0125059GE19MSL   +99999+99999GF199999999999012501999999MA1101765098605REMMET10001/02/17 10:53:02 METAR KMIC 021653Z 09008KT 10SM OVC041 M01/M07 A3005 RMK AO2 SLP187 T10061067 (FD)
0312726575949602017010217537+45062-093351FM-15+0265KMIC V0201005N00315016765MN0144845N5-00065-00615101745ADDAA101000095GA1025+013725999GA2085+016765999GD11991+0137259GD24991+0167659GE19MSL   +99999+99999GF199999999999013721999999KA1060M-00061KA2060N-00221MA1101635098475MD1890119+9999REMMET12401/02/17 11:53:02 METAR KMIC 021753Z 10006KT 9SM FEW045 OVC055 M01/M06 A3001 RMK AO2 SLP174 T10061061 11006 21022 58011 (FD)
0280726575949602017010218537+45062-093351FM-15+0265KMIC V0200705N00365014945MN0080475N5-00065-00505101665ADDAA101000095AU100007015AW1051GA1025+007625999GA2085+014945999GD11991+0076259GD24991+0149459GE19MSL   +99999+99999GF199999999999007621999999MA1101565098415MW1055REMMET10901/02/17 12:53:02 METAR KMIC 021853Z 07007KT 5SM HZ FEW025 OVC049 M01/M05 A2999 RMK AO2 SLP166 T10061050 (FD)
0236726575949602017010219247+45062-093351FM-16+0265KMIC V0200805N00365006105MN0128755N5-00065-00445999999ADDGA1075+006105999GA2085+014025999GD13991+0061059GD24991+0140259GE19MSL   +99999+99999GF199999999999006101999999MA1101525098375REMMET09901/02/17 13:24:02 SPECI KMIC 021924Z 08007KT 8SM BKN020 OVC046 M01/M04 A2998 RMK AO2 T10061044 (FD)
0254726575949602017010219537+45062-093351FM-15+0265KMIC V0200705N00415005495MN0112655N5-00065-00445101585ADDAA101000095GA1075+005495999GA2085+011285999GD13991+0054959GD24991+0112859GE19MSL   +99999+99999GF199999999999005491999999MA1101465098315REMMET10601/02/17 13:53:02 METAR KMIC 021953Z 07008KT 7SM BKN018 OVC037 M01/M04 A2996 RMK AO2 SLP158 T10061044 (FD)
0262726575949602017010220067+45062-093351FM-16+0265KMIC V0200705N00415010675MN0080475N5-00065-00445999999ADDAU100007015AW1051GA1045+004885999GA2085+010675999GD12991+0048859GD24991+0106759GE19MSL   +99999+99999GF199999999999004881999999MA1101465098315MW1055REMMET10201/02/17 14:06:02 SPECI KMIC 022006Z 07008KT 5SM HZ SCT016 OVC035 M01/M04 A2996 RMK AO2 T10061044 (FD)
0262726575949602017010220137+45062-093351FM-16+0265KMIC V0200705N00415004885MN0064375N5-00065-00395999999ADDAU100007015AW1051GA1075+004885999GA2085+010675999GD13991+0048859GD24991+0106759GE19MSL   +99999+99999GF199999999999004881999999MA1101465098315MW1055REMMET10201/02/17 14:13:02 SPECI KMIC 022013Z 07008KT 4SM HZ BKN016 OVC035 M01/M04 A2996 RMK AO2 T10061039 (FD)
0329726575949602017010220537+45062-093351FM-15+0265KMIC V0200805N00365004275MN0064375N5-00065-00395101545ADDAA101000025AA203000021AU100007015AW1051GA1085+004275999GD14991+0042759GE19MSL   +99999+99999GF199999999999004271999999MA1101425098275MD1690209+9999MW1055REMMET12901/02/17 14:53:02 METAR KMIC 022053Z 08007KT 4SM HZ OVC014 M01/M04 A2995 RMK AO2 UPB26E38 SLP154 P0000 60000 T10061039 56020 (FD)EQDQ01  00002PRCP03Q02  00008PRCP03
0224726575949602017010221237+45062-093351FM-16+0265KMIC V0200905N00365007625MN0048285N5-00065-00335999999ADDAU100007015AW1051GA1085+007625999GD14991+0076259GE19MSL   +99999+99999GF199999999999007621999999MA1101425098275MW1055REMMET09501/02/17 15:23:02 SPECI KMIC 022123Z 09007KT 3SM HZ OVC025 M01/M03 A2995 RMK AO2 T10061033 (FD)
0333726575949602017010221537+45062-093351FM-15+0265KMIC V0201005N00265005495MN0064375N5-00065-00335101555ADDAA101000095AU100007015AW1051GA1025+003055999GA2075+005495999GA3085+007325999GD11991+0030559GD23991+0054959GD34991+0073259GE19MSL   +99999+99999GF199999999999003051999999MA1101425098275MW1055WA1900099REMMET12201/02/17 15:53:02 METAR KMIC 022153Z 10005KT 4SM HZ FEW010 BKN018 OVC024 M01/M03 A2995 RMK AO2 SLP155 I1000 T10061033 TSNO
0313726575949602017010222107+45062-093351FM-16+0265KMIC V0200905N00365005495MN0040235N5-00065-00285999999ADDAU100001015AW1105GA1025+003355999GA2075+005495999GA3085+010365999GD11991+0033559GD23991+0054959GD34991+0103659GE19MSL   +99999+99999GF199999999999003351999999MA1101425098275WA1900099REMMET11901/02/17 16:10:02 SPECI KMIC 022210Z 09007KT 2 1/2SM BR FEW011 BKN018 OVC034 M01/M03 A2995 RMK AO2 I1000 T10061028 (RH)
0313726575949602017010222427+45062-093351FM-16+0265KMIC V0200705N00265004575MN0040235N5-00065-00285999999ADDAU100001015AW1105GA1045+002745999GA2075+004575999GA3085+006405999GD12991+0027459GD23991+0045759GD34991+0064059GE19MSL   +99999+99999GF199999999999002741999999MA1101425098275WA1900199REMMET11901/02/17 16:42:02 SPECI KMIC 022242Z 07005KT 2 1/2SM BR SCT009 BKN015 OVC021 M01/M03 A2995 RMK AO2 I1001 T10061028 (RH)
0309726575949602017010222467+45062-093351FM-16+0265KMIC V0200505N00215003965MN0048285N5-00065-00285999999ADDAU100001015AW1105GA1045+002745999GA2075+003965999GA3085+006405999GD12991+0027459GD23991+0039659GD34991+0064059GE19MSL   +99999+99999GF199999999999002741999999MA1101425098275WA1900199REMMET11501/02/17 16:46:02 SPECI KMIC 022246Z 05004KT 3SM BR SCT009 BKN013 OVC021 M01/M03 A2995 RMK AO2 I1001 T10061028 (RH)
0209726575949602017010222516+45062-093351FM-16+0265KMIC V0200605N00215002745MN0048285N5-00105-00305999999ADDAU100001015AW1105GA1075+002745999GA2085+005795999GD13991+0027459GD24991+0057959MA1101425098275REMMET10301/02/17 16:51:02 SPECI KMIC 022251Z 06004KT 3SM BR BKN009 OVC019 M01/M03 A2995 RMK AO2 I1001 FIBI (RH)
0289726575949602017010222537+45062-093351FM-15+0265KMIC V0200605N00215002745MN0048285N5-00065-00285101535ADDAA101000095AU100001015AW1105GA1075+002745999GA2085+005795999GD13991+0027459GD24991+0057959GE19MSL   +99999+99999GF199999999999002741999999MA1101425098275WA1900199REMMET11501/02/17 16:53:02 METAR KMIC 022253Z 06004KT 3SM BR BKN009 OVC019 M01/M03 A2995 RMK AO2 SLP153 I1001 T10061028 (RH)
0234726575949602017010223357+45062-093351FM-16+0265KMIC V0200105N00265002135MN0040235N5-00065-00225999999ADDAU100001015AW1105GA1085+002135999GD14991+0021351GE19MSL   +99999+99999GF199999999999002131999999MA1101425098275REMMET11101/02/17 17:35:02 SPECI KMIC 022335Z 01005KT 2 1/2SM BR OVC007 M01/M02 A2995 RMK AO2 CIG 005V009 T10061022 (RH)
0230726575949602017010223467+45062-093351FM-16+0265KMIC V0200305N00215002135MN0048285N5-00065-00225999999ADDAU100001015AW1105GA1085+002135999GD14991+0021351GE19MSL   +99999+99999GF199999999999002131999999MA1101425098275REMMET10701/02/17 17:46:02 SPECI KMIC 022346Z 03004KT 3SM BR OVC007 M01/M02 A2995 RMK AO2 CIG 005V009 T10061022 (RH)
0338726575949602017010223537+45062-093351FM-15+0265KMIC V0200505N00215002135MN0048285N5-00065-00225101535ADDAA101000095AA206000021AU100001015AW1105GA1085+002135999GD14991+0021351GE19MSL   +99999+99999GF199999999999002131999999KA1060M-00061KA2060N-00061MA1101425098275MD1890019+9999WA1900199REMMET14401/02/17 17:53:02 METAR KMIC 022353Z 05004KT 3SM BR OVC007 M01/M02 A2995 RMK AO2 CIG 005V010 SLP153 60000 I6001 T10061022 11006 21006 58001 (RH)
0229726575949602017010300107+45062-093351FM-16+0265KMIC V0200605N00265002445MN0040235N5-00065-00225999999ADDAU100001015AW1105GA1085+002445999GD14991+0024451GE19MSL   +99999+99999GF199999999999002441999999MA1101425098275REMMET10601/02/17 18:10:01 SPECI KMIC 030010Z 06005KT 2 1/2SM BR OVC008 M01/M02 A2995 RMK AO2 CIG 005V011 T10061022
0244726575949602017010300277+45062-093351FM-16+0265KMIC V0200405N00215003055MN0040235N5-00065-00225999999ADDAU100001015AW1105GA1085+003055999GD14991+0030551GE19MSL   +99999+99999GF199999999999003051999999MA1101465098315WA1900099REMMET11201/02/17 18:27:01 SPECI KMIC 030027Z 04004KT 2 1/2SM BR OVC010 M01/M02 A2996 RMK AO2 CIG 005V011 I1000 T10061022
0282726575949602017010300387+45062-093351FM-16+0265KMIC V0200505N00265001835MN0040235N5-00065-00225999999ADDAU100001015AW1105GA1075+001835999GA2085+003055999GD13991+0018351GD24991+0030559GE19MSL   +99999+99999GF199999999999001831999999MA1101465098315WA1900099REMMET11901/02/17 18:38:01 SPECI KMIC 030038Z 05005KT 2 1/2SM BR BKN006 OVC010 M01/M02 A2996 RMK AO2 CIG 005V009 I1000 T10061022
0262726575949602017010300537+45062-093351FM-15+0265KMIC V0200605N00155002745MN0028165N5-00065-00225101565ADDAA101000095AU100001015AW1105GA1085+002745999GD14991+0027451GE19MSL   +99999+99999GF199999999999002741999999MA1101465098315WA1900199REMMET11901/02/17 18:53:01 METAR KMIC 030053Z 06003KT 1 3/4SM BR OVC009 M01/M02 A2996 RMK AO2 CIG 004V012 SLP156 I1001 T10061022
0171726575949602017010301516+45062-093351FM-16+0265KMIC V0200705N00215001525MN0032195N5-00105-00205999999ADDAU100001015AW1105GA1085+001525999GD14991+0015259MA1101425098275REMMET09601/02/17 19:51:03 SPECI KMIC 030151Z 07004KT 2SM BR OVC005 M01/M02 A2995 RMK AO2 I1001 FIBI (RH)
0246726575949602017010301537+45062-093351FM-15+0265KMIC V0200605N00265001525MN0032195N5-00065-00225101525ADDAA101000095AU100001015AW1105GA1085+001525999GD14991+0015259GE19MSL   +99999+99999GF199999999999001521999999MA1101425098275WA1900199REMMET10301/02/17 19:53:01 METAR KMIC 030153Z 06005KT 2SM BR OVC005 M01/M02 A2995 RMK AO2 SLP152 I1001 T10061022
0272726575949602017010302537+45062-093351FM-15+0265KMIC V0200805N00215001525MN0032195N5-00065-00225101455ADDAA101000095AU100001015AW1105GA1085+001525999GD14991+0015259GE19MSL   +99999+99999GF199999999999001521999999MA1101325098185MD1890089+9999WA1900199REMMET11501/02/17 20:53:02 METAR KMIC 030253Z 08004KT 2SM BR OVC005 M01/M02 A2992 RMK AO2 SLP145 I1001 I3003 T10061022 58008
0236726575949602017010303447+45062-093351FM-16+0265KMIC V0209999C00005001525MN0028165N5+00005-00175999999ADDAU100001015AW1105GA1085+001525999GD14991+0015259GE19MSL   +99999+99999GF199999999999001521999999MA1101355098215WA1900199REMMET10401/02/17 21:44:02 SPECI KMIC 030344Z 00000KT 1 3/4SM BR OVC005 00/M02 A2993 RMK AO2 I1001 T00001017 TSNO
0254726575949602017010303537+45062-093351FM-15+0265KMIC V0209999C00005001525MN0028165N5+00005-00175101455ADDAA101000095AU100001015AW1105GA1085+001525999GD14991+0015259GE19MSL   +99999+99999GF199999999999001521999999MA1101355098215WA1900199REMMET11101/02/17 21:53:02 METAR KMIC 030353Z 00000KT 1 3/4SM BR OVC005 00/M02 A2993 RMK AO2 SLP145 I1001 T00001017 TSNO
0236726575949602017010304167+45062-093351FM-16+0265KMIC V0209999C00005001225MN0028165N5+00005-00225999999ADDAU100001015AW1105GA1085+001225999GD14991+0012259GE19MSL   +99999+99999GF199999999999001221999999MA1101355098215WA1900099REMMET10401/02/17 22:16:02 SPECI KMIC 030416Z 00000KT 1 3/4SM BR OVC004 00/M02 A2993 RMK AO2 I1000 T00001022 TSNO
0238726575949602017010304517+45062-093351FM-16+0265KMIC V0209999C00005001525MN0024145N5+00005-00205999999ADDAU100001015AW1105GA1085+001525999GD14991+0015251GE19MSL   +99999+99999GF199999999999001521999999MA1101325098185WA1900199REMMET10601/02/17 22:51:02 SPECI KMIC 030451Z 00000KT 1 1/2SM BR OVC005 00/M02 A2992 RMK AO2 CIG 004V008 I1001 TSNO
0254726575949602017010304537+45062-093351FM-15+0265KMIC V0200705N00155001525MN0024145N5+00005-00175101435ADDAA101000095AU100001015AW1105GA1085+001525999GD14991+0015259GE19MSL   +99999+99999GF199999999999001521999999MA1101325098185WA1900199REMMET11101/02/17 22:53:02 METAR KMIC 030453Z 07003KT 1 1/2SM BR OVC005 00/M02 A2992 RMK AO2 SLP143 I1001 T00001017 TSNO
0236726575949602017010305207+45062-093351FM-16+0265KMIC V0209999C00005000915MN0028165N5+00005-00175999999ADDAU100001015AW1105GA1085+000915999GD14991+0009159GE19MSL   +99999+99999GF199999999999000911999999MA1101395098245WA1900099REMMET10401/02/17 23:20:02 SPECI KMIC 030520Z 00000KT 1 3/4SM BR OVC003 00/M02 A2994 RMK AO2 I1000 T00001017 TSNO
0354726575949602017010305537+45062-093351FM-15+0265KMIC V0209999C00005001225MN0020125N5+00005-00175101445ADDAA101000095AU100001015AW1105GA1085+001225999GD14991+0012259GE19MSL   +99999+99999GF199999999999001221999999KA1060M+00001KA2060N-00061KA3240M+00001KA4240N-00281MA1101325098185MD1590019+9999WA1900299REMMET14501/02/17 23:53:02 METAR KMIC 030553Z 00000KT 1 1/4SM BR OVC004 00/M02 A2992 RMK AO2 SLP144 I1000 I6005 T00001017 10000 21006 400001028 55001 TSNO
0922726575949602017010305596+45062-093351SOD  +0265KMIC V020999999999999999999999999999+99999+99999999999ADDAA124000025AT1AU18SN  5AT2AU13BR  5AT3AU08HZ  5KA1240M+00005KA2240N-00275MG1098394101424OE11240071508015325OE22240053609015285OE33240027399999995REMSOD73024 HR PRECIPITATION (IN):T     24 HR MAX TEMP (F):32 24 HR MAX TEMP TIME (LST):2359 24 HR MIN TEMP (F):27 24 HR MIN TEMP TIME (LST):0422 AVERAGE STATION PRESSURE:29.055 MINIMUM SEA LEVEL PRESSURE:29.95 TIME OF OCCURRENCE:2359 PEAK WIND SPEED (MPH):16  PEAK WIND DIR (DEG):80  PEAK WIND TIME (LST):1532  FASTEST 2MIN SPEED (MPH):12 FASTEST 2MIN DIR (DEG):90  FASTEST 2MIN TIME (LST):1528 AVERAGE WIND SPEED (MPH):6.1  24 HR AVG TEMP (F):30 HEATING DEGREE DAYS:35  COOLING DEGREE DAYS:0   LATEST DAY MAX TEMP (0700-1900 LST):31  LATEST NIGHT MIN TEMP(1900-0800 LST):27 HOURLY INCREMENTAL PRECIPITATION VALUES (IN):.00 T    0.00 0.00 0.00 0.00 0.00 0.00 0.00 0.00 0.00 0.00 0.00 0.00 T    0.00 0.00 0.00 0.00 0.00 0.00 0.00 0.00 0.00EQDR01     N7GJS072R02     N7GKS075
0254726575949602017010306537+45062-093351FM-15+0265KMIC V0209999C00005000915MN0024145N5+00005-00175101425ADDAA101000095AU100001015AW1105GA1085+000915999GD14991+0009159GE19MSL   +99999+99999GF199999999999000911999999MA1101325098185WA1900199REMMET11101/03/17 00:53:02 METAR KMIC 030653Z 00000KT 1 1/2SM BR OVC003 00/M02 A2992 RMK AO2 SLP142 I1001 T00001017 TSNO
0217726575949602017010307407+45062-093351FM-16+0265KMIC V0202705N00215001225MN0032195N5+00005-00175999999ADDAU100001015AW1105GA1085+001225999GD14991+0012259GE19MSL   +99999+99999GF199999999999001221999999MA1101395098245REMMET09401/03/17 01:40:02 SPECI KMIC 030740Z 27004KT 2SM BR OVC004 00/M02 A2994 RMK AO2 T00001017 TSNO
0235726575949602017010307537+45062-093351FM-15+0265KMIC V0202805N00215001225MN0032195N5+00005-00175101485ADDAA101000095AU100001015AW1105GA1085+001225999GD14991+0012259GE19MSL   +99999+99999GF199999999999001221999999MA1101395098245REMMET10101/03/17 01:53:02 METAR KMIC 030753Z 28004KT 2SM BR OVC004 00/M02 A2994 RMK AO2 SLP148 T00001017 TSNO
0221726575949602017010308077+45062-093351FM-16+0265KMIC V0202905N00215000915MN0028165N5+00005-00175999999ADDAU100001015AW1105GA1085+000915999GD14991+0009159GE19MSL   +99999+99999GF199999999999000911999999MA1101355098215REMMET09801/03/17 02:07:02 SPECI KMIC 030807Z 29004KT 1 3/4SM BR OVC003 00/M02 A2993 RMK AO2 T00001017 TSNO
0208726575949602017010308487+45062-093351FM-16+0265KMIC V0202805N00265000915MN0032195N5-00105-00205999999ADDAU100001015AW1105GA1085+000915999GD14991+0009159GE19MSL   +99999+99999GF199999999999000911999999MA1101325098185REMMET08501/03/17 02:48:02 SPECI KMIC 030848Z 28005KT 2SM BR OVC003 M01/M02 A2992 RMK AO2 TSNO
0283726575949602017010308537+45062-093351FM-15+0265KMIC V0202905N00315000915MN0032195N5-00065-00175101435ADDAA101000095AU100001015AW1105GA1085+000915999GD14991+0009151GE19MSL   +99999+99999GF199999999999000911999999MA1101325098185MD1190019+9999WA1900199REMMET12601/03/17 02:53:02 METAR KMIC 030853Z 29006KT 2SM BR OVC003 M01/M02 A2992 RMK AO2 CIG 002V007 SLP143 I3001 T10061017 51001 TSNO
0218726575949602017010309087+45062-093351FM-16+0265KMIC V0202705N00315001225MN0048285N5-00065-00175999999ADDAU100001015AW1105GA1085+001225999GD14991+0012259GE19MSL   +99999+99999GF199999999999001221999999MA1101325098185REMMET09501/03/17 03:08:02 SPECI KMIC 030908Z 27006KT 3SM BR OVC004 M01/M02 A2992 RMK AO2 T10061017 TSNO
0230726575949602017010309367+45062-093351FM-16+0265KMIC V0202905N00415001835MN0080475N5-00065-00225999999ADDAU100001015AW1105GA1085+001835999GD14991+0018351GE19MSL   +99999+99999GF199999999999001831999999MA1101295098145REMMET10701/03/17 03:36:02 SPECI KMIC 030936Z 29008KT 5SM BR OVC006 M01/M02 A2991 RMK AO2 CIG 003V010 T10061022 TSNO
0248726575949602017010309537+45062-093351FM-15+0265KMIC V0202905N00575001835MN0080475N5-00065-00225101425ADDAA101000095AU100001015AW1105GA1085+001835999GD14991+0018351GE19MSL   +99999+99999GF199999999999001831999999MA1101325098185REMMET11401/03/17 03:53:02 METAR KMIC 030953Z 29011KT 5SM BR OVC006 M01/M02 A2992 RMK AO2 CIG 006V012 SLP142 T10061022 TSNO
0210726575949602017010310317+45062-093351FM-16+0265KMIC V0202805N00465003055MN0112655N5-00065-00335999999ADDGA1085+003055999GD14991+0030551GE19MSL   +99999+99999GF199999999999003051999999MA1101255098115REMMET10401/03/17 04:31:02 SPECI KMIC 031031Z 28009KT 7SM OVC010 M01/M03 A2990 RMK AO2 CIG 007V013 T10061033 TSNO
0303726575949602017010310537+45062-093351FM-15+0265KMIC V0202805N00675003665MN0128755N5-00175-00445101395ADDAA101000095GA1075+003665999GA2075+005495999GA3085+007325999GD13991+0036659GD23991+0054959GD34991+0073259GE19MSL   +99999+99999GF199999999999003661999999MA1101295098145OC101135REMMET11601/03/17 04:53:02 METAR KMIC 031053Z 28013G22KT 8SM BKN012 BKN018 OVC024 M02/M04 A2991 RMK AO2 SLP139 T10171044 TSNO
0327726575949602017010311537+45062-093351FM-15+0265KMIC V0202905N00725004275MN0144845N5-00225-00615101515ADDAA101000095GA1075+004275999GA2085+007325999GD13991+0042759GD24991+0073259GE19MSL   +99999+99999GF199999999999004271999999KA1060M+00001KA2060N-00221MA1101395098245MD1390079+9999WA1900199REMMET13001/03/17 05:53:02 METAR KMIC 031153Z 29014KT 9SM BKN014 OVC024 M02/M06 A2994 RMK AO2 SLP151 I6001 T10221061 10000 21022 53007 TSNO
0228726575949602017010312537+45062-093351FM-15+0265KMIC V0202905N00675003355MN0160935N5-00565-00835101675ADDAA101000095GA1085+003355999GD14991+0033559GE19MSL   +99999+99999GF199999999999003351999999MA1101565098415OC101185REMMET10301/03/17 06:53:02 METAR KMIC 031253Z 29013G23KT 10SM OVC011 M06/M08 A2999 RMK AO2 SLP167 T10561083 (FD)
0228726575949602017010313537+45062-093351FM-15+0265KMIC V0202905N00935003665MN0160935N5-00725-01065101715ADDAA101000095GA1085+003665999GD14991+0036659GE19MSL   +99999+99999GF199999999999003661999999MA1101595098445OC101135REMMET10301/03/17 07:53:02 METAR KMIC 031353Z 29018G22KT 10SM OVC012 M07/M11 A3000 RMK AO2 SLP171 T10721106 (FD)
0228726575949602017010314417+45062-093351FM-16+0265KMIC V0202805N00885004575MN0160935N5-00945-01335999999ADDGA1085+004575999GD14991+0045759GE19MSL   +99999+99999GF199999999999004571999999MA1101635098475OC101345REMMET11401/03/17 08:41:02 SPECI KMIC 031441Z 28017G26KT 10SM OVC015 M09/M13 A3001 RMK AO2 PK WND 28026/1441 T10941133 (FD)
0266726575949602017010314537+45062-093351FM-15+0265KMIC V0202805N00775004575MN0160935N5-01005-01395101795ADDAA101000095GA1075+004575999GD13991+0045759GE19MSL   +99999+99999GF199999999999004571999999MA1101665098515MD1190249+9999OC101185REMMET12701/03/17 08:53:02 METAR KMIC 031453Z 28015G23KT 10SM BKN015 M10/M14 A3002 RMK AO2 PK WND 28026/1441 SLP179 T11001139 51024 (FD)
0229726575949602017010315097+45062-093351FM-16+0265KMIC V0202905N008852200059N0160935N5-01065-01445999999ADDGA1045+004885999GD12991+0048859GE19AGL   +99999+99999GF104995999999004881999999MA1101665098515OC101295REMMET09601/03/17 09:09:02 SPECI KMIC 031509Z 29017G25KT 10SM SCT016 M11/M14 A3002 RMK AO2 T11061144 (FD)EQDD01      0ADE726
0246726575949602017010315537+45062-093351FM-15+0265KMIC V0202905N00985005185MN0160935N5-01115-01565101895ADDAA101000095GA1075+005185999GD13991+0051859GE19MSL   +99999+99999GF199999999999005181999999MA1101765098605OC101295REMMET12101/03/17 09:53:02 METAR KMIC 031553Z 29019G25KT 10SM BKN017 M11/M16 A3005 RMK AO2 PK WND 30028/1542 SLP189 T11111156 (FD)
0246726575949602017010316537+45062-093351FM-15+0265KMIC V0202905N00935004575MN0160935N5-01115-01565101955ADDAA101000095GA1075+004575999GD13991+0045759GE19MSL   +99999+99999GF199999999999004571999999MA1101835098675OC101245REMMET12101/03/17 10:53:02 METAR KMIC 031653Z 29018G24KT 10SM BKN015 M11/M16 A3007 RMK AO2 PK WND 31026/1639 SLP195 T11111156 (FD)
0275726575949602017010317537+45062-093351FM-15+0265KMIC V0202705N00725005495MN0160935N5-01175-01615101945ADDAA101000095GA1075+005495999GD13991+0054959GE19MSL   +99999+99999GF199999999999005491999999KA1060M-00221KA2060N-01171MA1101795098645MD1090149+9999REMMET11801/03/17 11:53:02 METAR KMIC 031753Z 27014KT 10SM BKN018 M12/M16 A3006 RMK AO2 SLP194 T11171161 11022 21117 50014 (FD)
0228726575949602017010318537+45062-093351FM-15+0265KMIC V0202905N00825005795MN0160935N5-01175-01675101875ADDAA101000095GA1075+005795999GD13991+0057959GE19MSL   +99999+99999GF199999999999005791999999MA1101735098575OC101085REMMET10301/03/17 12:53:02 METAR KMIC 031853Z 29016G21KT 10SM BKN019 M12/M17 A3004 RMK AO2 SLP187 T11171167 (FD)
0157726575949602017010319516+45062-093351FM-16+0265KMIC V0203105N008252200059N0160935N5-01205-01805999999ADDGA1045+006405999GD12991+0064059MA1101735098575OC101185REMMET09101/03/17 13:51:02 SPECI KMIC 031951Z 31016G23KT 10SM SCT021 M12/M18 A3004 RMK AO2 FIBI (FD)
0247726575949602017010319537+45062-093351FM-15+0265KMIC V0203005N009352200059N0160935N5-01175-01725101875ADDAA101000095GA1045+006405999GD12991+0064059GE19AGL   +99999+99999GF104995999999006401999999MA1101735098575OC101185REMMET10301/03/17 13:53:02 METAR KMIC 031953Z 30018G23KT 10SM SCT021 M12/M17 A3004 RMK AO2 SLP187 T11171172 (FD)EQDD01      0ADE726
0285726575949602017010320537+45062-093351FM-15+0265KMIC V0202905N009352200059N0160935N5-01225-01785101945ADDAA101000095GA1025+007325999GD11991+0073259GE19AGL   +99999+99999GF102995999999007321999999MA1101795098645MD1590009+9999OC101245REMMET12701/03/17 14:53:02 METAR KMIC 032053Z 29018G24KT 10SM FEW024 M12/M18 A3006 RMK AO2 PK WND 30027/2029 SLP194 T11221178 55000 (FD)EQDD01      0ADE726
0203726575949602017010321537+45062-093351FM-15+0265KMIC V0202905N007752200059N0160935N5-01225-01785101965ADDAA101000095GA1005+999999999GD10991+9999999GF100991999999999999999999MA1101835098675OC101185REMMET10001/03/17 15:53:02 METAR KMIC 032153Z 29015G23KT 10SM CLR M12/M18 A3007 RMK AO2 SLP196 T11221178 (FD)
0235726575949602017010322537+45062-093351FM-15+0265KMIC V0202905N006752200059N0160935N5-01395-01895102065ADDAA101000095GA1005+999999999GD10991+9999999GF100991999999999999999999MA1101905098745OC101295OD149901391290REMMET11801/03/17 16:53:02 METAR KMIC 032253Z 29013G25KT 10SM CLR M14/M19 A3009 RMK AO2 PK WND 29027/2209 SLP206 T11391189 (FD)
0250726575949602017010323537+45062-093351FM-15+0265KMIC V0202805N007252200059N0160935N5-01445-01945102115ADDAA101000095GA1005+999999999GD10991+9999999GF100991999999999999999999KA1060M-01171KA2060N-01441MA1101965098805MD1390159+9999REMMET11501/03/17 17:53:02 METAR KMIC 032353Z 28014KT 10SM CLR M14/M19 A3011 RMK AO2 SLP211 T11441194 11117 21144 53015 (FD)
0230726575949602017010400537+45062-093351FM-15+0265KMIC V0202905N006752200059N0160935N5-01505-02005102125ADDAA101000095GA1005+999999999GD10991+9999999GF100991999999999999999999MA1101965098805OC101135OD149901331280REMMET11301/03/17 18:53:01 METAR KMIC 040053Z 29013G22KT 10SM CLR M15/M20 A3011 RMK AO2 PK WND 28026/2359 SLP212 T11501200
0194726575949602017010401447+45062-093351FM-16+0265KMIC V0202905N00675004575MN0160935N5-01505-02005999999ADDGA1075+004575999GD13991+0045759GE19MSL   +99999+99999GF199999999999004571999999MA1101965098805REMMET08801/03/17 19:44:01 SPECI KMIC 040144Z 29013KT 10SM BKN015 M15/M20 A3011 RMK AO2 T11501200
0157726575949602017010401516+45062-093351FM-16+0265KMIC V0202905N007752200059N0160935N5-01505-02005999999ADDGA1045+004575999GD12991+0045759MA1101965098805OC101085REMMET09101/03/17 19:51:03 SPECI KMIC 040151Z 29015G21KT 10SM SCT015 M15/M20 A3011 RMK AO2 FIBI (FD)
0242726575949602017010401537+45062-093351FM-15+0265KMIC V0202905N006752200059N0160935N5-01565-02005102155ADDAA101000095GA1045+004575999GD12991+0045759GE19AGL   +99999+99999GF104995999999004571999999MA1101965098805OC101085REMMET09801/03/17 19:53:01 METAR KMIC 040153Z 29013G21KT 10SM SCT015 M16/M20 A3011 RMK AO2 SLP215 T11561200EQDD01      0ADE726
0256726575949602017010402537+45062-093351FM-15+0265KMIC V0202905N008252200059N0160935N5-01565-02065102175ADDAA101000095GA1045+004575999GD12991+0045759GE19AGL   +99999+99999GF104995999999004571999999MA1101965098805MD1190029+9999REMMET10601/03/17 20:53:01 METAR KMIC 040253Z 29016KT 10SM SCT015 M16/M21 A3011 RMK AO2 SLP217 T11561206 51002 TSNOEQDD01      0ADE726
0203726575949602017010403537+45062-093351FM-15+0265KMIC V0202905N008852200059N0160935N5-01615-02115102185ADDAA101000095GA1005+999999999GD10991+9999999GF100991999999999999999999MA1102005098845OC101135REMMET10001/03/17 21:53:02 METAR KMIC 040353Z 29017G22KT 10SM CLR M16/M21 A3012 RMK AO2 SLP218 T11611211 TSNO
0192726575949602017010404537+45062-093351FM-15+0265KMIC V0203005N006752200059N0160935N5-01675-02115102215ADDAA101000095GA1005+999999999GD10991+9999999GF100991999999999999999999MA1102005098845REMMET09701/03/17 22:53:02 METAR KMIC 040453Z 30013KT 10SM CLR M17/M21 A3012 RMK AO2 SLP221 T11671211 TSNO
0297726575949602017010405537+45062-093351FM-15+0265KMIC V0202805N008252200059N0160935N5-01725-02225102235ADDAA101000095GA1005+999999999GD10991+9999999GF100991999999999999999999KA1060M-01441KA2060N-01721KA3240M+00001KA4240N-01721MA1102035098875MD1390059+9999OC101135REMMET12801/03/17 23:53:02 METAR KMIC 040553Z 28016G22KT 10SM CLR M17/M22 A3013 RMK AO2 SLP223 T11721222 11144 21172 400001172 53005 TSNO
0898726575949602017010405596+45062-093351SOD  +0265KMIC V020999999999999999999999999999+99999+99999999999ADDAA124000095AT1AU13BR  5KA1240M+00005KA2240N-01715MG1098634101324OE11240143130009425OE22240116231009435OE33240070299999995REMSOD73024 HR PRECIPITATION (IN):0.00  24 HR MAX TEMP (F):32 24 HR MAX TEMP TIME (LST):0245 24 HR MIN TEMP (F):1  24 HR MIN TEMP TIME (LST):2359 AVERAGE STATION PRESSURE:29.125 MINIMUM SEA LEVEL PRESSURE:29.92 TIME OF OCCURRENCE:0444 PEAK WIND SPEED (MPH):32  PEAK WIND DIR (DEG):300 PEAK WIND TIME (LST):0942  FASTEST 2MIN SPEED (MPH):26 FASTEST 2MIN DIR (DEG):310 FASTEST 2MIN TIME (LST):0943 AVERAGE WIND SPEED (MPH):15.7 24 HR AVG TEMP (F):17 HEATING DEGREE DAYS:48  COOLING DEGREE DAYS:0   LATEST DAY MAX TEMP (0700-1900 LST):22  LATEST NIGHT MIN TEMP(1900-0800 LST):19 HOURLY INCREMENTAL PRECIPITATION VALUES (IN):.00 0.00 0.00 0.00 0.00 0.00 0.00 0.00 0.00 0.00 0.00 0.00 0.00 0.00 0.00 0.00 0.00 0.00 0.00 0.00 0.00 0.00 0.00 0.00EQDR01     N7GJS072R02     N7GKS075
0203726575949602017010406537+45062-093351FM-15+0265KMIC V0202805N007252200059N0160935N5-01725-02225102245ADDAA101000095GA1005+999999999GD10991+9999999GF100991999999999999999999MA1102035098875OC101085REMMET10001/04/17 00:53:02 METAR KMIC 040653Z 28014G21KT 10SM CLR M17/M22 A3013 RMK AO2 SLP224 T11721222 TSNO
0203726575949602017010407537+45062-093351FM-15+0265KMIC V0202805N007252200059N0160935N5-01785-02335102285ADDAA101000095GA1005+999999999GD10991+9999999GF100991999999999999999999MA1102075098905OC101085REMMET10001/04/17 01:53:02 METAR KMIC 040753Z 28014G21KT 10SM CLR M18/M23 A3014 RMK AO2 SLP228 T11781233 TSNO
0212726575949602017010408537+45062-093351FM-15+0265KMIC V0202805N007752200059N0160935N5-01835-02335102345ADDAA101000095GA1005+999999999GD10991+9999999GF100991999999999999999999MA1102135098975MD1390109+9999REMMET10301/04/17 02:53:02 METAR KMIC 040853Z 28015KT 10SM CLR M18/M23 A3016 RMK AO2 SLP234 T11831233 53010 TSNO
0192726575949602017010409537+45062-093351FM-15+0265KMIC V0202905N006752200059N0160935N5-01945-02445102355ADDAA101000095GA1005+999999999GD10991+9999999GF100991999999999999999999MA1102135098975REMMET09701/04/17 03:53:02 METAR KMIC 040953Z 29013KT 10SM CLR M19/M24 A3016 RMK AO2 SLP235 T11941244 TSNO
0203726575949602017010410537+45062-093351FM-15+0265KMIC V0202905N008852200059N0160935N5-02005-02445102375ADDAA101000095GA1005+999999999GD10991+9999999GF100991999999999999999999MA1102135098975OC101135REMMET10001/04/17 04:53:02 METAR KMIC 041053Z 29017G22KT 10SM CLR M20/M24 A3016 RMK AO2 SLP237 T12001244 TSNO
0250726575949602017010411537+45062-093351FM-15+0265KMIC V0202905N006752200059N0160935N5-02005-02505102375ADDAA101000095GA1005+999999999GD10991+9999999GF100991999999999999999999KA1060M-01721KA2060N-02001MA1102135098975MD1190019+9999REMMET11501/04/17 05:53:02 METAR KMIC 041153Z 29013KT 10SM CLR M20/M25 A3016 RMK AO2 SLP237 T12001250 11172 21200 51001 TSNO
0192726575949602017010412537+45062-093351FM-15+0265KMIC V0203005N008852200059N0160935N5-02065-02565102405ADDAA101000095GA1005+999999999GD10991+9999999GF100991999999999999999999MA1102175099005REMMET09701/04/17 06:53:02 METAR KMIC 041253Z 30017KT 10SM CLR M21/M26 A3017 RMK AO2 SLP240 T12061256 (FD)
0235726575949602017010413537+45062-093351FM-15+0265KMIC V0203105N005752200059N0128755N5-02115-02615102405ADDAA101000095GA1045+004885999GD12991+0048859GE19AGL   +99999+99999GF104995999999004881999999MA1102175099005REMMET09901/04/17 07:53:02 METAR KMIC 041353Z 31011KT 8SM SCT016 M21/M26 A3017 RMK AO2 SLP240 T12111261 (FD)EQDD01      0ADE726
0243726575949602017010414027+45062-093351FM-16+0265KMIC V0202905N006252200059N0048285N5-02115-02615999999ADDAU100007015AW1051GA1045+004885999GD12991+0048859GE19AGL   +99999+99999GF104995999999004881999999MA1102175099005MW1055REMMET09501/04/17 08:02:02 SPECI KMIC 041402Z 29012KT 3SM HZ SCT016 M21/M26 A3017 RMK AO2 T12111261 (FD)EQDD01      0ADE726
0257726575949602017010414407+45062-093351FM-16+0265KMIC V0203005N004652200059N0040235N5-02115-02565999999ADDAU100007015AW1051GA1045+004885999GD12991+0048859GE19AGL   +99999+99999GF104995999999004881999999MA1102205099035MW1055REMMET10901/04/17 08:40:02 SPECI KMIC 041440Z 30009KT 2 1/2SM HZ SCT016 M21/M26 A3018 RMK AO2 TWR VIS 3 T12111256 (FD)EQDD01      0ADE726
0165726575949602017010414516+45062-093351FM-16+0265KMIC V0202905N006752200059N0048285N5-02105-02605999999ADDAU100007015GA1045+004885999GD12991+0048859MA1102205099035MW1055REMMET09001/04/17 08:51:02 SPECI KMIC 041451Z 29013KT 3SM HZ SCT016 M21/M26 A3018 RMK AO2 FIBI (FD)
0281726575949602017010414537+45062-093351FM-15+0265KMIC V0202905N006252200059N0048285N5-02115-02615102445ADDAA101000095AU100007015AW1051GA1045+004885999GD12991+0048859GE19AGL   +99999+99999GF104995999999004881999999MA1102205099035MD1190049+9999MW1055REMMET10801/04/17 08:53:02 METAR KMIC 041453Z 29012KT 3SM HZ SCT016 M21/M26 A3018 RMK AO2 SLP244 T12111261 51004 (FD)EQDD01      0ADE726
0236726575949602017010415537+45062-093351FM-15+0265KMIC V0203005N004652200059N0160935N5-02065-02565102495ADDAA101000095GA1045+004885999GD12991+0048859GE19AGL   +99999+99999GF104995999999004881999999MA1102245099075REMMET10001/04/17 09:53:02 METAR KMIC 041553Z 30009KT 10SM SCT016 M21/M26 A3019 RMK AO2 SLP249 T12061256 (FD)EQDD01      0ADE726
0192726575949602017010416537+45062-093351FM-15+0265KMIC V0203005N005752200059N0160935N5-01895-02505102465ADDAA101000095GA1005+999999999GD10991+9999999GF100991999999999999999999MA1102205099035REMMET09701/04/17 10:53:02 METAR KMIC 041653Z 30011KT 10SM CLR M19/M25 A3018 RMK AO2 SLP246 T11891250 (FD)
0250726575949602017010417537+45062-093351FM-15+0265KMIC V0202905N006252200059N0160935N5-01835-02445102375ADDAA101000095GA1005+999999999GD10991+9999999GF100991999999999999999999KA1060M-01831KA2060N-02111MA1102135098975MD1890079+9999REMMET11501/04/17 11:53:02 METAR KMIC 041753Z 29012KT 10SM CLR M18/M24 A3016 RMK AO2 SLP237 T11831244 11183 21211 58007 (FD)
0203726575949602017010418537+45062-093351FM-15+0265KMIC V0203005N006752200059N0160935N5-01675-02335102305ADDAA101000095GA1005+999999999GD10991+9999999GF100991999999999999999999MA1102075098905OC101135REMMET10001/04/17 12:53:02 METAR KMIC 041853Z 30013G22KT 10SM CLR M17/M23 A3014 RMK AO2 SLP230 T11671233 (FD)
0203726575949602017010419537+45062-093351FM-15+0265KMIC V0202705N007252200059N0160935N5-01675-02335102265ADDAA101000095GA1005+999999999GD10991+9999999GF100991999999999999999999MA1102035098875OC101085REMMET10001/04/17 13:53:02 METAR KMIC 041953Z 27014G21KT 10SM CLR M17/M23 A3013 RMK AO2 SLP226 T11671233 (FD)
0223726575949602017010420537+45062-093351FM-15+0265KMIC V0202805N006252200059N0160935N5-01615-02285102215ADDAA101000095GA1005+999999999GD10991+9999999GF100991999999999999999999MA1102005098845MD1690149+9999OC100885REMMET10601/04/17 14:53:02 METAR KMIC 042053Z 28012G17KT 10SM CLR M16/M23 A3012 RMK AO2 SLP221 T11611228 56014 (FD)
0203726575949602017010421537+45062-093351FM-15+0265KMIC V0202805N007752200059N0160935N5-01615-02285102235ADDAA101000095GA1005+999999999GD10991+9999999GF100991999999999999999999MA1102005098845OC101035REMMET10001/04/17 15:53:02 METAR KMIC 042153Z 28015G20KT 10SM CLR M16/M23 A3012 RMK AO2 SLP223 T11611228 (FD)
0203726575949602017010422537+45062-093351FM-15+0265KMIC V0202905N006252200059N0160935N5-01675-02335102225ADDAA101000095GA1005+999999999GD10991+9999999GF100991999999999999999999MA1101965098805OC100935REMMET10001/04/17 16:53:02 METAR KMIC 042253Z 29012G18KT 10SM CLR M17/M23 A3011 RMK AO2 SLP222 T11671233 (FD)
0294726575949602017010423537+45062-093351FM-15+0265KMIC V0202905N004652200059N0160935N5-01725-02335102155ADDAA101000095GA1025+030485999GD11991+0304859GE19AGL   +99999+99999GF102995999999030481999999KA1060M-01611KA2060N-01831MA1101905098745MD1890079+9999REMMET11801/04/17 17:53:02 METAR KMIC 042353Z 29009KT 10SM FEW100 M17/M23 A3009 RMK AO2 SLP215 T11721233 11161 21183 58007 (FD)EQDD01      0ADE726
0231726575949602017010500537+45062-093351FM-15+0265KMIC V0202905N005152200059N0160935N5-01785-02335102185ADDAA101000095GA1025+033535999GD11991+0335359GE19AGL   +99999+99999GF102995999999033531999999MA1101935098775REMMET09501/04/17 18:53:01 METAR KMIC 050053Z 29010KT 10SM FEW110 M18/M23 A3010 RMK AO2 SLP218 T11781233EQDD01      0ADE726
0187726575949602017010501537+45062-093351FM-15+0265KMIC V0202805N003152200059N0160935N5-01785-02335102195ADDAA101000095GA1005+999999999GD10991+9999999GF100991999999999999999999MA1101935098775REMMET09201/04/17 19:53:01 METAR KMIC 050153Z 28006KT 10SM CLR M18/M23 A3010 RMK AO2 SLP219 T11781233
0207726575949602017010502537+45062-093351FM-15+0265KMIC V0202805N003652200059N0160935N5-01835-02335102185ADDAA101000095GA1005+999999999GD10991+9999999GF100991999999999999999999MA1101935098775MD1090029+9999REMMET09801/04/17 20:53:02 METAR KMIC 050253Z 28007KT 10SM CLR M18/M23 A3010 RMK AO2 SLP218 T11831233 50002
0255726575949602017010503537+45062-093351FM-15+0265KMIC V0202705N00365014335MN0160935N5-01835-02285102175ADDAA101000095GA1025+011585999GA2075+014335999GD11991+0115859GD23991+0143359GE19MSL   +99999+99999GF199999999999011581999999MA1101935098775REMMET10701/04/17 21:53:02 METAR KMIC 050353Z 27007KT 10SM FEW038 BKN047 M18/M23 A3010 RMK AO2 SLP217 T11831228 TSNO
0216726575949602017010504537+45062-093351FM-15+0265KMIC V0202905N00415010975MN0144845N5-01835-02285102175ADDAA101000095GA1085+010975999GD14991+0109759GE19MSL   +99999+99999GF199999999999010971999999MA1101935098775REMMET09901/04/17 22:53:02 METAR KMIC 050453Z 29008KT 9SM OVC036 M18/M23 A3010 RMK AO2 SLP217 T11831228 TSNO
0336726575949602017010505537+45062-093351FM-15+0265KMIC V0202805N00365014335MN0096565N5-01835-02285102115ADDAA101000095AU100007015AW1051GA1085+014335999GD14991+0143359GE19MSL   +99999+99999GF199999999999014331999999KA1060M-01721KA2060N-01891KA3240M-01611KA4240N-02111MA1101865098705MD1890069+9999MW1055REMMET13001/04/17 23:53:02 METAR KMIC 050553Z 28007KT 6SM HZ OVC047 M18/M23 A3008 RMK AO2 SLP211 T11831228 11172 21189 411611211 58006 TSNO
0898726575949602017010505596+45062-093351SOD  +0265KMIC V020999999999999999999999999999+99999+99999999999ADDAA124000095AT1AU08HZ  5KA1240M-01605KA2240N-02105MG1098834102104OE11240125228012425OE22240093930012485OE33240059599999995REMSOD73024 HR PRECIPITATION (IN):0.00  24 HR MAX TEMP (F):3  24 HR MAX TEMP TIME (LST):1602 24 HR MIN TEMP (F):-6 24 HR MIN TEMP TIME (LST):0925 AVERAGE STATION PRESSURE:29.185 MINIMUM SEA LEVEL PRESSURE:30.15 TIME OF OCCURRENCE:2359 PEAK WIND SPEED (MPH):28  PEAK WIND DIR (DEG):280 PEAK WIND TIME (LST):1242  FASTEST 2MIN SPEED (MPH):21 FASTEST 2MIN DIR (DEG):300 FASTEST 2MIN TIME (LST):1248 AVERAGE WIND SPEED (MPH):13.3 24 HR AVG TEMP (F):-1 HEATING DEGREE DAYS:66  COOLING DEGREE DAYS:0   LATEST DAY MAX TEMP (0700-1900 LST):3   LATEST NIGHT MIN TEMP(1900-0800 LST):-6 HOURLY INCREMENTAL PRECIPITATION VALUES (IN):.00 0.00 0.00 0.00 0.00 0.00 0.00 0.00 0.00 0.00 0.00 0.00 0.00 0.00 0.00 0.00 0.00 0.00 0.00 0.00 0.00 0.00 0.00 0.00EQDR01     N7GJS072R02     N7GKS075
0284726575949602017010506467+45062-093351FM-16+0265KMIC V0203005N00365014635MN0040235N5-01835-02285999999ADDAA101000021AU110030015AW1715GA1045+007325999GA2085+014635999GD12991+0073259GD24991+0146359GE19MSL   +99999+99999GF199999999999007321999999MA1101835098675REMMET11901/05/17 00:46:02 SPECI KMIC 050646Z 30007KT 2 1/2SM -SN SCT024 OVC048 M18/M23 A3007 RMK AO2 SNB18 P0000 T11831228 TSNO
0216726575949602017010506516+45062-093351FM-16+0265KMIC V0202905N00465015245MN0048285N5-01805-02305999999ADDAU110030015AW1715GA1025+007925999GA2085+015245999GD11991+0079259GD24991+0152459MA1101835098675REMMET11001/05/17 00:51:02 SPECI KMIC 050651Z 29009KT 3SM -SN FEW026 OVC050 M18/M23 A3007 RMK AO2 SNB18 P0000 TSNO FIBI
0287726575949602017010506537+45062-093351FM-15+0265KMIC V0203005N00465015245MN0048285N5-01835-02285102055ADDAA101000025AU110030015AW1715GA1045+007925999GA2085+015245999GD12991+0079259GD24991+0152459GE19MSL   +99999+99999GF199999999999007921999999MA1101835098675REMMET12201/05/17 00:53:02 METAR KMIC 050653Z 30009KT 3SM -SN SCT026 OVC050 M18/M23 A3007 RMK AO2 SNB18 SLP205 P0000 T11831228 TSNO
0330726575949602017010507537+45062-093351FM-15+0265KMIC V0203005N00365010065MN0064375N5-01895-02335102055ADDAA101000025AU100007015AW1051GA1025+005185999GA2075+010065999GA3085+015245999GD11991+0051859GD23991+0100659GD34991+0152459GE19MSL   +99999+99999GF199999999999005181999999MA1101795098645MW1055REMMET12801/05/17 01:53:02 METAR KMIC 050753Z 30007KT 4SM HZ FEW017 BKN033 OVC050 M19/M23 A3006 RMK AO2 SNE24 SLP205 P0000 T11891233 TSNO
0343726575949602017010508537+45062-093351FM-15+0265KMIC V0203005N00465010675MN0048285N5-01895-02395102075ADDAA101000025AA203000021AU110030015AW1715GA1025+006405999GA2085+010675999GD11991+0064059GD24991+0106759GE19MSL   +99999+99999GF199999999999006401999999MA1101835098675MD1590039+9999REMMET13401/05/17 02:53:02 METAR KMIC 050853Z 30009KT 3SM -SN FEW021 OVC035 M19/M24 A3007 RMK AO2 SNB46 SLP207 P0000 60000 T11891239 55003 TSNOEQDQ01  00008PRCP03
0278726575949602017010509077+45062-093351FM-16+0265KMIC V0203205N00515005795MN0040235N5-01945-02335999999ADDAA101000021AU110030015AW1715GA1075+005795999GA2085+010675999GD13991+0057959GD24991+0106759GE19MSL   +99999+99999GF199999999999005791999999MA1101835098675REMMET11301/05/17 03:07:02 SPECI KMIC 050907Z 32010KT 2 1/2SM -SN BKN019 OVC035 M19/M23 A3007 RMK AO2 P0000 T11941233 TSNO
0278726575949602017010509177+45062-093351FM-16+0265KMIC V0203305N00465005795MN0028165N5-01945-02335999999ADDAA101000021AU110030015AW1715GA1075+005795999GA2085+010675999GD13991+0057959GD24991+0106759GE19MSL   +99999+99999GF199999999999005791999999MA1101835098675REMMET11301/05/17 03:17:02 SPECI KMIC 050917Z 33009KT 1 3/4SM -SN BKN019 OVC035 M19/M23 A3007 RMK AO2 P0000 T11941233 TSNO
0247726575949602017010509397+45062-093351FM-16+0265KMIC V0203305N00365005795MN0032195N5-02005-02395999999ADDAA101000021AU100007015AW1051GA1085+005795999GD14991+0057959GE19MSL   +99999+99999GF199999999999005791999999MA1101865098705MW1055REMMET10701/05/17 03:39:02 SPECI KMIC 050939Z 33007KT 2SM HZ OVC019 M20/M24 A3008 RMK AO2 SNE36 P0000 T12001239 TSNO
0275726575949602017010509507+45062-093351FM-16+0265KMIC V0203405N00465005795MN0096565N5-02005-02405999999ADDAA101000021AU100007015AW1051GA1025+003665999GA2085+005795999GD11991+0036659GD24991+0057959GE19MSL   +99999+99999GF199999999999003661999999MA1101865098705MW1055REMMET10401/05/17 03:50:02 SPECI KMIC 050950Z 34009KT 6SM HZ FEW012 OVC019 M20/M24 A3008 RMK AO2 SNE36 P0000 TSNO
0304726575949602017010509537+45062-093351FM-15+0265KMIC V0203305N00365005795MN0128755N5-02005-02445102105ADDAA101000025GA1025+003665999GA2075+005795999GA3085+015245999GD11991+0036659GD23991+0057959GD34991+0152459GE19MSL   +99999+99999GF199999999999003661999999MA1101865098705REMMET12501/05/17 03:53:02 METAR KMIC 050953Z 33007KT 8SM FEW012 BKN019 OVC050 M20/M24 A3008 RMK AO2 SNE36 SLP210 P0000 T12001244 TSNO
0199726575949602017010510157+45062-093351FM-16+0265KMIC V0203305N00415004275MN0160935N5-02065-02505999999ADDGA1075+004275999GD13991+0042759GE19MSL   +99999+99999GF199999999999004271999999MA1101865098705REMMET09301/05/17 04:15:02 SPECI KMIC 051015Z 33008KT 10SM BKN014 M21/M25 A3008 RMK AO2 T12061250 TSNO
0218726575949602017010510267+45062-093351FM-16+0265KMIC V0203105N004652200059N0160935N5-02065-02505999999ADDGA1045+004275999GD12991+0042759GE19AGL   +99999+99999GF104995999999004271999999MA1101865098705REMMET09301/05/17 04:26:02 SPECI KMIC 051026Z 31009KT 10SM SCT014 M21/M25 A3008 RMK AO2 T12061250 TSNOEQDD01      0ADE726
0192726575949602017010510537+45062-093351FM-15+0265KMIC V0203205N002652200059N0160935N5-02115-02505102085ADDAA101000095GA1005+999999999GD10991+9999999GF100991999999999999999999MA1101835098675REMMET09701/05/17 04:53:02 METAR KMIC 051053Z 32005KT 10SM CLR M21/M25 A3007 RMK AO2 SLP208 T12111250 TSNO
0267726575949602017010511537+45062-093351FM-15+0265KMIC V0203305N004152200059N0160935N5-02175-02565102075ADDAA101000095AA206000021GA1005+999999999GD10991+9999999GF100991999999999999999999KA1060M-01831KA2060N-02171MA1101835098675MD1890039+9999REMMET12101/05/17 05:53:02 METAR KMIC 051153Z 33008KT 10SM CLR M22/M26 A3007 RMK AO2 SLP207 60000 T12171256 11183 21217 58003 TSNO
0192726575949602017010512537+45062-093351FM-15+0265KMIC V0203205N004152200059N0160935N5-02225-02615102135ADDAA101000095GA1005+999999999GD10991+9999999GF100991999999999999999999MA1101865098705REMMET09701/05/17 06:53:02 METAR KMIC 051253Z 32008KT 10SM CLR M22/M26 A3008 RMK AO2 SLP213 T12221261 (FD)
0192726575949602017010513537+45062-093351FM-15+0265KMIC V0203105N004152200059N0160935N5-02225-02675102165ADDAA101000095GA1005+999999999GD10991+9999999GF100991999999999999999999MA1101905098745REMMET09701/05/17 07:53:02 METAR KMIC 051353Z 31008KT 10SM CLR M22/M27 A3009 RMK AO2 SLP216 T12221267 (FD)
0186726575949602017010514536+45062-093351FM-15+0265KMIC V0203005N004652200059N0160935N5-02175-02565102235ADDAA101000095GA1005+999999999GD10991+9999999MA1101965098805MD1390149+9999REMMET10301/05/17 08:53:02 METAR KMIC 051453Z 30009KT 10SM CLR M22/M26 A3011 RMK AO2 SLP223 T12171256 53014 (FD)
0192726575949602017010515537+45062-093351FM-15+0265KMIC V0203105N003652200059N0160935N5-02065-02565102255ADDAA101000095GA1005+999999999GD10991+9999999GF100991999999999999999999MA1102005098845REMMET09701/05/17 09:53:02 METAR KMIC 051553Z 31007KT 10SM CLR M21/M26 A3012 RMK AO2 SLP225 T12061256 (FD)
0217726575949602017010516537+45062-093351FM-15+0265KMIC V0202905N00365009755MN0160935N5-01945-02445102285ADDAA101000095GA1075+009755999GD13991+0097559GE19MSL   +99999+99999GF199999999999009751999999MA1102035098875REMMET10001/05/17 10:53:02 METAR KMIC 051653Z 29007KT 10SM BKN032 M19/M24 A3013 RMK AO2 SLP228 T11941244 (FD)
0294726575949602017010517537+45062-093351FM-15+0265KMIC V0203005N004652200059N0160935N5-01835-02445102195ADDAA101000095GA1025+007015999GD11991+0070159GE19AGL   +99999+99999GF102995999999007011999999KA1060M-01831KA2060N-02221MA1101935098775MD1890029+9999REMMET11801/05/17 11:53:02 METAR KMIC 051753Z 30009KT 10SM FEW023 M18/M24 A3010 RMK AO2 SLP219 T11831244 11183 21222 58002 (FD)EQDD01      0ADE726
0199726575949602017010518177+45062-093351FM-16+0265KMIC V0202905N00575006715MN0160935N5-01835-02395999999ADDGA1075+006715999GD13991+0067159GE19MSL   +99999+99999GF199999999999006711999999MA1101935098775REMMET09301/05/17 12:17:02 SPECI KMIC 051817Z 29011KT 10SM BKN022 M18/M24 A3010 RMK AO2 T11831239 (FD)
0183726575949602017010518516+45062-093351FM-16+0265KMIC V0203105N00365011285MN0144845N5-01805-02405999999ADDGA1045+006715999GA2075+011285999GD12991+0067159GD23991+0112859MA1101905098745REMMET09401/05/17 12:51:02 SPECI KMIC 051851Z 31007KT 9SM SCT022 BKN037 M18/M24 A3009 RMK AO2 FIBI (FD)
0255726575949602017010518537+45062-093351FM-15+0265KMIC V0203105N00265011585MN0160935N5-01785-02395102135ADDAA101000095GA1045+006715999GA2075+011585999GD12991+0067159GD23991+0115859GE19MSL   +99999+99999GF199999999999006711999999MA1101905098745REMMET10701/05/17 12:53:02 METAR KMIC 051853Z 31005KT 10SM SCT022 BKN038 M18/M24 A3009 RMK AO2 SLP213 T11781239 (FD)
0236726575949602017010519537+45062-093351FM-15+0265KMIC V0202905N004152200059N0160935N5-01725-02335102105ADDAA101000095GA1045+008235999GD12991+0082359GE19AGL   +99999+99999GF104995999999008231999999MA1101865098705REMMET10001/05/17 13:53:02 METAR KMIC 051953Z 29008KT 10SM SCT027 M17/M23 A3008 RMK AO2 SLP210 T11721233 (FD)EQDD01      0ADE726
0256726575949602017010520537+45062-093351FM-15+0265KMIC V0202705N004152200059N0160935N5-01725-02395102075ADDAA101000095GA1045+008235999GD12991+0082359GE19AGL   +99999+99999GF104995999999008231999999MA1101835098675MD1690129+9999REMMET10601/05/17 14:53:02 METAR KMIC 052053Z 27008KT 10SM SCT027 M17/M24 A3007 RMK AO2 SLP207 T11721239 56012 (FD)EQDD01      0ADE726
0236726575949602017010521537+45062-093351FM-15+0265KMIC V0202905N004152200059N0160935N5-01725-02395102105ADDAA101000095GA1045+008235999GD12991+0082359GE19AGL   +99999+99999GF104995999999008231999999MA1101865098705REMMET10001/05/17 15:53:02 METAR KMIC 052153Z 29008KT 10SM SCT027 M17/M24 A3008 RMK AO2 SLP210 T11721239 TSNOEQDD01      0ADE726
0274726575949602017010522537+45062-093351FM-15+0265KMIC V0202805N003652200059N0160935N5-01785-02335102105ADDAA101000095GA1045+006105999GA2045+011585999GD12991+0061059GD22991+0115859GE19AGL   +99999+99999GF104995999999006101999999MA1101865098705REMMET10701/05/17 16:53:02 METAR KMIC 052253Z 28007KT 10SM SCT020 SCT038 M18/M23 A3008 RMK AO2 SLP210 T11781233 TSNOEQDD01      0ADE726
0294726575949602017010523537+45062-093351FM-15+0265KMIC V0202905N004652200059N0160935N5-01895-02395102145ADDAA101000095GA1025+005185999GD11991+0051859GE19AGL   +99999+99999GF102995999999005181999999KA1060M-01671KA2060N-01891MA1101905098745MD1290069+9999REMMET11801/05/17 17:53:02 METAR KMIC 052353Z 29009KT 10SM FEW017 M19/M24 A3009 RMK AO2 SLP214 T11891239 11167 21189 52006 TSNOEQDD01      0ADE726
0212726575949602017010600537+45062-093351FM-15+0265KMIC V0202805N00515015245MN0160935N5-01945-02445102205ADDAA101000095GA1075+015245999GD13991+0152459GE19MSL   +99999+99999GF199999999999015241999999MA1101935098775REMMET09501/05/17 18:53:01 METAR KMIC 060053Z 28010KT 10SM BKN050 M19/M24 A3010 RMK AO2 SLP220 T11941244
0231726575949602017010601207+45062-093351FM-16+0265KMIC V0202905N00515007625MN0144845N5-02005-02505999999ADDGA1075+007625999GA2075+014945999GD13991+0076259GD23991+0149459GE19MSL   +99999+99999GF199999999999007621999999MA1101935098775REMMET09401/05/17 19:20:01 SPECI KMIC 060120Z 29010KT 9SM BKN025 BKN049 M20/M25 A3010 RMK AO2 T12001250
0213726575949602017010601397+45062-093351FM-16+0265KMIC V0202905N005752200059N0160935N5-02005-02505999999ADDGA1045+007015999GD12991+0070159GE19AGL   +99999+99999GF104995999999007011999999MA1101965098805REMMET08801/05/17 19:39:01 SPECI KMIC 060139Z 29011KT 10SM SCT023 M20/M25 A3011 RMK AO2 T12001250EQDD01      0ADE726
0231726575949602017010601537+45062-093351FM-15+0265KMIC V0202905N005152200059N0160935N5-02005-02505102245ADDAA101000095GA1025+004885999GD11991+0048859GE19AGL   +99999+99999GF102995999999004881999999MA1101965098805REMMET09501/05/17 19:53:01 METAR KMIC 060153Z 29010KT 10SM FEW016 M20/M25 A3011 RMK AO2 SLP224 T12001250EQDD01      0ADE726
0212726575949602017010602537+45062-093351FM-15+0265KMIC V0202805N005752200059N0160935N5-02065-02565102265ADDAA101000095GA1005+999999999GD10991+9999999GF100991999999999999999999MA1102005098845MD1190109+9999REMMET10301/05/17 20:53:02 METAR KMIC 060253Z 28011KT 10SM CLR M21/M26 A3012 RMK AO2 SLP226 T12061256 51010 TSNO
0192726575949602017010603537+45062-093351FM-15+0265KMIC V0202905N004152200059N0160935N5-02175-02675102295ADDAA101000095GA1005+999999999GD10991+9999999GF100991999999999999999999MA1102035098875REMMET09701/05/17 21:53:02 METAR KMIC 060353Z 29008KT 10SM CLR M22/M27 A3013 RMK AO2 SLP229 T12171267 TSNO
0192726575949602017010604537+45062-093351FM-15+0265KMIC V0203005N003152200059N0160935N5-02225-02675102315ADDAA101000095GA1005+999999999GD10991+9999999GF100991999999999999999999MA1102035098875REMMET09701/05/17 22:53:02 METAR KMIC 060453Z 30006KT 10SM CLR M22/M27 A3013 RMK AO2 SLP231 T12221267 TSNO
0286726575949602017010605537+45062-093351FM-15+0265KMIC V0203005N004152200059N0160935N5-02285-02675102335ADDAA101000095GA1005+999999999GD10991+9999999GF100991999999999999999999KA1060M-01891KA2060N-02281KA3240M-01671KA4240N-02281MA1102075098905MD1190079+9999REMMET12501/05/17 23:53:02 METAR KMIC 060553Z 30008KT 10SM CLR M23/M27 A3014 RMK AO2 SLP233 T12281267 11189 21228 411671228 51007 TSNO
0910726575949602017010605596+45062-093351SOD  +0265KMIC V020999999999999999999999999999+99999+99999999999ADDAA124000025AT1AU18SN  5AT2AU08HZ  5KA1240M-01665KA2240N-02275MG1098764102034OE11240084927018385OE22240067130019265OE33240041199999995REMSOD73024 HR PRECIPITATION (IN):T     24 HR MAX TEMP (F):2  24 HR MAX TEMP TIME (LST):1518 24 HR MIN TEMP (F):-9 24 HR MIN TEMP TIME (LST):2359 AVERAGE STATION PRESSURE:29.165 MINIMUM SEA LEVEL PRESSURE:30.13 TIME OF OCCURRENCE:0209 PEAK WIND SPEED (MPH):19  PEAK WIND DIR (DEG):270 PEAK WIND TIME (LST):1838  FASTEST 2MIN SPEED (MPH):15 FASTEST 2MIN DIR (DEG):300 FASTEST 2MIN TIME (LST):1926 AVERAGE WIND SPEED (MPH):9.2  24 HR AVG TEMP (F):-3 HEATING DEGREE DAYS:68  COOLING DEGREE DAYS:0   LATEST DAY MAX TEMP (0700-1900 LST):2   LATEST NIGHT MIN TEMP(1900-0800 LST):-8 HOURLY INCREMENTAL PRECIPITATION VALUES (IN):    T    T    T    0.00 0.00 0.00 0.00 0.00 0.00 0.00 0.00 0.00 0.00 0.00 0.00 0.00 0.00 0.00 0.00 0.00 0.00 0.00 0.00EQDR01     N7GJS072R02     N7GKS075
0192726575949602017010606537+45062-093351FM-15+0265KMIC V0202805N003152200059N0160935N5-02285-02675102335ADDAA101000095GA1005+999999999GD10991+9999999GF100991999999999999999999MA1102075098905REMMET09701/06/17 00:53:02 METAR KMIC 060653Z 28006KT 10SM CLR M23/M27 A3014 RMK AO2 SLP233 T12281267 TSNO
0192726575949602017010607537+45062-093351FM-15+0265KMIC V0202905N003152200059N0160935N5-02285-02725102355ADDAA101000095GA1005+999999999GD10991+9999999GF100991999999999999999999MA1102105098935REMMET09701/06/17 01:53:02 METAR KMIC 060753Z 29006KT 10SM CLR M23/M27 A3015 RMK AO2 SLP235 T12281272 TSNO
0212726575949602017010608537+45062-093351FM-15+0265KMIC V0202605N002152200059N0160935N5-02335-02725102385ADDAA101000095GA1005+999999999GD10991+9999999GF100991999999999999999999MA1102105098935MD1390059+9999REMMET10301/06/17 02:53:02 METAR KMIC 060853Z 26004KT 10SM CLR M23/M27 A3015 RMK AO2 SLP238 T12331272 53005 TSNO
0192726575949602017010609537+45062-093351FM-15+0265KMIC V0202705N002652200059N0160935N5-02335-02725102425ADDAA101000095GA1005+999999999GD10991+9999999GF100991999999999999999999MA1102175099005REMMET09701/06/17 03:53:02 METAR KMIC 060953Z 27005KT 10SM CLR M23/M27 A3017 RMK AO2 SLP242 T12331272 TSNO
0192726575949602017010610537+45062-093351FM-15+0265KMIC V0202605N002152200059N0160935N5-02335-02725102435ADDAA101000095GA1005+999999999GD10991+9999999GF100991999999999999999999MA1102175099005REMMET09701/06/17 04:53:02 METAR KMIC 061053Z 26004KT 10SM CLR M23/M27 A3017 RMK AO2 SLP243 T12331272 TSNO
0250726575949602017010611537+45062-093351FM-15+0265KMIC V0202505N002652200059N0160935N5-02395-02725102495ADDAA101000095GA1005+999999999GD10991+9999999GF100991999999999999999999KA1060M-02281KA2060N-02391MA1102205099035MD1390099+9999REMMET11501/06/17 05:53:02 METAR KMIC 061153Z 25005KT 10SM CLR M24/M27 A3018 RMK AO2 SLP249 T12391272 11228 21239 53009 TSNO
0192726575949602017010612537+45062-093351FM-15+0265KMIC V0202605N001552200059N0160935N5-02335-02725102535ADDAA101000095GA1005+999999999GD10991+9999999GF100991999999999999999999MA1102275099105REMMET09701/06/17 06:53:02 METAR KMIC 061253Z 26003KT 10SM CLR M23/M27 A3020 RMK AO2 SLP253 T12331272 TSNO
0192726575949602017010613537+45062-093351FM-15+0265KMIC V0209999C000052200059N0160935N5-02395-02725102545ADDAA101000095GA1005+999999999GD10991+9999999GF100991999999999999999999MA1102275099105REMMET09701/06/17 07:53:02 METAR KMIC 061353Z 00000KT 10SM CLR M24/M27 A3020 RMK AO2 SLP254 T12391272 (FD)
0212726575949602017010614537+45062-093351FM-15+0265KMIC V0202405N002152200059N0160935N5-02285-02615102595ADDAA101000095GA1005+999999999GD10991+9999999GF100991999999999999999999MA1102305099135MD1390109+9999REMMET10301/06/17 08:53:02 METAR KMIC 061453Z 24004KT 10SM CLR M23/M26 A3021 RMK AO2 SLP259 T12281261 53010 (FD)
0192726575949602017010615537+45062-093351FM-15+0265KMIC V0209999V001552200059N0160935N5-02115-02505102695ADDAA101000095GA1005+999999999GD10991+9999999GF100991999999999999999999MA1102405099235REMMET09701/06/17 09:53:02 METAR KMIC 061553Z VRB03KT 10SM CLR M21/M25 A3024 RMK AO2 SLP269 T12111250 (FD)
0192726575949602017010616537+45062-093351FM-15+0265KMIC V0202105N002652200059N0160935N5-01895-02395102725ADDAA101000095GA1005+999999999GD10991+9999999GF100991999999999999999999MA1102475099305REMMET09701/06/17 10:53:02 METAR KMIC 061653Z 21005KT 10SM CLR M19/M24 A3026 RMK AO2 SLP272 T11891239 (FD)
0250726575949602017010617537+45062-093351FM-15+0265KMIC V0202205N002652200059N0160935N5-01785-02395102665ADDAA101000095GA1005+999999999GD10991+9999999GF100991999999999999999999KA1060M-01781KA2060N-02391MA1102405099235MD1090089+9999REMMET11501/06/17 11:53:02 METAR KMIC 061753Z 22005KT 10SM CLR M18/M24 A3024 RMK AO2 SLP266 T11781239 11178 21239 50008 (FD)
0192726575949602017010618537+45062-093351FM-15+0265KMIC V0202305N002652200059N0160935N5-01675-02445102615ADDAA101000095GA1005+999999999GD10991+9999999GF100991999999999999999999MA1102375099205REMMET09701/06/17 12:53:02 METAR KMIC 061853Z 23005KT 10SM CLR M17/M24 A3023 RMK AO2 SLP261 T11671244 (FD)
0192726575949602017010619537+45062-093351FM-15+0265KMIC V0202405N003652200059N0160935N5-01565-02285102625ADDAA101000095GA1005+999999999GD10991+9999999GF100991999999999999999999MA1102375099205REMMET09701/06/17 13:53:02 METAR KMIC 061953Z 24007KT 10SM CLR M16/M23 A3023 RMK AO2 SLP262 T11561228 (FD)
0256726575949602017010620537+45062-093351FM-15+0265KMIC V0202205N003652200059N0160935N5-01505-02175102645ADDAA101000095GA1025+007925999GD11991+0079259GE19AGL   +99999+99999GF102995999999007921999999MA1102375099205MD1590019+9999REMMET10601/06/17 14:53:02 METAR KMIC 062053Z 22007KT 10SM FEW026 M15/M22 A3023 RMK AO2 SLP264 T11501217 55001 (FD)EQDD01      0ADE726
0254726575949602017010621537+45062-093351FM-15+0265KMIC V0202305N00315007015MN0144845N5-01565-02175102685ADDAA101000095GA1075+007015999GA2075+013725999GD13991+0070159GD23991+0137259GE19MSL   +99999+99999GF199999999999007011999999MA1102445099265REMMET10601/06/17 15:53:02 METAR KMIC 062153Z 23006KT 9SM BKN023 BKN045 M16/M22 A3025 RMK AO2 SLP268 T11561217 (FD)
0236726575949602017010622537+45062-093351FM-15+0265KMIC V0209999C000052200059N0160935N5-01615-02115102735ADDAA101000095GA1025+005795999GD11991+0057959GE19AGL   +99999+99999GF102995999999005791999999MA1102475099305REMMET10001/06/17 16:53:02 METAR KMIC 062253Z 00000KT 10SM FEW019 M16/M21 A3026 RMK AO2 SLP273 T11611211 (FD)EQDD01      0ADE726
0250726575949602017010623537+45062-093351FM-15+0265KMIC V0202405N002652200059N0160935N5-01675-02115102785ADDAA101000095GA1005+999999999GD10991+9999999GF100991999999999999999999KA1060M-01501KA2060N-01671MA1102515099335MD1290139+9999REMMET11501/06/17 17:53:02 METAR KMIC 062353Z 24005KT 10SM CLR M17/M21 A3027 RMK AO2 SLP278 T11671211 11150 21167 52013 (FD)
0187726575949602017010700537+45062-093351FM-15+0265KMIC V0202705N002152200059N0160935N5-01675-02115102855ADDAA101000095GA1005+999999999GD10991+9999999GF100991999999999999999999MA1102575099405REMMET09201/06/17 18:53:01 METAR KMIC 070053Z 27004KT 10SM CLR M17/M21 A3029 RMK AO2 SLP285 T11671211
0187726575949602017010701537+45062-093351FM-15+0265KMIC V0202605N002152200059N0160935N5-01725-02175102905ADDAA101000095GA1005+999999999GD10991+9999999GF100991999999999999999999MA1102645099465REMMET09201/06/17 19:53:01 METAR KMIC 070153Z 26004KT 10SM CLR M17/M22 A3031 RMK AO2 SLP290 T11721217
0207726575949602017010702537+45062-093351FM-15+0265KMIC V0202605N002152200059N0160935N5-01725-02175102965ADDAA101000095GA1005+999999999GD10991+9999999GF100991999999999999999999MA1102685099505MD1190179+9999REMMET09801/06/17 20:53:02 METAR KMIC 070253Z 26004KT 10SM CLR M17/M22 A3032 RMK AO2 SLP296 T11721217 51017
0192726575949602017010703537+45062-093351FM-15+0265KMIC V0202505N002652200059N0160935N5-01785-02225102995ADDAA101000095GA1005+999999999GD10991+9999999GF100991999999999999999999MA1102745099565REMMET09701/06/17 21:53:02 METAR KMIC 070353Z 25005KT 10SM CLR M18/M22 A3034 RMK AO2 SLP299 T11781222 TSNO
0192726575949602017010704537+45062-093351FM-15+0265KMIC V0202505N002152200059N0160935N5-01785-02225103035ADDAA101000095GA1005+999999999GD10991+9999999GF100991999999999999999999MA1102785099605REMMET09701/06/17 22:53:02 METAR KMIC 070453Z 25004KT 10SM CLR M18/M22 A3035 RMK AO2 SLP303 T11781222 TSNO
0286726575949602017010705537+45062-093351FM-15+0265KMIC V0202805N003152200059N0160935N5-01725-02175103055ADDAA101000095GA1005+999999999GD10991+9999999GF100991999999999999999999KA1060M-01671KA2060N-01831KA3240M-01501KA4240N-02391MA1102815099635MD1190129+9999REMMET12501/06/17 23:53:02 METAR KMIC 070553Z 28006KT 10SM CLR M17/M22 A3036 RMK AO2 SLP305 T11721217 11167 21183 411501239 51012 TSNO
0886726575949602017010705596+45062-093351SOD  +0265KMIC V020999999999999999999999999999+99999+99999999999ADDAA124000095KA1240M-01495KA2240N-02385MG1099314102304OE11240053629023515OE22240040228023475OE33240021599999995REMSOD73024 HR PRECIPITATION (IN):0.00  24 HR MAX TEMP (F):5  24 HR MAX TEMP TIME (LST):1532 24 HR MIN TEMP (F):-1124 HR MIN TEMP TIME (LST):0753 AVERAGE STATION PRESSURE:29.325 MINIMUM SEA LEVEL PRESSURE:30.21 TIME OF OCCURRENCE:0010 PEAK WIND SPEED (MPH):12  PEAK WIND DIR (DEG):290 PEAK WIND TIME (LST):2351  FASTEST 2MIN SPEED (MPH):9  FASTEST 2MIN DIR (DEG):280 FASTEST 2MIN TIME (LST):2347 AVERAGE WIND SPEED (MPH):4.8  24 HR AVG TEMP (F):-3 HEATING DEGREE DAYS:68  COOLING DEGREE DAYS:0   LATEST DAY MAX TEMP (0700-1900 LST):5   LATEST NIGHT MIN TEMP(1900-0800 LST):-11HOURLY INCREMENTAL PRECIPITATION VALUES (IN):.00 0.00 0.00 0.00 0.00 0.00 0.00 0.00 0.00 0.00 0.00 0.00 0.00 0.00 0.00 0.00 0.00 0.00 0.00 0.00 0.00 0.00 0.00 0.00EQDR01     N7GJS072R02     N7GKS075
0192726575949602017010706537+45062-093351FM-15+0265KMIC V0202905N002652200059N0160935N5-01785-02225103075ADDAA101000095GA1005+999999999GD10991+9999999GF100991999999999999999999MA1102815099635REMMET09701/07/17 00:53:02 METAR KMIC 070653Z 29005KT 10SM CLR M18/M22 A3036 RMK AO2 SLP307 T11781222 TSNO
0192726575949602017010707537+45062-093351FM-15+0265KMIC V0202905N002652200059N0160935N5-01895-02225103115ADDAA101000095GA1005+999999999GD10991+9999999GF100991999999999999999999MA1102885099695REMMET09701/07/17 01:53:02 METAR KMIC 070753Z 29005KT 10SM CLR M19/M22 A3038 RMK AO2 SLP311 T11891222 TSNO
0212726575949602017010708537+45062-093351FM-15+0265KMIC V0202805N003152200059N0160935N5-01835-02225103205ADDAA101000095GA1005+999999999GD10991+9999999GF100991999999999999999999MA1102955099765MD1390159+9999REMMET10301/07/17 02:53:02 METAR KMIC 070853Z 28006KT 10SM CLR M18/M22 A3040 RMK AO2 SLP320 T11831222 53015 TSNO
0192726575949602017010709537+45062-093351FM-15+0265KMIC V0202705N002152200059N0160935N5-01895-02225103235ADDAA101000095GA1005+999999999GD10991+9999999GF100991999999999999999999MA1102985099795REMMET09701/07/17 03:53:02 METAR KMIC 070953Z 27004KT 10SM CLR M19/M22 A3041 RMK AO2 SLP323 T11891222 TSNO
0192726575949602017010710537+45062-093351FM-15+0265KMIC V0202705N003152200059N0160935N5-01835-02225103235ADDAA101000095GA1005+999999999GD10991+9999999GF100991999999999999999999MA1102985099795REMMET09701/07/17 04:53:02 METAR KMIC 071053Z 27006KT 10SM CLR M18/M22 A3041 RMK AO2 SLP323 T11831222 TSNO
0250726575949602017010711537+45062-093351FM-15+0265KMIC V0202805N003152200059N0160935N5-01835-02225103275ADDAA101000095GA1005+999999999GD10991+9999999GF100991999999999999999999KA1060M-01721KA2060N-01891MA1103015099835MD1390069+9999REMMET11501/07/17 05:53:02 METAR KMIC 071153Z 28006KT 10SM CLR M18/M22 A3042 RMK AO2 SLP327 T11831222 11172 21189 53006 TSNO
0217726575949602017010712537+45062-093351FM-15+0265KMIC V0202905N00465014025MN0160935N5-01785-02175103395ADDAA101000095GA1075+014025999GD13991+0140259GE19MSL   +99999+99999GF199999999999014021999999MA1103155099965REMMET10001/07/17 06:53:02 METAR KMIC 071253Z 29009KT 10SM BKN046 M18/M22 A3046 RMK AO2 SLP339 T11781217 (FD)
0236726575949602017010713537+45062-093351FM-15+0265KMIC V0203005N004152200059N0160935N5-01835-02225103485ADDAA101000095GA1025+008845999GD11991+0088459GE19AGL   +99999+99999GF102995999999008841999999MA1103225100025REMMET10001/07/17 07:53:02 METAR KMIC 071353Z 30008KT 10SM FEW029 M18/M22 A3048 RMK AO2 SLP348 T11831222 (FD)EQDD01      0ADE726
0212726575949602017010714537+45062-093351FM-15+0265KMIC V0203105N004152200059N0160935N5-01785-02175103615ADDAA101000095GA1005+999999999GD10991+9999999GF100991999999999999999999MA1103355100165MD1390339+9999REMMET10301/07/17 08:53:02 METAR KMIC 071453Z 31008KT 10SM CLR M18/M22 A3052 RMK AO2 SLP361 T11781217 53033 (FD)
0192726575949602017010715537+45062-093351FM-15+0265KMIC V0203205N005752200059N0160935N5-01675-02175103745ADDAA101000095GA1005+999999999GD10991+9999999GF100991999999999999999999MA1103495100295REMMET09701/07/17 09:53:02 METAR KMIC 071553Z 32011KT 10SM CLR M17/M22 A3056 RMK AO2 SLP374 T11671217 (FD)
0192726575949602017010716537+45062-093351FM-15+0265KMIC V0203205N004152200059N0160935N5-01565-02115103805ADDAA101000095GA1005+999999999GD10991+9999999GF100991999999999999999999MA1103565100355REMMET09701/07/17 10:53:02 METAR KMIC 071653Z 32008KT 10SM CLR M16/M21 A3058 RMK AO2 SLP380 T11561211 (FD)
0250726575949602017010717537+45062-093351FM-15+0265KMIC V0203105N006252200059N0160935N5-01445-02115103815ADDAA101000095GA1005+999999999GD10991+9999999GF100991999999999999999999KA1060M-01441KA2060N-01831MA1103595100395MD1190209+9999REMMET11501/07/17 11:53:02 METAR KMIC 071753Z 31012KT 10SM CLR M14/M21 A3059 RMK AO2 SLP381 T11441211 11144 21183 51020 (FD)
0192726575949602017010718537+45062-093351FM-15+0265KMIC V0203105N004652200059N0160935N5-01395-02115103805ADDAA101000095GA1005+999999999GD10991+9999999GF100991999999999999999999MA1103565100355REMMET09701/07/17 12:53:02 METAR KMIC 071853Z 31009KT 10SM CLR M14/M21 A3058 RMK AO2 SLP380 T11391211 (FD)
0192726575949602017010719537+45062-093351FM-15+0265KMIC V0203005N005752200059N0160935N5-01335-02115103815ADDAA101000095GA1005+999999999GD10991+9999999GF100991999999999999999999MA1103595100395REMMET09701/07/17 13:53:02 METAR KMIC 071953Z 30011KT 10SM CLR M13/M21 A3059 RMK AO2 SLP381 T11331211 (FD)
0212726575949602017010720537+45062-093351FM-15+0265KMIC V0203105N005752200059N0160935N5-01335-02175103885ADDAA101000095GA1005+999999999GD10991+9999999GF100991999999999999999999MA1103665100455MD1390079+9999REMMET10301/07/17 14:53:02 METAR KMIC 072053Z 31011KT 10SM CLR M13/M22 A3061 RMK AO2 SLP388 T11331217 53007 (FD)
0192726575949602017010721537+45062-093351FM-15+0265KMIC V0203005N005752200059N0160935N5-01395-02175103975ADDAA101000095GA1005+999999999GD10991+9999999GF100991999999999999999999MA1103735100525REMMET09701/07/17 15:53:02 METAR KMIC 072153Z 30011KT 10SM CLR M14/M22 A3063 RMK AO2 SLP397 T11391217 TSNO
0192726575949602017010722537+45062-093351FM-15+0265KMIC V0203005N003152200059N0160935N5-01445-02225103995ADDAA101000095GA1005+999999999GD10991+9999999GF100991999999999999999999MA1103765100555REMMET09701/07/17 16:53:02 METAR KMIC 072253Z 30006KT 10SM CLR M14/M22 A3064 RMK AO2 SLP399 T11441222 (FD)
0250726575949602017010723537+45062-093351FM-15+0265KMIC V0202805N004152200059N0160935N5-01565-02175104025ADDAA101000095GA1005+999999999GD10991+9999999GF100991999999999999999999KA1060M-01331KA2060N-01561MA1103765100555MD1190139+9999REMMET11501/07/17 17:53:02 METAR KMIC 072353Z 28008KT 10SM CLR M16/M22 A3064 RMK AO2 SLP402 T11561217 11133 21156 51013 (FD)
0187726575949602017010800537+45062-093351FM-15+0265KMIC V0202805N003652200059N0160935N5-01615-02175104065ADDAA101000095GA1005+999999999GD10991+9999999GF100991999999999999999999MA1103835100625REMMET09201/07/17 18:53:01 METAR KMIC 080053Z 28007KT 10SM CLR M16/M22 A3066 RMK AO2 SLP406 T11611217
0187726575949602017010801537+45062-093351FM-15+0265KMIC V0202805N003152200059N0160935N5-01675-02175104105ADDAA101000095GA1005+999999999GD10991+9999999GF100991999999999999999999MA1103865100655REMMET09201/07/17 19:53:01 METAR KMIC 080153Z 28006KT 10SM CLR M17/M22 A3067 RMK AO2 SLP410 T11671217
0207726575949602017010802537+45062-093351FM-15+0265KMIC V0202805N002652200059N0160935N5-01725-02225104085ADDAA101000095GA1005+999999999GD10991+9999999GF100991999999999999999999MA1103835100625MD1090069+9999REMMET09801/07/17 20:53:02 METAR KMIC 080253Z 28005KT 10SM CLR M17/M22 A3066 RMK AO2 SLP408 T11721222 50006
0192726575949602017010803537+45062-093351FM-15+0265KMIC V0202805N002152200059N0160935N5-01785-02225104145ADDAA101000095GA1005+999999999GD10991+9999999GF100991999999999999999999MA1103895100685REMMET09701/07/17 21:53:02 METAR KMIC 080353Z 28004KT 10SM CLR M18/M22 A3068 RMK AO2 SLP414 T11781222 TSNO
0192726575949602017010804537+45062-093351FM-15+0265KMIC V0203005N001552200059N0160935N5-01895-02285104105ADDAA101000095GA1005+999999999GD10991+9999999GF100991999999999999999999MA1103865100655REMMET09701/07/17 22:53:02 METAR KMIC 080453Z 30003KT 10SM CLR M19/M23 A3067 RMK AO2 SLP410 T11891228 TSNO
0286726575949602017010805537+45062-093351FM-15+0265KMIC V0209999C000052200059N0160935N5-01895-02285104065ADDAA101000095GA1005+999999999GD10991+9999999GF100991999999999999999999KA1060M-01561KA2060N-01891KA3240M-01331KA4240N-01891MA1103795100595MD1890029+9999REMMET12501/07/17 23:53:02 METAR KMIC 080553Z 00000KT 10SM CLR M19/M23 A3065 RMK AO2 SLP406 T11891228 11156 21189 411331189 58002 TSNO
0886726575949602017010805596+45062-093351SOD  +0265KMIC V020999999999999999999999999999+99999+99999999999ADDAA124000095KA1240M-01325KA2240N-01885MG1100344103054OE11240093931014215OE22240071528015455OE33240036299999995REMSOD73024 HR PRECIPITATION (IN):0.00  24 HR MAX TEMP (F):8  24 HR MAX TEMP TIME (LST):1546 24 HR MIN TEMP (F):-2 24 HR MIN TEMP TIME (LST):2359 AVERAGE STATION PRESSURE:29.630 MINIMUM SEA LEVEL PRESSURE:30.43 TIME OF OCCURRENCE:0021 PEAK WIND SPEED (MPH):21  PEAK WIND DIR (DEG):310 PEAK WIND TIME (LST):1421  FASTEST 2MIN SPEED (MPH):16 FASTEST 2MIN DIR (DEG):280 FASTEST 2MIN TIME (LST):1545 AVERAGE WIND SPEED (MPH):8.1  24 HR AVG TEMP (F):3  HEATING DEGREE DAYS:62  COOLING DEGREE DAYS:0   LATEST DAY MAX TEMP (0700-1900 LST):8   LATEST NIGHT MIN TEMP(1900-0800 LST):-2 HOURLY INCREMENTAL PRECIPITATION VALUES (IN):.00 0.00 0.00 0.00 0.00 0.00 0.00 0.00 0.00 0.00 0.00 0.00 0.00 0.00 0.00 0.00 0.00 0.00 0.00 0.00 0.00 0.00 0.00 0.00EQDR01     N7GJS072R02     N7GKS075
0192726575949602017010806537+45062-093351FM-15+0265KMIC V0202605N001552200059N0160935N5-01945-02335104055ADDAA101000095GA1005+999999999GD10991+9999999GF100991999999999999999999MA1103795100595REMMET09701/08/17 00:53:02 METAR KMIC 080653Z 26003KT 10SM CLR M19/M23 A3065 RMK AO2 SLP405 T11941233 TSNO
0192726575949602017010807537+45062-093351FM-15+0265KMIC V0209999C000052200059N0160935N5-01945-02335104035ADDAA101000095GA1005+999999999GD10991+9999999GF100991999999999999999999MA1103795100595REMMET09701/08/17 01:53:02 METAR KMIC 080753Z 00000KT 10SM CLR M19/M23 A3065 RMK AO2 SLP403 T11941233 TSNO
0212726575949602017010808537+45062-093351FM-15+0265KMIC V0209999C000052200059N0160935N5-02065-02335104025ADDAA101000095GA1005+999999999GD10991+9999999GF100991999999999999999999MA1103765100555MD1890049+9999REMMET10301/08/17 02:53:02 METAR KMIC 080853Z 00000KT 10SM CLR M21/M23 A3064 RMK AO2 SLP402 T12061233 58004 TSNO
0192726575949602017010809537+45062-093351FM-15+0265KMIC V0202005N001552200059N0160935N5-02065-02395103965ADDAA101000095GA1005+999999999GD10991+9999999GF100991999999999999999999MA1103735100525REMMET09701/08/17 03:53:02 METAR KMIC 080953Z 20003KT 10SM CLR M21/M24 A3063 RMK AO2 SLP396 T12061239 TSNO
0207726575949602017010810537+45062-093351FM-15+0265KMIC V0209999C000052200059N0160935N5-02065-02335103915ADDAA101000095GA1005+999999999GD10991+9999999GF100991999999999999999999MA1103665100455WA1900099REMMET10301/08/17 04:53:02 METAR KMIC 081053Z 00000KT 10SM CLR M21/M23 A3061 RMK AO2 SLP391 I1000 T12061233 TSNO
0265726575949602017010811537+45062-093351FM-15+0265KMIC V0201305N001552200059N0160935N5-02065-02395103875ADDAA101000095GA1005+999999999GD10991+9999999GF100991999999999999999999KA1060M-01891KA2060N-02111MA1103625100425MD1690169+9999WA1900099REMMET12101/08/17 05:53:02 METAR KMIC 081153Z 13003KT 10SM CLR M21/M24 A3060 RMK AO2 SLP387 I6000 T12061239 11189 21211 56016 TSNO
0187726575949602017010812537+45062-093351FM-15+0265KMIC V0201805N001552200059N0160935N5-02065-02335103785ADDAA101000095GA1005+999999999GD10991+9999999GF100991999999999999999999MA1103525100325REMMET09201/08/17 06:53:02 METAR KMIC 081253Z 18003KT 10SM CLR M21/M23 A3057 RMK AO2 SLP378 T12061233
0187726575949602017010813537+45062-093351FM-15+0265KMIC V0201505N002152200059N0160935N5-01945-02285103645ADDAA101000095GA1005+999999999GD10991+9999999GF100991999999999999999999MA1103395100195REMMET09201/08/17 07:53:02 METAR KMIC 081353Z 15004KT 10SM CLR M19/M23 A3053 RMK AO2 SLP364 T11941228
0207726575949602017010814537+45062-093351FM-15+0265KMIC V0201605N004652200059N0160935N5-01785-02175103615ADDAA101000095GA1005+999999999GD10991+9999999GF100991999999999999999999MA1103355100165MD1690249+9999REMMET09801/08/17 08:53:02 METAR KMIC 081453Z 16009KT 10SM CLR M18/M22 A3052 RMK AO2 SLP361 T11781217 56024
0187726575949602017010815537+45062-093351FM-15+0265KMIC V0201605N004152200059N0160935N5-01675-02175103575ADDAA101000095GA1005+999999999GD10991+9999999GF100991999999999999999999MA1103325100125REMMET09201/08/17 09:53:02 METAR KMIC 081553Z 16008KT 10SM CLR M17/M22 A3051 RMK AO2 SLP357 T11671217
0187726575949602017010816537+45062-093351FM-15+0265KMIC V0201605N004652200059N0160935N5-01445-02065103545ADDAA101000095GA1005+999999999GD10991+9999999GF100991999999999999999999MA1103285100095REMMET09201/08/17 10:53:02 METAR KMIC 081653Z 16009KT 10SM CLR M14/M21 A3050 RMK AO2 SLP354 T11441206
0252726575949602017010817537+45062-093351FM-15+0265KMIC V0201505N005152200059N0160935N5-01285-02065103305ADDAA101000095GA1005+999999999GD10991+9999999GF100991999999999999999999KA1060M-01281KA2060N-02061MA1103085099895MD1890299+9999REMMET11701/08/17 11:53:02 METAR KMIC 081753Z 15010KT 10SM CLR M13/M21 A3044 RMK AO2 PRESFR SLP330 T11281206 11128 21206 58029
0205726575949602017010818537+45062-093351FM-15+0265KMIC V0201305N006252200059N0160935N5-01175-02065103055ADDAA101000095GA1005+999999999GD10991+9999999GF100991999999999999999999MA1102815099635OC100885REMMET10201/08/17 12:53:02 METAR KMIC 081853Z 13012G17KT 10SM CLR M12/M21 A3036 RMK AO2 PRESFR SLP305 T11171206
0187726575949602017010819537+45062-093351FM-15+0265KMIC V0201505N007252200059N0160935N5-01115-02065102875ADDAA101000095GA1005+999999999GD10991+9999999GF100991999999999999999999MA1102645099465REMMET09201/08/17 13:53:02 METAR KMIC 081953Z 15014KT 10SM CLR M11/M21 A3031 RMK AO2 SLP287 T11111206
0232726575949602017010820537+45062-093351FM-15+0265KMIC V0201505N00625014025MN0160935N5-01005-02005102755ADDAA101000095GA1085+014025999GD14991+0140259GE19MSL   +99999+99999GF199999999999014021999999MA1102515099335MD1690539+9999REMMET10101/08/17 14:53:02 METAR KMIC 082053Z 15012KT 10SM OVC046 M10/M20 A3027 RMK AO2 SLP275 T11001200 56053
0281726575949602017010821537+45062-093351FM-15+0265KMIC V0201505N00825015245MN0128755N5-01065-01835102605ADDAA101000025GA1025+010365999GA2085+015245999GD11991+0103659GD24991+0152459GE19MSL   +99999+99999GF199999999999010361999999MA1102375099205OC101135REMMET12501/08/17 15:53:02 METAR KMIC 082153Z 15016G22KT 8SM FEW034 OVC050 M11/M18 A3023 RMK AO2 SNB15E26B42E52 SLP260 P0000 T11061183
0228726575949602017010822537+45062-093351FM-15+0265KMIC V0201705N00675024385MN0160935N5-01065-01725102475ADDAA101000095GA1085+024385999GD14991+0243859GE19MSL   +99999+99999GF199999999999024381999999MA1102245099075OC101085REMMET10301/08/17 16:53:02 METAR KMIC 082253Z 17013G21KT 10SM OVC080 M11/M17 A3019 RMK AO2 SLP247 T11061172 (FD)
0292726575949602017010823537+45062-093351FM-15+0265KMIC V0201705N00515025915MN0160935N5-01005-01675102505ADDAA101000095AA206000021GA1085+025915999GD14991+0259159GE19MSL   +99999+99999GF199999999999025911999999KA1060M-01001KA2060N-01281MA1102275099105MD1590249+9999REMMET12401/08/17 17:53:02 METAR KMIC 082353Z 17010KT 10SM OVC085 M10/M17 A3020 RMK AO2 SLP250 60000 T11001167 11100 21128 55024 (FD)
0212726575949602017010900537+45062-093351FM-15+0265KMIC V0201605N00315013415MN0160935N5-01005-01615102435ADDAA101000095GA1085+013415999GD14991+0134159GE19MSL   +99999+99999GF199999999999013411999999MA1102205099035REMMET09501/08/17 18:53:01 METAR KMIC 090053Z 16006KT 10SM OVC044 M10/M16 A3018 RMK AO2 SLP243 T11001161
0219726575949602017010901537+45062-093351FM-15+0265KMIC V0201705N00465011895MN0160935N5-00945-01505102335ADDAA101000095GA1085+011895999GD14991+0118959GE19MSL   +99999+99999GF199999999999011891999999MA1102135098975REMMET10201/08/17 19:53:01 METAR KMIC 090153Z 17009KT 10SM OVC039 M09/M15 A3016 RMK AO2 PRESFR SLP233 T10941150
0232726575949602017010902537+45062-093351FM-15+0265KMIC V0201805N00215010365MN0160935N5-00895-01445102435ADDAA101000095GA1085+010365999GD14991+0103659GE19MSL   +99999+99999GF199999999999010361999999MA1102245099075MD1590059+9999REMMET10101/08/17 20:53:02 METAR KMIC 090253Z 18004KT 10SM OVC034 M09/M14 A3019 RMK AO2 SLP243 T10891144 55005
0250726575949602017010903537+45062-093351FM-15+0265KMIC V0201605N00365010365MN0160935N5-00895-01395102255ADDAA101000095GA1075+010365999GA2085+014945999GD13991+0103659GD24991+0149459GE19MSL   +99999+99999GF199999999999010361999999MA1102075098905REMMET10201/08/17 21:53:02 METAR KMIC 090353Z 16007KT 10SM BKN034 OVC049 M09/M14 A3014 RMK AO2 SLP225 T10891139
0231726575949602017010904537+45062-093351FM-15+0265KMIC V0201705N002152200059N0160935N5-01005-01445102245ADDAA101000095GA1045+012805999GD12991+0128059GE19AGL   +99999+99999GF104995999999012801999999MA1102035098875REMMET09501/08/17 22:53:02 METAR KMIC 090453Z 17004KT 10SM SCT042 M10/M14 A3013 RMK AO2 SLP224 T11001144EQDD01      0ADE726
0306726575949602017010905537+45062-093351FM-15+0265KMIC V0209999C00005013115MN0160935N5-01115-01445102255ADDAA101000095GA1085+013115999GD14991+0131159GE19MSL   +99999+99999GF199999999999013111999999KA1060M-00891KA2060N-01111KA3240M-00891KA4240N-02111MA1102075098905MD1590179+9999REMMET12301/08/17 23:53:02 METAR KMIC 090553Z 00000KT 10SM OVC043 M11/M14 A3014 RMK AO2 SLP225 T11111144 11089 21111 410891211 55017
0886726575949602017010905596+45062-093351SOD  +0265KMIC V020999999999999999999999999999+99999+99999999999ADDAA124000025KA1240M-00885KA2240N-02105MG1099564102204OE11240111815015085OE22240089416015155OE33240034099999995REMSOD73024 HR PRECIPITATION (IN):T     24 HR MAX TEMP (F):16 24 HR MAX TEMP TIME (LST):2227 24 HR MIN TEMP (F):-6 24 HR MIN TEMP TIME (LST):0430 AVERAGE STATION PRESSURE:29.400 MINIMUM SEA LEVEL PRESSURE:30.18 TIME OF OCCURRENCE:2324 PEAK WIND SPEED (MPH):25  PEAK WIND DIR (DEG):150 PEAK WIND TIME (LST):1508  FASTEST 2MIN SPEED (MPH):20 FASTEST 2MIN DIR (DEG):160 FASTEST 2MIN TIME (LST):1515 AVERAGE WIND SPEED (MPH):7.6  24 HR AVG TEMP (F):5  HEATING DEGREE DAYS:60  COOLING DEGREE DAYS:0   LATEST DAY MAX TEMP (0700-1900 LST):14  LATEST NIGHT MIN TEMP(1900-0800 LST):-6 HOURLY INCREMENTAL PRECIPITATION VALUES (IN):.00 0.00 0.00 0.00 0.00 0.00 0.00 0.00 0.00 0.00 0.00 0.00 0.00 0.00 0.00 T    0.00 0.00 0.00 0.00 0.00 0.00 0.00 0.00EQDR01     N7GJS072R02     N7GKS075
0212726575949602017010906537+45062-093351FM-15+0265KMIC V0209999C00005008845MN0160935N5-01175-01505102275ADDAA101000095GA1085+008845999GD14991+0088459GE19MSL   +99999+99999GF199999999999008841999999MA1102075098905REMMET09501/09/17 00:53:02 METAR KMIC 090653Z 00000KT 10SM OVC029 M12/M15 A3014 RMK AO2 SLP227 T11171150
0212726575949602017010907537+45062-093351FM-15+0265KMIC V0209999C00005007625MN0160935N5-01005-01335102255ADDAA101000095GA1085+007625999GD14991+0076259GE19MSL   +99999+99999GF199999999999007621999999MA1102075098905REMMET09501/09/17 01:53:02 METAR KMIC 090753Z 00000KT 10SM OVC025 M10/M13 A3014 RMK AO2 SLP225 T11001133
0232726575949602017010908537+45062-093351FM-15+0265KMIC V0209999C00005007625MN0160935N5-00895-01225102285ADDAA101000095GA1085+007625999GD14991+0076259GE19MSL   +99999+99999GF199999999999007621999999MA1102105098935MD1390049+9999REMMET10101/09/17 02:53:02 METAR KMIC 090853Z 00000KT 10SM OVC025 M09/M12 A3015 RMK AO2 SLP228 T10891122 53004
0212726575949602017010909537+45062-093351FM-15+0265KMIC V0202905N00265007325MN0160935N5-00785-01175102305ADDAA101000095GA1085+007325999GD14991+0073259GE19MSL   +99999+99999GF199999999999007321999999MA1102135098975REMMET09501/09/17 03:53:02 METAR KMIC 090953Z 29005KT 10SM OVC024 M08/M12 A3016 RMK AO2 SLP230 T10781117
0212726575949602017010910537+45062-093351FM-15+0265KMIC V0203105N00265007015MN0160935N5-00785-01175102245ADDAA101000095GA1085+007015999GD14991+0070159GE19MSL   +99999+99999GF199999999999007011999999MA1102075098905REMMET09501/09/17 04:53:02 METAR KMIC 091053Z 31005KT 10SM OVC023 M08/M12 A3014 RMK AO2 SLP224 T10781117
0270726575949602017010911537+45062-093351FM-15+0265KMIC V0202905N00155007015MN0160935N5-00785-01175102245ADDAA101000095GA1085+007015999GD14991+0070159GE19MSL   +99999+99999GF199999999999007011999999KA1060M-00781KA2060N-01221MA1102075098905MD1890049+9999REMMET11301/09/17 05:53:02 METAR KMIC 091153Z 29003KT 10SM OVC023 M08/M12 A3014 RMK AO2 SLP224 T10781117 11078 21122 58004
0217726575949602017010912537+45062-093351FM-15+0265KMIC V0209999C00005006715MN0160935N5-00785-01175102175ADDAA101000095GA1085+006715999GD14991+0067159GE19MSL   +99999+99999GF199999999999006711999999MA1102005098845REMMET10001/09/17 06:53:02 METAR KMIC 091253Z 00000KT 10SM OVC022 M08/M12 A3012 RMK AO2 SLP217 T10781117 (FD)
0218726575949602017010913177+45062-093351FM-16+0265KMIC V0209999C000052200059N0160935N5-00835-01225999999ADDGA1045+006715999GD12991+0067159GE19AGL   +99999+99999GF104995999999006711999999MA1102005098845REMMET09301/09/17 07:17:02 SPECI KMIC 091317Z 00000KT 10SM SCT022 M08/M12 A3012 RMK AO2 T10831122 (FD)EQDD01      0ADE726
0236726575949602017010913537+45062-093351FM-15+0265KMIC V0209999C000052200059N0160935N5-00835-01225102165ADDAA101000095GA1025+007015999GD11991+0070159GE19AGL   +99999+99999GF102995999999007011999999MA1102005098845REMMET10001/09/17 07:53:02 METAR KMIC 091353Z 00000KT 10SM FEW023 M08/M12 A3012 RMK AO2 SLP216 T10831122 (FD)EQDD01      0ADE726
0198726575949602017010914277+45062-093351FM-16+0265KMIC V0209999C00005007325MN0128755N5-00835-01175999999ADDGA1075+007325999GD13991+0073259GE19MSL   +99999+99999GF199999999999007321999999MA1102035098875REMMET09201/09/17 08:27:02 SPECI KMIC 091427Z 00000KT 8SM BKN024 M08/M12 A3013 RMK AO2 T10831117 (FD)
0236726575949602017010914537+45062-093351FM-15+0265KMIC V0209999C00005007325MN0144845N5-00785-01175102235ADDAA101000095GA1085+007325999GD14991+0073259GE19MSL   +99999+99999GF199999999999007321999999MA1102075098905MD1590009+9999REMMET10501/09/17 08:53:02 METAR KMIC 091453Z 00000KT 9SM OVC024 M08/M12 A3014 RMK AO2 SLP223 T10781117 55000 (FD)
0292726575949602017010915537+45062-093351FM-15+0265KMIC V0209999C00005007925MN0128755N5-00785-01175102325ADDAA101000095GA1025+003965999GA2045+005795999GA3075+007925999GD11991+0039659GD22991+0057959GD33991+0079259GE19MSL   +99999+99999GF199999999999003961999999MA1102175099005REMMET11301/09/17 09:53:02 METAR KMIC 091553Z 00000KT 8SM FEW013 SCT019 BKN026 M08/M12 A3017 RMK AO2 SLP232 T10781117 (FD)
0300726575949602017010916067+45062-093351FM-16+0265KMIC V0201205N00155004275MN0096565N5-00785-01115999999ADDAU100007015AW1051GA1075+004275999GA2075+005495999GA3085+033535999GD13991+0042759GD23991+0054959GD34991+0335359GE19MSL   +99999+99999GF199999999999004271999999MA1102135098975MW1055REMMET10901/09/17 10:06:02 SPECI KMIC 091606Z 12003KT 6SM HZ BKN014 BKN018 OVC110 M08/M11 A3016 RMK AO2 T10781111 (FD)
0236726575949602017010916347+45062-093351FM-16+0265KMIC V0200905N00265030485MN0128755N5-00725-01115999999ADDGA1045+004275999GA2085+030485999GD12991+0042759GD24991+0304859GE19MSL   +99999+99999GF199999999999004271999999MA1102075098905REMMET09901/09/17 10:34:02 SPECI KMIC 091634Z 09005KT 8SM SCT014 OVC100 M07/M11 A3014 RMK AO2 T10721111 (FD)
0216726575949602017010916537+45062-093351FM-15+0265KMIC V0201005N00265030485MN0128755N5-00675-01115102195ADDAA101000095GA1075+030485999GD13991+0304859GE19MSL   +99999+99999GF199999999999030481999999MA1102035098875REMMET09901/09/17 10:53:02 METAR KMIC 091653Z 10005KT 8SM BKN100 M07/M11 A3013 RMK AO2 SLP219 T10671111 (FD)
0319726575949602017010917537+45062-093351FM-15+0265KMIC V0201205N00415016765MN0112655N5-00615-01115101935ADDAA101000025GA1075+016765999GA2085+021345999GD13991+0167659GD24991+0213459GE19MSL   +99999+99999GF199999999999016761999999KA1060M-00611KA2060N-00891MA1101765098605MD1890299+9999REMMET13101/09/17 11:53:02 METAR KMIC 091753Z 12008KT 7SM BKN055 OVC070 M06/M11 A3005 RMK AO2 PRESFR SLP193 T10611111 11061 21089 58029 (FD)
0286726575949602017010918177+45062-093351FM-16+0265KMIC V0201305N00365009145MN0028165N5-00675-01065999999ADDAA101000021AU110030015AW1715GA1075+009145999GA2085+010975999GD13991+0091459GD24991+0109759GE19MSL   +99999+99999GF199999999999009141999999MA1101665098515REMMET12101/09/17 12:17:02 SPECI KMIC 091817Z 13007KT 1 3/4SM -SN BKN030 OVC036 M07/M11 A3002 RMK AO2 SNB1758 P0000 T10671106 (FD)
0246726575949602017010918247+45062-093351FM-16+0265KMIC V0201305N00415006715MN0012075N5-00675-01005999999ADDAA101000021AU110030015AW1715GA1085+006715999GD14991+0067159GE19MSL   +99999+99999GF199999999999006711999999MA1101635098475REMMET11201/09/17 12:24:02 SPECI KMIC 091824Z 13008KT 3/4SM -SN OVC022 M07/M10 A3001 RMK AO2 SNB1758 P0000 T10671100 (FD)
0248726575949602017010918457+45062-093351FM-16+0265KMIC V0201305N00415006105MN0020125N5-00675-00945999999ADDAA101000021AU110030015AW1715GA1085+006105999GD14991+0061059GE19MSL   +99999+99999GF199999999999006101999999MA1101565098415REMMET11401/09/17 12:45:02 SPECI KMIC 091845Z 13008KT 1 1/4SM -SN OVC020 M07/M09 A2999 RMK AO2 SNB1758 P0000 T10671094 (FD)
0293726575949602017010918537+45062-093351FM-15+0265KMIC V0201405N00415006105MN0020125N5-00615-00945101735ADDAA101000025AU110030015AW1715GA1075+006105999GA2085+016765999GD13991+0061059GD24991+0167659GE19MSL   +99999+99999GF199999999999006101999999MA1101565098415REMMET12801/09/17 12:53:02 METAR KMIC 091853Z 14008KT 1 1/4SM -SN BKN020 OVC055 M06/M09 A2999 RMK AO2 SNB1758 SLP173 P0000 T10611094 (FD)
0312726575949602017010919047+45062-093351FM-16+0265KMIC V0201205N00365007925MN0048285N5-00615-00945999999ADDAA101000021AU110030015AW1715GA1075+007925999GA2075+010065999GA3085+016765999GD13991+0079259GD23991+0100659GD34991+0167659GE19MSL   +99999+99999GF199999999999007921999999MA1101525098375REMMET11601/09/17 13:04:02 SPECI KMIC 091904Z 12007KT 3SM -SN BKN026 BKN033 OVC055 M06/M09 A2998 RMK AO2 P0000 T10611094 (FD)
0316726575949602017010919187+45062-093351FM-16+0265KMIC V0201305N00575009145MN0040235N5-00615-00945999999ADDAA101000021AU110030015AW1715GA1075+009145999GA2075+011585999GA3085+014025999GD13991+0091459GD23991+0115859GD34991+0140259GE19MSL   +99999+99999GF199999999999009141999999MA1101465098315REMMET12001/09/17 13:18:02 SPECI KMIC 091918Z 13011KT 2 1/2SM -SN BKN030 BKN038 OVC046 M06/M09 A2996 RMK AO2 P0000 T10611094 (FD)
0316726575949602017010919287+45062-093351FM-16+0265KMIC V0201305N00465008535MN0028165N5-00615-00945999999ADDAA101000021AU110030015AW1715GA1075+008535999GA2075+011285999GA3085+013725999GD13991+0085359GD23991+0112859GD34991+0137259GE19MSL   +99999+99999GF199999999999008531999999MA1101425098275REMMET12001/09/17 13:28:02 SPECI KMIC 091928Z 13009KT 1 3/4SM -SN BKN028 BKN037 OVC045 M06/M09 A2995 RMK AO2 P0000 T10611094 (FD)
0245726575949602017010919537+45062-093351FM-15+0265KMIC V0201305N00465007015MN0012075N5-00615-00945101505ADDAA101000025AU110030015AW1715GA1085+007015999GD14991+0070159GE19MSL   +99999+99999GF199999999999007011999999MA1101355098215REMMET11101/09/17 13:53:02 METAR KMIC 091953Z 13009KT 3/4SM -SN OVC023 M06/M09 A2993 RMK AO2 SLP150 P0000 T10611094 (FD)
0303726575949602017010920227+45062-093351FM-16+0265KMIC V0201305N00465004275WN0008056N5-00615-00895999999ADDAA101000021AU120030016AW1726GA1095+004275999GD15991+0042759GE19MSL   +99999+99999GF109991999999004271999999MA1101355098215REMMET10201/09/17 14:22:02 SPECI KMIC 092022Z 13009KT 1/2SM SN VV014 M06/M09 A2993 RMK AO2 P0000 T10611089 (FD)EQDR01 1/2SM7VIS018R02    SN7AWW018R03SEERMK7MVW018R04    SN7MWW018
0303726575949602017010920307+45062-093351FM-16+0265KMIC V0201305N00465004575WN0008056N5-00565-00895999999ADDAA101000231AU120030016AW1726GA1095+004575999GD15991+0045759GE19MSL   +99999+99999GF109991999999004571999999MA1101325098185REMMET10201/09/17 14:30:02 SPECI KMIC 092030Z 13009KT 1/2SM SN VV015 M06/M09 A2992 RMK AO2 P0001 T10561089 (FD)EQDR01 1/2SM7VIS018R02    SN7AWW018R03SEERMK7MVW018R04    SN7MWW018
0306726575949602017010920507+45062-093351FM-16+0265KMIC V0201205N00465007625MN0024145N5-00605-00905999999ADDAA101000231AU110030015AW1715GA1025+003665999GA2075+007625999GA3085+010065999GD11991+0036659GD23991+0076259GD34991+0100659GE19MSL   +99999+99999GF199999999999003661999999MA1101295098145REMMET11001/09/17 14:50:02 SPECI KMIC 092050Z 12009KT 1 1/2SM -SN FEW012 BKN025 OVC033 M06/M09 A2991 RMK AO2 P0001 (FD)
0379726575949602017010920537+45062-093351FM-15+0265KMIC V0201205N00515007625MN0024145N5-00565-00895101435ADDAA101000596AA203000392AU110030015AW1715GA1025+003665999GA2075+007625999GA3085+010365999GD11991+0036659GD23991+0076259GD34991+0103659GE19MSL   +99999+99999GF199999999999003661999999MA1101295098145MD1690279+9999REMMET13901/09/17 14:53:02 METAR KMIC 092053Z 12010KT 1 1/2SM -SN FEW012 BKN025 OVC034 M06/M09 A2991 RMK AO2 SLP143 P0001 60001 T10561089 56027 (FD)EQDQ01  00028PRCP03
0316726575949602017010921167+45062-093351FM-16+0265KMIC V0201205N00365010065MN0020125N5-00565-00835999999ADDAA101000231AU110030015AW1715GA1025+004885999GA2075+010065999GA3085+015245999GD11991+0048859GD23991+0100659GD34991+0152459GE19MSL   +99999+99999GF199999999999004881999999MA1101295098145REMMET12001/09/17 15:16:02 SPECI KMIC 092116Z 12007KT 1 1/4SM -SN FEW016 BKN033 OVC050 M06/M08 A2991 RMK AO2 P0001 T10561083 (FD)
0312726575949602017010921417+45062-093351FM-16+0265KMIC V0201405N00465006405MN0016095N5-00565-00835999999ADDAA101000531AU110030015AW1715GA1025+003965999GA2075+006405999GA3085+008535999GD11991+0039659GD23991+0064059GD34991+0085359GE19MSL   +99999+99999GF199999999999003961999999MA1101225098085REMMET11601/09/17 15:41:02 SPECI KMIC 092141Z 14009KT 1SM -SN FEW013 BKN021 OVC028 M06/M08 A2989 RMK AO2 P0002 T10561083 (FD)
0285726575949602017010921537+45062-093351FM-15+0265KMIC V0201405N00515005495MN0020125N5-00565-00835101335ADDAA101000395AU110030015AW1715GA1045+003965999GA2085+005495999GD12991+0039659GD24991+0054959GE19MSL   +99999+99999GF199999999999003961999999MA1101195098045REMMET12001/09/17 15:53:02 METAR KMIC 092153Z 14010KT 1 1/4SM -SN SCT013 OVC018 M06/M08 A2988 RMK AO2 SLP133 P0002 T10561083 (FD)
0237726575949602017010922097+45062-093351FM-16+0265KMIC V0201205N00465004275WN0012075N5-00565-00835999999ADDAA101000021AU110030015AW1715GA1095+004275999GD15991+0042759GE19MSL   +99999+99999GF109991999999004271999999MA1101125097985REMMET10301/09/17 16:09:02 SPECI KMIC 092209Z 12009KT 3/4SM -SN VV014 M06/M08 A2986 RMK AO2 P0000 T10561083 (FD)
0296726575949602017010922197+45062-093351FM-16+0265KMIC V0201205N00465004275MN0024145N5-00565-00835999999ADDAA101000021AU110030015AW1715GA1075+004275999GA2085+013415999GD13991+0042759GD24991+0134159GE19MSL   +99999+99999GF199999999999004271999999MA1101055097915OC101035REMMET12301/09/17 16:19:02 SPECI KMIC 092219Z 12009G20KT 1 1/2SM -SN BKN014 OVC044 M06/M08 A2984 RMK AO2 PRESFR P0000 T10561083 (FD)
0323726575949602017010922287+45062-093351FM-16+0265KMIC V0201205N00575003965MN0048285N5-00565-00835999999ADDAA101000021AU100007015AW1051GA1075+003965999GA2075+013725999GA3085+024385999GD13991+0039659GD23991+0137259GD34991+0243859GE19MSL   +99999+99999GF199999999999003961999999MA1101055097915MW1055REMMET12101/09/17 16:28:02 SPECI KMIC 092228Z 12011KT 3SM HZ BKN013 BKN045 OVC080 M06/M08 A2984 RMK AO2 SNE28 P0000 T10561083 (FD)
0254726575949602017010922537+45062-093351FM-15+0265KMIC V0201205N00575004275MN0096565N5-00565-00835101155ADDAA101000025AU100007015AW1051GA1085+004275999GD14991+0042759GE19MSL   +99999+99999GF199999999999004271999999MA1101025097885MW1055REMMET11401/09/17 16:53:02 METAR KMIC 092253Z 12011KT 6SM HZ OVC014 M06/M08 A2983 RMK AO2 SNE28 SLP115 P0000 T10561083 (FD)
0291726575949602017010923537+45062-093351FM-15+0265KMIC V0201205N00575004275MN0112655N5-00505-00835100955ADDAA101000095AA206000891GA1085+004275999GD14991+0042759GE19MSL   +99999+99999GF199999999999004271999999KA1060M-00501KA2060N-00671MA1100815097685MD1890469+9999REMMET12301/09/17 17:53:02 METAR KMIC 092353Z 12011KT 7SM OVC014 M05/M08 A2977 RMK AO2 SLP095 60003 T10501083 11050 21067 58046 (FD)
0204726575949602017011000247+45062-093351FM-16+0265KMIC V0201205N00515004575MN0112655N5-00505-00835999999ADDGA1075+004575999GD13991+0045759GE19MSL   +99999+99999GF199999999999004571999999MA1100785097655OC101085REMMET09001/09/17 18:24:01 SPECI KMIC 100024Z 12010G21KT 7SM BKN015 M05/M08 A2976 RMK AO2 T10501083
0223726575949602017011000387+45062-093351FM-16+0265KMIC V0201305N005152200059N0112655N5-00445-00835999999ADDGA1045+004575999GD12991+0045759GE19AGL   +99999+99999GF104995999999004571999999MA1100755097615OC101135REMMET09001/09/17 18:38:01 SPECI KMIC 100038Z 13010G22KT 7SM SCT015 M04/M08 A2975 RMK AO2 T10441083EQDD01      0ADE726
0230726575949602017011000537+45062-093351FM-15+0265KMIC V0201305N005752200059N0128755N5-00445-00835100905ADDAA101000095GA1025+004575999GD11991+0045759GE19AGL   +99999+99999GF102995999999004571999999MA1100785097655REMMET09401/09/17 18:53:01 METAR KMIC 100053Z 13011KT 8SM FEW015 M04/M08 A2976 RMK AO2 SLP090 T10441083EQDD01      0ADE726
0194726575949602017011001516+45062-093351FM-16+0265KMIC V0201505N00465004885MN0128755N5-00405-00805999999ADDGA1075+004885999GA2075+033535999GD13991+0048859GD23991+0335359MA1100755097615OC100885REMMET09701/09/17 19:51:03 SPECI KMIC 100151Z 15009G17KT 8SM BKN016 BKN110 M04/M08 A2975 RMK AO2 FIBI (FD)
0222726575949602017011001537+45062-093351FM-15+0265KMIC V0201405N00365004885MN0128755N5-00445-00835100885ADDAA101000095GA1075+004885999GD13991+0048859GE19MSL   +99999+99999GF199999999999004881999999MA1100755097615OC100885REMMET09701/09/17 19:53:01 METAR KMIC 100153Z 14007G17KT 8SM BKN016 M04/M08 A2975 RMK AO2 SLP088 T10441083
0231726575949602017011002537+45062-093351FM-15+0265KMIC V0201305N00415005495MN0112655N5-00395-00785100715ADDAA101000095GA1085+005495999GD14991+0054959GE19MSL   +99999+99999GF199999999999005491999999MA1100585097455MD1890239+9999REMMET10001/09/17 20:53:02 METAR KMIC 100253Z 13008KT 7SM OVC018 M04/M08 A2970 RMK AO2 SLP071 T10391078 58023
0211726575949602017011003537+45062-093351FM-15+0265KMIC V0201405N00415005495MN0112655N5-00395-00725100615ADDAA101000095GA1085+005495999GD14991+0054959GE19MSL   +99999+99999GF199999999999005491999999MA1100475097355REMMET09401/09/17 21:53:02 METAR KMIC 100353Z 14008KT 7SM OVC018 M04/M07 A2967 RMK AO2 SLP061 T10391072
0211726575949602017011004537+45062-093351FM-15+0265KMIC V0201505N00415006105MN0144845N5-00335-00725100555ADDAA101000095GA1075+006105999GD13991+0061059GE19MSL   +99999+99999GF199999999999006101999999MA1100415097285REMMET09401/09/17 22:53:02 METAR KMIC 100453Z 15008KT 9SM BKN020 M03/M07 A2965 RMK AO2 SLP055 T10331072
0212726575949602017011005237+45062-093351FM-16+0265KMIC V0201505N003152200059N0144845N5-00335-00725999999ADDGA1045+005795999GD12991+0057959GE19AGL   +99999+99999GF104995999999005791999999MA1100375097255REMMET08701/09/17 23:23:02 SPECI KMIC 100523Z 15006KT 9SM SCT019 M03/M07 A2964 RMK AO2 T10331072EQDD01      0ADE726
0280726575949602017011005537+45062-093351FM-15+0265KMIC V0201405N003152200059N0144845N5-00335-00675100445ADDAA101000095GA1005+999999999GD10991+9999999GF100991999999999999999999KA1060M-00331KA2060N-00501KA3240M-00331KA4240N-01221MA1100305097195MD1890269+9999REMMET11901/09/17 23:53:02 METAR KMIC 100553Z 14006KT 9SM CLR M03/M07 A2962 RMK AO2 SLP044 T10331067 11033 21050 410331122 58026
0910726575949602017011005596+45062-093351SOD  +0265KMIC V020999999999999999999999999999+99999+99999999999ADDAA124000895AT1AU18SN  5AT2AU08HZ  5KA1240M-00325KA2240N-01215MG1098094100444OE11240120713019105OE22240076013017315OE33240028699999995REMSOD73024 HR PRECIPITATION (IN):0.03  24 HR MAX TEMP (F):26 24 HR MAX TEMP TIME (LST):2359 24 HR MIN TEMP (F):10 24 HR MIN TEMP TIME (LST):0041 AVERAGE STATION PRESSURE:28.965 MINIMUM SEA LEVEL PRESSURE:29.66 TIME OF OCCURRENCE:2359 PEAK WIND SPEED (MPH):27  PEAK WIND DIR (DEG):130 PEAK WIND TIME (LST):1910  FASTEST 2MIN SPEED (MPH):17 FASTEST 2MIN DIR (DEG):130 FASTEST 2MIN TIME (LST):1731 AVERAGE WIND SPEED (MPH):6.4  24 HR AVG TEMP (F):18 HEATING DEGREE DAYS:47  COOLING DEGREE DAYS:0   LATEST DAY MAX TEMP (0700-1900 LST):24  LATEST NIGHT MIN TEMP(1900-0800 LST):10 HOURLY INCREMENTAL PRECIPITATION VALUES (IN):.00 0.00 0.00 0.00 0.00 0.00 0.00 0.00 0.00 0.00 0.00 T    T    T    0.02 0.01 T    0.00 0.00 0.00 0.00 0.00 0.00 0.00EQDR01     N7GJS072R02     N7GKS075
0193726575949602017011006537+45062-093351FM-15+0265KMIC V0201305N003652200059N0144845N5-00335-00675100295ADDAA101000095GA1005+999999999GD10991+9999999GF100991999999999999999999MA1100175097055REMMET09801/10/17 00:53:02 METAR KMIC 100653Z 13007KT 9SM CLR M03/M07 A2958 RMK AO2 PRESFR SLP029 T10331067
0187726575949602017011007537+45062-093351FM-15+0265KMIC V0201405N003652200059N0160935N5-00285-00675100285ADDAA101000095GA1005+999999999GD10991+9999999GF100991999999999999999999MA1100175097055REMMET09201/10/17 01:53:02 METAR KMIC 100753Z 14007KT 10SM CLR M03/M07 A2958 RMK AO2 SLP028 T10281067
0206726575949602017011008537+45062-093351FM-15+0265KMIC V0201205N003652200059N0128755N5-00285-00675100115ADDAA101000095GA1005+999999999GD10991+9999999GF100991999999999999999999MA1100005096895MD1890319+9999REMMET09701/10/17 02:53:02 METAR KMIC 100853Z 12007KT 8SM CLR M03/M07 A2953 RMK AO2 SLP011 T10281067 58031
0256726575949602017011009537+45062-093351FM-15+0265KMIC V0201005N00315027435MN0128755N5-00335-00675099935ADDAA101000095GA1075+027435999GA2085+033535999GD13991+0274359GD24991+0335359GE19MSL   +99999+99999GF199999999999027431999999MA1099805096695REMMET10801/10/17 03:53:02 METAR KMIC 100953Z 10006KT 8SM BKN090 OVC110 M03/M07 A2947 RMK AO2 PRESFR SLP993 T10331067
0211726575949602017011010537+45062-093351FM-15+0265KMIC V0201205N00365030485MN0128755N5-00285-00675099865ADDAA101000095GA1085+030485999GD14991+0304859GE19MSL   +99999+99999GF199999999999030481999999MA1099735096625REMMET09401/10/17 04:53:02 METAR KMIC 101053Z 12007KT 8SM OVC100 M03/M07 A2945 RMK AO2 SLP986 T10281067
0264726575949602017011011437+45062-093351FM-16+0265KMIC V0201105N00265016765MN0080475N5-00285-00565999999ADDAA101000231AU118020015AW1645GA1085+016765999GD14991+0167659GE19MSL   +99999+99999GF199999999999016761999999MA1099665096565WA1900199REMMET12101/10/17 05:43:02 SPECI KMIC 101143Z 11005KT 5SM -FZRA OVC055 M03/M06 A2943 RMK AO2 UPB09E37FZRAB37 P0001 I1001 T10281056
0410726575949602017011011537+45062-093351FM-15+0265KMIC V0201105N00265016765MN0064375N5-00285-00565099775ADDAA101000896AA206000592AA324001391AU110030015AW1715GA1085+016765999GD14991+0167659GE19MSL   +99999+99999GF199999999999016761999999KA1060M-00281KA2060N-00331MA1099665096565MD1690339+9999WA1900199REMMET17001/10/17 05:53:02 METAR KMIC 101153Z 11005KT 4SM -SN OVC055 M03/M06 A2943 RMK AO2 UPB09E37FZRAB37E52SNB52 SLP977 P0002 60002 70005 I1001 I6001 T10281056 11028 21033 56033EQDQ01  00058PRCP06Q02  00128PRCP24
0269726575949602017011012157+45062-093351FM-16+0265KMIC V0200905N00215010675MN0032195N5-00285-00565999999ADDAA101000531AU110030015AW1715GA1075+010675999GA2085+015245999GD13991+0106759GD24991+0152459GE19MSL   +99999+99999GF199999999999010671999999MA1099635096535REMMET10401/10/17 06:15:02 SPECI KMIC 101215Z 09004KT 2SM -SN BKN035 OVC050 M03/M06 A2942 RMK AO2 P0002 T10281056
0235726575949602017011012207+45062-093351FM-16+0265KMIC V0200905N00155008535MN0024145N5-00285-00565999999ADDAA101000531AU110030015AW1715GA1085+008535999GD14991+0085359GE19MSL   +99999+99999GF199999999999008531999999MA1099635096535REMMET10101/10/17 06:20:02 SPECI KMIC 101220Z 09003KT 1 1/2SM -SN OVC028 M03/M06 A2942 RMK AO2 P0002 T10281056
0262726575949602017011012537+45062-093351FM-15+0265KMIC V0201005N00265006105WN0016095N5-00335-00505099715ADDAA101001095AU110030015AU200001015AW1105AW2715GA1095+006105999GD15991+0061059GE19MSL   +99999+99999GF109991999999006101999999MA1099595096495REMMET11101/10/17 06:53:02 METAR KMIC 101253Z 10005KT 1SM -SN BR VV020 M03/M05 A2941 RMK AO2 SLP971 P0005 T10331050 (FD)
0296726575949602017011013427+45062-093351FM-16+0265KMIC V0209999C00005003965MN0012075N5-00285-00505999999ADDAA101000531AU110030015AU200001015AW1105AW2715GA1075+003965999GA2085+006405999GD13991+0039659GD24991+0064059GE19MSL   +99999+99999GF199999999999003961999999MA1099565096465REMMET11401/10/17 07:42:02 SPECI KMIC 101342Z 00000KT 3/4SM -SN BR BKN013 OVC021 M03/M05 A2940 RMK AO2 P0002 T10281050 (FD)
0264726575949602017011013537+45062-093351FM-15+0265KMIC V0209999C00005003965WN0012075N5-00335-00505099655ADDAA101001095AU110030015AU200001015AW1105AW2715GA1095+003965999GD15991+0039659GE19MSL   +99999+99999GF109991999999003961999999MA1099535096435REMMET11301/10/17 07:53:02 METAR KMIC 101353Z 00000KT 3/4SM -SN BR VV013 M03/M05 A2939 RMK AO2 SLP965 P0003 T10331050 (FD)
0255726575949602017011014017+45062-093351FM-16+0265KMIC V0203505N00155004575WN0016095N5-00335-00505999999ADDAA101000231AU110030015AU200001015AW1105AW2715GA1095+004575999GD15991+0045759GE19MSL   +99999+99999GF109991999999004571999999MA1099535096435REMMET10401/10/17 08:01:02 SPECI KMIC 101401Z 35003KT 1SM -SN BR VV015 M03/M05 A2939 RMK AO2 P0001 T10331050 (FD)
0259726575949602017011014187+45062-093351FM-16+0265KMIC V0203305N00215005185WN0008055N5-00285-00505999999ADDAA101000531AU110030015AU208002015AW1355AW2715GA1095+005185999GD15991+0051859GE19MSL   +99999+99999GF109991999999005181999999MA1099535096435REMMET10801/10/17 08:18:02 SPECI KMIC 101418Z 33004KT 1/2SM -SN FZFG VV017 M03/M05 A2939 RMK AO2 P0002 T10281050 (FD)
0320726575949602017011014537+45062-093351FM-15+0265KMIC V0203305N00265004885WN0012075N5-00335-00505099575ADDAA101000595AA203002891AU110030015AU200001015AW1105AW2715GA1095+004885999GD15991+0048859GE19MSL   +99999+99999GF109991999999004881999999MA1099465096365MD1890199+9999REMMET12501/10/17 08:53:02 METAR KMIC 101453Z 33005KT 3/4SM -SN BR VV016 M03/M05 A2937 RMK AO2 SLP957 P0003 60011 T10331050 58019 (FD)EQDQ01  00278PRCP03
0256726575949602017011015107+45062-093351FM-16+0265KMIC V0203305N00265006405MN0016095N5-00335-00505999999ADDAA101000021AU110030015AU200001015AW1105AW2715GA1085+006405999GD14991+0064059GE19MSL   +99999+99999GF199999999999006401999999MA1099465096365REMMET10501/10/17 09:10:02 SPECI KMIC 101510Z 33005KT 1SM -SN BR OVC021 M03/M05 A2937 RMK AO2 P0000 T10331050 (FD)
0258726575949602017011015367+45062-093351FM-16+0265KMIC V0203105N00365007325MN0012075N5-00335-00505999999ADDAA101000231AU110030015AU200001015AW1105AW2715GA1085+007325999GD14991+0073259GE19MSL   +99999+99999GF199999999999007321999999MA1099465096365REMMET10701/10/17 09:36:02 SPECI KMIC 101536Z 31007KT 3/4SM -SN BR OVC024 M03/M05 A2937 RMK AO2 P0001 T10331050 (FD)
0284726575949602017011015487+45062-093351FM-16+0265KMIC V0203105N00365007325MN0016095N5-00305-00605999999ADDAA101000231AU110030015AU200001015AW1105AW2715GA1025+001525999GA2085+007325999GD11991+0015259GD24991+0073259GE19MSL   +99999+99999GF199999999999001521999999MA1099425096335REMMET10201/10/17 09:48:02 SPECI KMIC 101548Z 31007KT 1SM -SN BR FEW005 OVC024 M03/M06 A2936 RMK AO2 P0001 (FD)
0339726575949602017011015537+45062-093351FM-15+0265KMIC V0203105N00365007325MN0016095N5-00335-00565099535ADDAA101000395AU110030015AU200001015AW1105AW2715GA1025+001525999GA2075+007325999GA3085+014945999GD11991+0015259GD23991+0073259GD34991+0149459GE19MSL   +99999+99999GF199999999999001521999999MA1099425096335REMMET12601/10/17 09:53:02 METAR KMIC 101553Z 31007KT 1SM -SN BR FEW005 BKN024 OVC049 M03/M06 A2936 RMK AO2 SLP953 P0001 T10331056 (FD)
0336726575949602017011016097+45062-093351FM-16+0265KMIC V0203105N00365014945MN0024145N5-00335-00565999999ADDAA101000021AU110030015AU200001015AW1105AW2715GA1025+001835999GA2045+010065999GA3085+014945999GD11991+0018359GD22991+0100659GD34991+0149459GE19MSL   +99999+99999GF199999999999001831999999MA1099425096335REMMET12301/10/17 10:09:02 SPECI KMIC 101609Z 31007KT 1 1/2SM -SN BR FEW006 SCT033 OVC049 M03/M06 A2936 RMK AO2 P0000 T10331056 (FD)
0334726575949602017011016267+45062-093351FM-16+0265KMIC V0203105N00465006405MN0012075N5-00335-00565999999ADDAA101000021AU110030015AU200001015AW1105AW2715GA1025+002445999GA2075+006405999GA3085+014635999GD11991+0024459GD23991+0064059GD34991+0146359GE19MSL   +99999+99999GF199999999999002441999999MA1099425096335REMMET12101/10/17 10:26:02 SPECI KMIC 101626Z 31009KT 3/4SM -SN BR FEW008 BKN021 OVC048 M03/M06 A2936 RMK AO2 P0000 T10331056 (FD)
0332726575949602017011016537+45062-093351FM-15+0265KMIC V0203005N00935005185MN0012075N5-00335-00675099505ADDAA101000025AU110030015AW1715GA1025+003665999GA2075+005185999GA3085+008535999GD11991+0036659GD23991+0051859GD34991+0085359GE19MSL   +99999+99999GF199999999999003661999999MA1099395096295OC101245REMMET12801/10/17 10:53:02 METAR KMIC 101653Z 30018G24KT 3/4SM -SN FEW012 BKN017 OVC028 M03/M07 A2935 RMK AO2 SLP950 P0000 T10331067 (FD)
0316726575949602017011017057+45062-093351FM-16+0265KMIC V0203105N00825006405MN0020125N5-00335-00675999999ADDAA101000021AU110030015AW1715GA1025+002745999GA2075+006405999GA3085+009755999GD11991+0027459GD23991+0064059GD34991+0097559GE19MSL   +99999+99999GF199999999999002741999999MA1099395096295REMMET12001/10/17 11:05:02 SPECI KMIC 101705Z 31016KT 1 1/4SM -SN FEW009 BKN021 OVC032 M03/M07 A2935 RMK AO2 P0000 T10331067 (FD)
0274726575949602017011017097+45062-093351FM-16+0265KMIC V0203105N00675003965MN0032195N5-00335-00675999999ADDAA101000021AU110030015AW1715GA1075+003965999GA2085+006405999GD13991+0039659GD24991+0064059GE19MSL   +99999+99999GF199999999999003961999999MA1099395096295REMMET10901/10/17 11:09:02 SPECI KMIC 101709Z 31013KT 2SM -SN BKN013 OVC021 M03/M07 A2935 RMK AO2 P0000 T10331067 (FD)
0323726575949602017011017287+45062-093351FM-16+0265KMIC V0203105N00825003965MN0016095N5-00395-00725999999ADDAA101000021AU110030015AW1715GA1075+003965999GA2075+005185999GA3085+010365999GD13991+0039659GD23991+0051859GD34991+0103659GE19MSL   +99999+99999GF199999999999003961999999MA1099365096265OC101245REMMET11901/10/17 11:28:02 SPECI KMIC 101728Z 31016G24KT 1SM -SN BKN013 BKN017 OVC034 M04/M07 A2934 RMK AO2 P0000 T10391072 (FD)
0261726575949602017011017516+45062-093351FM-16+0265KMIC V0203105N00775005495MN0012075N5-00405-00805999999ADDAU110030015AW1715GA1045+003355999GA2075+005495999GA3085+009455999GD12991+0033559GD23991+0054959GD34991+0094559MA1099395096295OC101295REMMET11601/10/17 11:51:02 SPECI KMIC 101751Z 31015G25KT 3/4SM -SN SCT011 BKN018 OVC031 M04/M08 A2935 RMK AO2 P0000 FIBI (FD)
0426726575949602017011017537+45062-093351FM-15+0265KMIC V0203005N00725003965MN0012075N5-00505-00785099515ADDAA101000025AA206003091AU110030015AW1715GA1075+003965999GA2075+005495999GA3085+009455999GD13991+0039659GD23991+0054959GD34991+0094559GE19MSL   +99999+99999GF199999999999003961999999KA1060M-00281KA2060N-00501MA1099395096295MD1590069+9999OC101295REMMET15201/10/17 11:53:02 METAR KMIC 101753Z 30014G25KT 3/4SM -SN BKN013 BKN018 OVC031 M05/M08 A2935 RMK AO2 SLP951 P0000 60012 T10501078 11028 21050 55006 (FD)EQDQ01  00308PRCP06
0283726575949602017011018027+45062-093351FM-16+0265KMIC V0203005N00985004575MN0020125N5-00505-00895999999ADDAA101000021AU110030015AW1715GA1085+004575999GD14991+0045759GE19MSL   +99999+99999GF199999999999004571999999MA1099395096295OC101395OD149901391310REMMET12701/10/17 12:02:02 SPECI KMIC 101802Z 30019G27KT 1 1/4SM -SN OVC015 M05/M09 A2935 RMK AO2 PK WND 31027/1757 P0000 T10501089 (FD)
0283726575949602017011018137+45062-093351FM-16+0265KMIC V0203005N00825005185MN0040235N5-00505-00895999999ADDAA101000021AU110030015AW1715GA1085+005185999GD14991+0051859GE19MSL   +99999+99999GF199999999999005181999999MA1099425096335OC101395OD149901391310REMMET12701/10/17 12:13:02 SPECI KMIC 101813Z 30016G27KT 2 1/2SM -SN OVC017 M05/M09 A2936 RMK AO2 PK WND 31027/1757 P0000 T10501089 (FD)
0279726575949602017011018237+45062-093351FM-16+0265KMIC V0203105N00935005185MN0016095N5-00565-00945999999ADDAA101000021AU110030015AW1715GA1085+005185999GD14991+0051859GE19MSL   +99999+99999GF199999999999005181999999MA1099425096335OC101445OD149901441310REMMET12301/10/17 12:23:02 SPECI KMIC 101823Z 31018G28KT 1SM -SN OVC017 M06/M09 A2936 RMK AO2 PK WND 31028/1815 P0000 T10561094 (FD)
0281726575949602017011018327+45062-093351FM-16+0265KMIC V0203005N00775005185MN0012075N5-00615-00945999999ADDAA101000021AU110030015AW1715GA1085+005185999GD14991+0051859GE19MSL   +99999+99999GF199999999999005181999999MA1099425096335OC101295OD149901441310REMMET12501/10/17 12:32:02 SPECI KMIC 101832Z 30015G25KT 3/4SM -SN OVC017 M06/M09 A2936 RMK AO2 PK WND 31028/1815 P0000 T10611094 (FD)
0264726575949602017011018437+45062-093351FM-16+0265KMIC V0203005N01135005495WN0016095N5-00675-01065999999ADDAA101000021AU110030015AW1715GA1095+005495999GD15991+0054959GE19MSL   +99999+99999GF109991999999005491999999MA1099465096365OC101545REMMET12201/10/17 12:43:02 SPECI KMIC 101843Z 30022G30KT 1SM -SN VV018 M07/M11 A2937 RMK AO2 PK WND 29030/1843 P0000 T10671106 (FD)
0270726575949602017011018517+45062-093351FM-16+0265KMIC V0202905N01035005185WN0012075N5-00705-01105999999ADDAA101000021AU110030015AW1715GA1095+005185999GD15991+0051859GE19MSL   +99999+99999GF109991999999005181999999MA1099465096365OC101545OD149901541290REMMET11401/10/17 12:51:02 SPECI KMIC 101851Z 29020G30KT 3/4SM -SN VV017 M07/M11 A2937 RMK AO2 PK WND 29030/1843 P0000 (FD)
0353726575949602017011018537+45062-093351FM-15+0265KMIC V0203005N01135004885WN0008056N5-00725-01065099615ADDAA101000025AU120030016AW1726GA1095+004885999GD15991+0048859GE19MSL   +99999+99999GF109991999999004881999999MA1099495096395OC101395OD149901541290REMMET13001/10/17 12:53:02 METAR KMIC 101853Z 30022G27KT 1/2SM SN VV016 M07/M11 A2938 RMK AO2 PK WND 29030/1843 SLP961 P0000 T10721106 (FD)EQDR01 1/2SM7VIS018R02    SN7AWW018R03SEERMK7MVW018R04    SN7MWW018
0290726575949602017011019397+45062-093351FM-16+0265KMIC V0203005N00985005185MN0028165N5-00895-01335999999ADDAA101000021AU110030015AW1715GA1085+005185999GD14991+0051859GE19MSL   +99999+99999GF199999999999005181999999MA1099665096565OC101495OD149901541310REMMET13401/10/17 13:39:02 SPECI KMIC 101939Z 30019G29KT 1 3/4SM -SN OVC017 M09/M13 A2943 RMK AO2 PK WND 31030/1929 PRESRR P0000 T10891133 (FD)
0355726575949602017011019437+45062-093351FM-16+0265KMIC V0203105N01085005185MN0048285N5-00945-01395999999ADDAA101000021AU110030015AW1715GA1075+005185999GA2075+010975999GA3085+024385999GD13991+0051859GD23991+0109759GD34991+0243859GE19MSL   +99999+99999GF199999999999005181999999MA1099665096565OC101395OD149901541310REMMET13701/10/17 13:43:02 SPECI KMIC 101943Z 31021G27KT 3SM -SN BKN017 BKN036 OVC080 M09/M14 A2943 RMK AO2 PK WND 31030/1929 P0000 T10941139 (FD)
0282726575949602017011019516+45062-093351FM-16+0265KMIC V0203005N00885010975MN0080475N5-00905-01405999999ADDAU100007015GA1045+005185999GA2075+010975999GA3085+024385999GD12991+0051859GD23991+0109759GD34991+0243859MA1099665096565MW1055OC101345REMMET13701/10/17 13:51:02 SPECI KMIC 101951Z 30017G26KT 5SM HZ SCT017 BKN036 OVC080 M09/M14 A2943 RMK AO2 PK WND 31030/1929 SNE44 P0000 FIBI (FD)
0373726575949602017011019537+45062-093351FM-15+0265KMIC V0203005N01035010975MN0096565N5-00945-01395099815ADDAA101000025AU100007015AW1051GA1045+005185999GA2075+010975999GA3085+024385999GD12991+0051859GD23991+0109759GD34991+0243859GE19MSL   +99999+99999GF199999999999005181999999MA1099705096595MW1055OC101345OD149901541310REMMET14901/10/17 13:53:02 METAR KMIC 101953Z 30020G26KT 6SM HZ SCT017 BKN036 OVC080 M09/M14 A2944 RMK AO2 PK WND 31030/1929 SNE44 SLP981 P0000 T10941139 (FD)
0273726575949602017011020047+45062-093351FM-16+0265KMIC V0203005N00935004885MN0096565N5-00945-01395999999ADDAU100007015AW1051GA1075+004885999GA2085+011285999GD13991+0048859GD24991+0112859GE19MSL   +99999+99999GF199999999999004881999999MA1099735096625MW1055OC101245REMMET10501/10/17 14:04:02 SPECI KMIC 102004Z 30018G24KT 6SM HZ BKN016 OVC037 M09/M14 A2945 RMK AO2 T10941139 (FD)
0279726575949602017011020397+45062-093351FM-16+0265KMIC V0203005N00885036585MN0112655N5-01005-01565999999ADDGA1045+004885999GA2075+036585999GD12991+0048859GD23991+0365859GE19MSL   +99999+99999GF199999999999004881999999MA1099835096725OC101495OD149901491320REMMET12001/10/17 14:39:02 SPECI KMIC 102039Z 30017G29KT 7SM SCT016 BKN120 M10/M16 A2948 RMK AO2 PK WND 32029/2036 T11001156 (FD)
0334726575949602017011020537+45062-093351FM-15+0265KMIC V0203005N008852200059N0144845N5-01005-01615100005ADDAA101000095AA203000021GA1025+006105999GA2045+036585999GD11991+0061059GD22991+0365859GE19MSL   +99999+99999GF199999999999006101999999MA1099865096765MD1390399+9999OC101295OD149901491320REMMET13901/10/17 14:53:02 METAR KMIC 102053Z 30017G25KT 9SM FEW020 SCT120 M10/M16 A2949 RMK AO2 PK WND 32029/2036 SLP000 60000 T11001161 53039 (FD)
0241726575949602017011021237+45062-093351FM-16+0265KMIC V0202805N00885006715MN0128755N5-01065-01615999999ADDGA1075+006715999GD13991+0067159GE19MSL   +99999+99999GF199999999999006711999999MA1099975096865OC101295OD149901391300REMMET11301/10/17 15:23:02 SPECI KMIC 102123Z 28017G25KT 8SM BKN022 M11/M16 A2952 RMK AO2 PK WND 30027/2112 T11061161 (FD)
0246726575949602017011021537+45062-093351FM-15+0265KMIC V0202905N00625006405MN0160935N5-01065-01675100225ADDAA101000095GA1075+006405999GD13991+0064059GE19MSL   +99999+99999GF199999999999006401999999MA1100075096955OC101135REMMET12101/10/17 15:53:02 METAR KMIC 102153Z 29012G22KT 10SM BKN021 M11/M17 A2955 RMK AO2 PK WND 30027/2112 SLP022 T11061167 (FD)
0217726575949602017011022057+45062-093351FM-16+0265KMIC V0202905N008252200059N0160935N5-01115-01675999999ADDGA1045+006405999GD12991+0064059GE19MSL   +99999+99999GF199999999999006401999999MA1100145097025OC101245REMMET10301/10/17 16:05:02 SPECI KMIC 102205Z 29016G24KT 10SM SCT021 M11/M17 A2957 RMK AO2 PRESRR T11111167 (FD)
0235726575949602017011022537+45062-093351FM-15+0265KMIC V0202705N008852200059N0160935N5-01225-01785100425ADDAA101000095GA1005+999999999GD10991+9999999GF100991999999999999999999MA1100275097155OC101085OD149901331290REMMET11801/10/17 16:53:02 METAR KMIC 102253Z 27017G21KT 10SM CLR M12/M18 A2961 RMK AO2 PK WND 29026/2211 SLP042 T11221178 (FD)
0322726575949602017011023537+45062-093351FM-15+0265KMIC V0202805N008852200059N0160935N5-01335-01835100635ADDAA101000095AA206000021GA1025+005795999GD11991+0057959GE19AGL   +99999+99999GF102995999999005791999999KA1060M-00501KA2060N-01331MA1100475097355MD1190599+9999OC101135REMMET12701/10/17 17:53:02 METAR KMIC 102353Z 28017G22KT 10SM FEW019 M13/M18 A2967 RMK AO2 SLP063 60000 T11331183 11050 21133 51059 (FD)EQDD01      0ADE726
0205726575949602017011100537+45062-093351FM-15+0265KMIC V0202705N005752200059N0160935N5-01395-01895100815ADDAA101000095GA1005+999999999GD10991+9999999GF100991999999999999999999MA1100645097525OC100935REMMET10201/10/17 18:53:01 METAR KMIC 110053Z 27011G18KT 10SM CLR M14/M19 A2972 RMK AO2 PRESRR SLP081 T11391189
0187726575949602017011101537+45062-093351FM-15+0265KMIC V0202705N005752200059N0160935N5-01445-01945100955ADDAA101000095GA1005+999999999GD10991+9999999GF100991999999999999999999MA1100785097655REMMET09201/10/17 19:53:01 METAR KMIC 110153Z 27011KT 10SM CLR M14/M19 A2976 RMK AO2 SLP095 T11441194
0212726575949602017011102537+45062-093351FM-15+0265KMIC V0202605N005152200059N0160935N5-01505-02005101085ADDAA101000095GA1005+999999999GD10991+9999999GF100991999999999999999999MA1100915097785MD1190439+9999REMMET10301/10/17 20:53:02 METAR KMIC 110253Z 26010KT 10SM CLR M15/M20 A2980 RMK AO2 SLP108 T11501200 51043 TSNO
0192726575949602017011103537+45062-093351FM-15+0265KMIC V0202605N004152200059N0160935N5-01565-02065101165ADDAA101000095GA1005+999999999GD10991+9999999GF100991999999999999999999MA1100985097855REMMET09701/10/17 21:53:02 METAR KMIC 110353Z 26008KT 10SM CLR M16/M21 A2982 RMK AO2 SLP116 T11561206 TSNO
0192726575949602017011104537+45062-093351FM-15+0265KMIC V0202605N003652200059N0160935N5-01615-02115101195ADDAA101000095GA1005+999999999GD10991+9999999GF100991999999999999999999MA1101025097885REMMET09701/10/17 22:53:02 METAR KMIC 110453Z 26007KT 10SM CLR M16/M21 A2983 RMK AO2 SLP119 T11611211 TSNO
0311726575949602017011105537+45062-093351FM-15+0265KMIC V0202205N00465028965MN0160935N5-01565-02005101305ADDAA101000095GA1085+028965999GD14991+0289659GE19MSL   +99999+99999GF199999999999028961999999KA1060M-01331KA2060N-01611KA3240M-00281KA4240N-01611MA1101125097985MD1390219+9999REMMET12801/10/17 23:53:02 METAR KMIC 110553Z 22009KT 10SM OVC095 M16/M20 A2986 RMK AO2 SLP130 T11561200 11133 21161 410281161 53021 TSNO
0958726575949602017011105596+45062-093351SOD  +0265KMIC V020999999999999999999999999999+99999+99999999999ADDAA124003695AT1AU17FZRA5AT2AU18SN  5AT3AU22FZFG5AT4AU13BR  5AT5AU08HZ  5AT6AW01FG  5KA1240M-00275KA2240N-01605MG1097044099464OE11240156531013295OE22240125231013305OE33240053299999995REMSOD73024 HR PRECIPITATION (IN):0.14  24 HR MAX TEMP (F):27 24 HR MAX TEMP TIME (LST):0922 24 HR MIN TEMP (F):3  24 HR MIN TEMP TIME (LST):2333 AVERAGE STATION PRESSURE:28.655 MINIMUM SEA LEVEL PRESSURE:29.37 TIME OF OCCURRENCE:1134 PEAK WIND SPEED (MPH):35  PEAK WIND DIR (DEG):310 PEAK WIND TIME (LST):1329  FASTEST 2MIN SPEED (MPH):28 FASTEST 2MIN DIR (DEG):310 FASTEST 2MIN TIME (LST):1330 AVERAGE WIND SPEED (MPH):11.9 24 HR AVG TEMP (F):15 HEATING DEGREE DAYS:50  COOLING DEGREE DAYS:0   LATEST DAY MAX TEMP (0700-1900 LST):27  LATEST NIGHT MIN TEMP(1900-0800 LST):24 HOURLY INCREMENTAL PRECIPITATION VALUES (IN):.00 0.00 0.00 0.00 0.00 0.03 0.04 0.04 0.02 0.01 T    T    T    T    0.00 0.00 0.00 0.00 0.00 0.00 0.00 0.00 0.00 0.00EQDR01     N7GJS072R02     N7GKS075
0255726575949602017011106537+45062-093351FM-15+0265KMIC V0202305N00365033535MN0160935N5-01565-02065101275ADDAA101000095GA1045+025915999GA2075+033535999GD12991+0259159GD23991+0335359GE19MSL   +99999+99999GF199999999999025911999999MA1101085097945REMMET10701/11/17 00:53:02 METAR KMIC 110653Z 23007KT 10SM SCT085 BKN110 M16/M21 A2985 RMK AO2 SLP127 T11561206 TSNO
0246726575949602017011107437+45062-093351FM-16+0265KMIC V0202405N00265009145MN0028165N5-01565-02005999999ADDAA101000021AU110030015AW1715GA1085+009145999GD14991+0091459GE19MSL   +99999+99999GF199999999999009141999999MA1101085097945REMMET11201/11/17 01:43:02 SPECI KMIC 110743Z 24005KT 1 3/4SM -SN OVC030 M16/M20 A2985 RMK AO2 SNB33 P0000 T11561200 TSNO
0244726575949602017011107467+45062-093351FM-16+0265KMIC V0202305N00265008535MN0012075N5-01565-02005999999ADDAA101000021AU110030015AW1715GA1085+008535999GD14991+0085359GE19MSL   +99999+99999GF199999999999008531999999MA1101085097945REMMET11001/11/17 01:46:02 SPECI KMIC 110746Z 23005KT 3/4SM -SN OVC028 M16/M20 A2985 RMK AO2 SNB33 P0000 T11561200 TSNO
0316726575949602017011107537+45062-093351FM-15+0265KMIC V0202605N00365005185WN0008056N5-01565-01945101315ADDAA101000595AU120030016AW1726GA1095+005185999GD15991+0051859GE19MSL   +99999+99999GF109991999999005181999999MA1101125097985REMMET11501/11/17 01:53:02 METAR KMIC 110753Z 26007KT 1/2SM SN VV017 M16/M19 A2986 RMK AO2 SNB33 SLP131 P0001 T11561194 TSNOEQDR01 1/2SM7VIS018R02    SN7AWW018R03SEERMK7MVW018R04    SN7MWW018
0303726575949602017011108027+45062-093351FM-16+0265KMIC V0202605N00265003055WN0008056N5-01565-01895999999ADDAA101000231AU120030016AW1726GA1095+003055999GD15991+0030559GE19MSL   +99999+99999GF109991999999003051999999MA1101125097985REMMET10201/11/17 02:02:02 SPECI KMIC 110802Z 26005KT 1/2SM SN VV010 M16/M19 A2986 RMK AO2 P0001 T11561189 TSNOEQDR01 1/2SM7VIS018R02    SN7AWW018R03SEERMK7MVW018R04    SN7MWW018
0285726575949602017011108197+45062-093351FM-16+0265KMIC V0209999C00005003965MN0020125N5-01565-01835999999ADDAA101000531AU110030015AW1715GA1075+003965999GA2085+012505999GD13991+0039659GD24991+0125059GE19MSL   +99999+99999GF199999999999003961999999MA1101055097915REMMET12001/11/17 02:19:02 SPECI KMIC 110819Z 00000KT 1 1/4SM -SN BKN013 OVC041 M16/M18 A2984 RMK AO2 PRESFR P0002 T11561183 TSNO
0274726575949602017011108277+45062-093351FM-16+0265KMIC V0202505N00215007325MN0032195N5-01565-01895999999ADDAA101000731AU110030015AW1715GA1075+007325999GA2085+013115999GD13991+0073259GD24991+0131159GE19MSL   +99999+99999GF199999999999007321999999MA1101085097945REMMET10901/11/17 02:27:02 SPECI KMIC 110827Z 25004KT 2SM -SN BKN024 OVC043 M16/M19 A2985 RMK AO2 P0003 T11561189 TSNO
0278726575949602017011108387+45062-093351FM-16+0265KMIC V0209999C00005012195MN0040235N5-01565-01895999999ADDAA101000731AU110030015AW1715GA1075+012195999GA2085+018295999GD13991+0121959GD24991+0182959GE19MSL   +99999+99999GF199999999999012191999999MA1101055097915REMMET11301/11/17 02:38:02 SPECI KMIC 110838Z 00000KT 2 1/2SM -SN BKN040 OVC060 M16/M19 A2984 RMK AO2 P0003 T11561189 TSNO
0274726575949602017011108467+45062-093351FM-16+0265KMIC V0209999C00005018295MN0096565N5-01565-01895999999ADDAA101000731AU110030015AW1715GA1045+013415999GA2085+018295999GD12991+0134159GD24991+0182959GE19MSL   +99999+99999GF199999999999013411999999MA1101025097885REMMET10901/11/17 02:46:02 SPECI KMIC 110846Z 00000KT 6SM -SN SCT044 OVC060 M16/M19 A2983 RMK AO2 P0003 T11561189 TSNO
0344726575949602017011108537+45062-093351FM-15+0265KMIC V0209999C00005014635MN0096565N5-01565-01895101185ADDAA101000595AA203001091AU110030015AW1715GA1075+014635999GA2085+018295999GD13991+0146359GD24991+0182959GE19MSL   +99999+99999GF199999999999014631999999MA1100985097855MD1890149+9999REMMET13501/11/17 02:53:02 METAR KMIC 110853Z 00000KT 6SM -SN BKN048 OVC060 M16/M19 A2982 RMK AO2 PRESFR SLP118 P0003 60004 T11561189 58014 TSNOEQDQ01  00108PRCP03
0267726575949602017011109537+45062-093351FM-15+0265KMIC V0209999C00005014635MN0160935N5-01505-01895101145ADDAA101000025GA1045+012195999GA2085+014635999GD12991+0121959GD24991+0146359GE19MSL   +99999+99999GF199999999999012191999999MA1100955097815REMMET11901/11/17 03:53:02 METAR KMIC 110953Z 00000KT 10SM SCT040 OVC048 M15/M19 A2981 RMK AO2 SNE29 SLP114 P0000 T11501189 TSNO
0237726575949602017011110367+45062-093351FM-16+0265KMIC V0203305N00155008235MN0160935N5-01565-01945999999ADDGA1075+008235999GA2085+013115999GD13991+0082359GD24991+0131159GE19MSL   +99999+99999GF199999999999008231999999MA1100915097785REMMET10001/11/17 04:36:02 SPECI KMIC 111036Z 33003KT 10SM BKN027 OVC043 M16/M19 A2980 RMK AO2 T11561194 TSNO
0217726575949602017011110537+45062-093351FM-15+0265KMIC V0203005N00155008235MN0160935N5-01565-01945101145ADDAA101000095GA1085+008235999GD14991+0082359GE19MSL   +99999+99999GF199999999999008231999999MA1100955097815REMMET10001/11/17 04:53:02 METAR KMIC 111053Z 30003KT 10SM OVC027 M16/M19 A2981 RMK AO2 SLP114 T11561194 TSNO
0199726575949602017011111337+45062-093351FM-16+0265KMIC V0202805N00265010365MN0160935N5-01505-01945999999ADDGA1085+010365999GD14991+0103659GE19MSL   +99999+99999GF199999999999010361999999MA1100985097855REMMET09301/11/17 05:33:02 SPECI KMIC 111133Z 28005KT 10SM OVC034 M15/M19 A2982 RMK AO2 T11501194 TSNO
0328726575949602017011111537+45062-093351FM-15+0265KMIC V0202705N00265010065MN0160935N5-01505-01945101265ADDAA101000025AA206001091AA324004191GA1085+010065999GD14991+0100659GE19MSL   +99999+99999GF199999999999010061999999KA1060M-01501KA2060N-01561MA1101055097915MD1390069+9999REMMET13001/11/17 05:53:02 METAR KMIC 111153Z 27005KT 10SM OVC033 M15/M19 A2984 RMK AO2 SLP126 60004 70016 T11501194 11150 21156 53006 TSNOEQDQ01  00408PRCP24
0248726575949602017011112117+45062-093351FM-16+0265KMIC V0202905N00265009455MN0040235N5-01565-01895999999ADDAA101000021AU110030015AW1715GA1085+009455999GD14991+0094559GE19MSL   +99999+99999GF199999999999009451999999MA1101055097915REMMET11401/11/17 06:11:02 SPECI KMIC 111211Z 29005KT 2 1/2SM -SN OVC031 M16/M19 A2984 RMK AO2 SNB1156 P0000 T11561189 TSNO
0286726575949602017011112277+45062-093351FM-16+0265KMIC V0203105N00155007925MN0028165N5-01565-01895999999ADDAA101000021AU110030015AW1715GA1075+007925999GA2085+010675999GD13991+0079259GD24991+0106759GE19MSL   +99999+99999GF199999999999007921999999MA1101025097885REMMET12101/11/17 06:27:02 SPECI KMIC 111227Z 31003KT 1 3/4SM -SN BKN026 OVC035 M16/M19 A2983 RMK AO2 SNB1156 P0000 T11561189 TSNO
0286726575949602017011112467+45062-093351FM-16+0265KMIC V0202805N00155007625MN0040235N5-01565-01895999999ADDAA101000231AU110030015AW1715GA1075+007625999GA2085+014025999GD13991+0076259GD24991+0140259GE19MSL   +99999+99999GF199999999999007621999999MA1101025097885REMMET12101/11/17 06:46:02 SPECI KMIC 111246Z 28003KT 2 1/2SM -SN BKN025 OVC046 M16/M19 A2983 RMK AO2 SNB1156 P0001 T11561189 (JS)
0218726575949602017011112516+45062-093351FM-16+0265KMIC V0202805N00215014025MN0048285N5-01605-01905999999ADDAU110030015AW1715GA1045+007925999GA2085+014025999GD12991+0079259GD24991+0140259MA1101025097885REMMET11201/11/17 06:51:02 SPECI KMIC 111251Z 28004KT 3SM -SN SCT026 OVC046 M16/M19 A2983 RMK AO2 SNB1156 P0001 FIBI (JS)
0293726575949602017011112537+45062-093351FM-15+0265KMIC V0202805N00155014025MN0040235N5-01565-01895101245ADDAA101000395AU110030015AW1715GA1045+007925999GA2085+014025999GD12991+0079259GD24991+0140259GE19MSL   +99999+99999GF199999999999007921999999MA1101055097915REMMET12801/11/17 06:53:02 METAR KMIC 111253Z 28003KT 2 1/2SM -SN SCT026 OVC046 M16/M19 A2984 RMK AO2 SNB1156 SLP124 P0001 T11561189 (JS)
0236726575949602017011113087+45062-093351FM-16+0265KMIC V0209999C00005013725MN0048285N5-01565-01895999999ADDAA101000021AU110030015AW1715GA1085+013725999GD14991+0137259GE19MSL   +99999+99999GF199999999999013721999999MA1101025097885REMMET10201/11/17 07:08:02 SPECI KMIC 111308Z 00000KT 3SM -SN OVC045 M16/M19 A2983 RMK AO2 P0000 T11561189 (JS)
0278726575949602017011113457+45062-093351FM-16+0265KMIC V0209999C00005007925MN0024145N5-01505-01835999999ADDAA101000021AU110030015AW1715GA1075+007925999GA2085+011285999GD13991+0079259GD24991+0112859GE19MSL   +99999+99999GF199999999999007921999999MA1101025097885REMMET11301/11/17 07:45:02 SPECI KMIC 111345Z 00000KT 1 1/2SM -SN BKN026 OVC037 M15/M18 A2983 RMK AO2 P0000 T11501183 (JS)
0285726575949602017011113537+45062-093351FM-15+0265KMIC V0203105N00215007925MN0028165N5-01505-01895101245ADDAA101000025AU110030015AW1715GA1075+007925999GA2085+011585999GD13991+0079259GD24991+0115859GE19MSL   +99999+99999GF199999999999007921999999MA1101025097885REMMET12001/11/17 07:53:02 METAR KMIC 111353Z 31004KT 1 3/4SM -SN BKN026 OVC038 M15/M19 A2983 RMK AO2 SLP124 P0000 T11501189 (JS)
0341726575949602017011114537+45062-093351FM-15+0265KMIC V0203205N00415013415MN0028165N5-01505-01895101325ADDAA101000395AA203000591AU110030015AW1715GA1075+013415999GA2085+018295999GD13991+0134159GD24991+0182959GE19MSL   +99999+99999GF199999999999013411999999MA1101125097985MD1390059+9999REMMET13201/11/17 08:53:02 METAR KMIC 111453Z 32008KT 1 3/4SM -SN BKN044 OVC060 M15/M19 A2986 RMK AO2 SLP132 P0001 60002 T11501189 53005 (JS)EQDQ01  00058PRCP03
0248726575949602017011115516+45062-093351FM-16+0265KMIC V0203205N00465015245MN0032195N5-01505-01905999999ADDAU110030015AW1715GA1045+011585999GA2075+015245999GA3085+019815999GD12991+0115859GD23991+0152459GD34991+0198159MA1101255098115REMMET11101/11/17 09:51:02 SPECI KMIC 111551Z 32009KT 2SM -SN SCT038 BKN050 OVC065 M15/M19 A2990 RMK AO2 P0000 FIBI (JS)
0319726575949602017011115537+45062-093351FM-15+0265KMIC V0203205N00415014335MN0032195N5-01505-01895101465ADDAA101000025AU110030015AW1715GA1045+011585999GA2075+014335999GA3085+018295999GD12991+0115859GD23991+0143359GD34991+0182959GE19MSL   +99999+99999GF199999999999011581999999MA1101255098115REMMET12301/11/17 09:53:02 METAR KMIC 111553Z 32008KT 2SM -SN SCT038 BKN047 OVC060 M15/M19 A2990 RMK AO2 SLP146 P0000 T11501189 (JS)
0236726575949602017011116357+45062-093351FM-16+0265KMIC V0203305N00365021345MN0064375N5-01445-01895999999ADDAA101000021AU110030015AW1715GA1085+021345999GD14991+0213459GE19MSL   +99999+99999GF199999999999021341999999MA1101295098145REMMET10201/11/17 10:35:02 SPECI KMIC 111635Z 33007KT 4SM -SN OVC070 M14/M19 A2991 RMK AO2 P0000 T11441189 (JS)
0228726575949602017011116537+45062-093351FM-15+0265KMIC V0203305N00465021345MN0112655N5-01445-01895101485ADDAA101000025GA1085+021345999GD14991+0213459GE19MSL   +99999+99999GF199999999999021341999999MA1101255098115REMMET11101/11/17 10:53:02 METAR KMIC 111653Z 33009KT 7SM OVC070 M14/M19 A2990 RMK AO2 SNE47 SLP148 P0000 T11441189 (JS)
0292726575949602017011117537+45062-093351FM-15+0265KMIC V0203205N00315024385MN0160935N5-01395-01835101375ADDAA101000095AA206000591GA1085+024385999GD14991+0243859GE19MSL   +99999+99999GF199999999999024381999999KA1060M-01391KA2060N-01561MA1101155098015MD1090069+9999REMMET12401/11/17 11:53:02 METAR KMIC 111753Z 32006KT 10SM OVC080 M14/M18 A2987 RMK AO2 SLP137 60002 T11391183 11139 21156 50006 (JS)
0236726575949602017011118537+45062-093351FM-15+0265KMIC V0203505N004652200059N0160935N5-01335-01835101355ADDAA101000095GA1025+027435999GD11991+0274359GE19AGL   +99999+99999GF102995999999027431999999MA1101155098015REMMET10001/11/17 12:53:02 METAR KMIC 111853Z 35009KT 10SM FEW090 M13/M18 A2987 RMK AO2 SLP135 T11331183 (JS)EQDD01      0ADE726
0192726575949602017011119537+45062-093351FM-15+0265KMIC V0203305N003652200059N0160935N5-01335-01835101365ADDAA101000095GA1005+999999999GD10991+9999999GF100991999999999999999999MA1101155098015REMMET09701/11/17 13:53:02 METAR KMIC 111953Z 33007KT 10SM CLR M13/M18 A2987 RMK AO2 SLP136 T11331183 (JS)
0212726575949602017011120537+45062-093351FM-15+0265KMIC V0203505N004652200059N0160935N5-01335-01895101315ADDAA101000095GA1005+999999999GD10991+9999999GF100991999999999999999999MA1101085097945MD1890069+9999REMMET10301/11/17 14:53:02 METAR KMIC 112053Z 35009KT 10SM CLR M13/M19 A2985 RMK AO2 SLP131 T11331189 58006 (JS)
0192726575949602017011121537+45062-093351FM-15+0265KMIC V0203605N003652200059N0160935N5-01395-01945101365ADDAA101000095GA1005+999999999GD10991+9999999GF100991999999999999999999MA1101155098015REMMET09701/11/17 15:53:02 METAR KMIC 112153Z 36007KT 10SM CLR M14/M19 A2987 RMK AO2 SLP136 T11391194 TSNO
0199726575949602017011122537+45062-093351FM-15+0265KMIC V0203205N003152200059N0160935N5-01505-02005101485ADDAA101000095GA1005+999999999GD10991+9999999GF100991999999999999999999MA1101255098115REMMET10401/11/17 16:53:02 METAR KMIC 112253Z 32006KT 10SM CLR M15/M20 A2990 RMK AO2 PRESRR SLP148 T11501200 TSNO
0250726575949602017011123537+45062-093351FM-15+0265KMIC V0203305N003152200059N0160935N5-01445-02005101565ADDAA101000095GA1005+999999999GD10991+9999999GF100991999999999999999999KA1060M-01281KA2060N-01501MA1101355098215MD1390259+9999REMMET11501/11/17 17:53:02 METAR KMIC 112353Z 33006KT 10SM CLR M14/M20 A2993 RMK AO2 SLP156 T11441200 11128 21150 53025 TSNO
0187726575949602017011200537+45062-093351FM-15+0265KMIC V0203005N002652200059N0160935N5-01505-02005101705ADDAA101000095GA1005+999999999GD10991+9999999GF100991999999999999999999MA1101495098345REMMET09201/11/17 18:53:01 METAR KMIC 120053Z 30005KT 10SM CLR M15/M20 A2997 RMK AO2 SLP170 T11501200
0187726575949602017011201537+45062-093351FM-15+0265KMIC V0203205N002652200059N0160935N5-01505-02065101745ADDAA101000095GA1005+999999999GD10991+9999999GF100991999999999999999999MA1101525098375REMMET09201/11/17 19:53:01 METAR KMIC 120153Z 32005KT 10SM CLR M15/M21 A2998 RMK AO2 SLP174 T11501206
0256726575949602017011202537+45062-093351FM-15+0265KMIC V0203105N002652200059N0160935N5-01445-02065101765ADDAA101000095GA1025+033535999GD11991+0335359GE19AGL   +99999+99999GF102995999999033531999999MA1101565098415MD1190199+9999REMMET10601/11/17 20:53:01 METAR KMIC 120253Z 31005KT 10SM FEW110 M14/M21 A2999 RMK AO2 SLP176 T11441206 51019 TSNOEQDD01      0ADE726
0217726575949602017011203537+45062-093351FM-15+0265KMIC V0203005N00315033535MN0160935N5-01505-02005101875ADDAA101000095GA1075+033535999GD13991+0335359GE19MSL   +99999+99999GF199999999999033531999999MA1101665098515REMMET10001/11/17 21:53:02 METAR KMIC 120353Z 30006KT 10SM BKN110 M15/M20 A3002 RMK AO2 SLP187 T11501200 TSNO
0217726575949602017011204537+45062-093351FM-15+0265KMIC V0203105N00315030485MN0160935N5-01505-02115101885ADDAA101000095GA1085+030485999GD14991+0304859GE19MSL   +99999+99999GF199999999999030481999999MA1101665098515REMMET10001/11/17 22:53:02 METAR KMIC 120453Z 31006KT 10SM OVC100 M15/M21 A3002 RMK AO2 SLP188 T11501211 TSNO
0311726575949602017011205537+45062-093351FM-15+0265KMIC V0203005N00265025915MN0160935N5-01505-02065101905ADDAA101000095GA1085+025915999GD14991+0259159GE19MSL   +99999+99999GF199999999999025911999999KA1060M-01441KA2060N-01501KA3240M-01281KA4240N-01561MA1101695098545MD1190139+9999REMMET12801/11/17 23:53:02 METAR KMIC 120553Z 30005KT 10SM OVC085 M15/M21 A3003 RMK AO2 SLP190 T11501206 11144 21150 411281156 51013 TSNO
0898726575949602017011205596+45062-093351SOD  +0265KMIC V020999999999999999999999999999+99999+99999999999ADDAA124001595AT1AU18SN  5KA1240M-01275KA2240N-01555MG1098154101054OE11240084935014095OE22240067136014105OE33240029199999995REMSOD73024 HR PRECIPITATION (IN):0.06  24 HR MAX TEMP (F):9  24 HR MAX TEMP TIME (LST):1525 24 HR MIN TEMP (F):4  24 HR MIN TEMP TIME (LST):0732 AVERAGE STATION PRESSURE:28.985 MINIMUM SEA LEVEL PRESSURE:29.84 TIME OF OCCURRENCE:0413 PEAK WIND SPEED (MPH):19  PEAK WIND DIR (DEG):350 PEAK WIND TIME (LST):1409  FASTEST 2MIN SPEED (MPH):15 FASTEST 2MIN DIR (DEG):360 FASTEST 2MIN TIME (LST):1410 AVERAGE WIND SPEED (MPH):6.5  24 HR AVG TEMP (F):7  HEATING DEGREE DAYS:58  COOLING DEGREE DAYS:0   LATEST DAY MAX TEMP (0700-1900 LST):9   LATEST NIGHT MIN TEMP(1900-0800 LST):3  HOURLY INCREMENTAL PRECIPITATION VALUES (IN):.00 0.02 0.02 T    0.00 T    0.01 T    0.01 T    T    0.00 0.00 0.00 0.00 0.00 0.00 0.00 0.00 0.00 0.00 0.00 0.00 0.00EQDR01     N7GJS072R02     N7GKS075
0217726575949602017011206537+45062-093351FM-15+0265KMIC V0203005N00265030485MN0160935N5-01505-02065101895ADDAA101000095GA1085+030485999GD14991+0304859GE19MSL   +99999+99999GF199999999999030481999999MA1101695098545REMMET10001/12/17 00:53:02 METAR KMIC 120653Z 30005KT 10SM OVC100 M15/M21 A3003 RMK AO2 SLP189 T11501206 TSNO
0217726575949602017011207537+45062-093351FM-15+0265KMIC V0203005N00315027435MN0160935N5-01505-02065101895ADDAA101000095GA1085+027435999GD14991+0274359GE19MSL   +99999+99999GF199999999999027431999999MA1101695098545REMMET10001/12/17 01:53:02 METAR KMIC 120753Z 30006KT 10SM OVC090 M15/M21 A3003 RMK AO2 SLP189 T11501206 TSNO
0237726575949602017011208537+45062-093351FM-15+0265KMIC V0203305N00155025915MN0160935N5-01615-02175101905ADDAA101000095GA1075+025915999GD13991+0259159GE19MSL   +99999+99999GF199999999999025911999999MA1101695098545MD1390009+9999REMMET10601/12/17 02:53:02 METAR KMIC 120853Z 33003KT 10SM BKN085 M16/M22 A3003 RMK AO2 SLP190 T11611217 53000 TSNO
0217726575949602017011209537+45062-093351FM-15+0265KMIC V0202605N00155024385MN0160935N5-01565-02175101905ADDAA101000095GA1085+024385999GD14991+0243859GE19MSL   +99999+99999GF199999999999024381999999MA1101695098545REMMET10001/12/17 03:53:02 METAR KMIC 120953Z 26003KT 10SM OVC080 M16/M22 A3003 RMK AO2 SLP190 T11561217 TSNO
0217726575949602017011210537+45062-093351FM-15+0265KMIC V0202605N00265024385MN0160935N5-01615-02175101995ADDAA101000095GA1085+024385999GD14991+0243859GE19MSL   +99999+99999GF199999999999024381999999MA1101765098605REMMET10001/12/17 04:53:02 METAR KMIC 121053Z 26005KT 10SM OVC080 M16/M22 A3005 RMK AO2 SLP199 T11611217 TSNO
0292726575949602017011211537+45062-093351FM-15+0265KMIC V0202305N00315024385MN0160935N5-01565-02175102045ADDAA101000095AA224000591GA1085+024385999GD14991+0243859GE19MSL   +99999+99999GF199999999999024381999999KA1060M-01501KA2060N-01611MA1101835098675MD1390129+9999REMMET12401/12/17 05:53:02 METAR KMIC 121153Z 23006KT 10SM OVC080 M16/M22 A3007 RMK AO2 SLP204 70002 T11561217 11150 21161 53012 TSNO
0217726575949602017011212537+45062-093351FM-15+0265KMIC V0202405N00365024385MN0160935N5-01565-02115102175ADDAA101000095GA1085+024385999GD14991+0243859GE19MSL   +99999+99999GF199999999999024381999999MA1101965098805REMMET10001/12/17 06:53:02 METAR KMIC 121253Z 24007KT 10SM OVC080 M16/M21 A3011 RMK AO2 SLP217 T11561211 (FD)
0217726575949602017011213537+45062-093351FM-15+0265KMIC V0202405N00315022865MN0160935N5-01565-02175102265ADDAA101000095GA1085+022865999GD14991+0228659GE19MSL   +99999+99999GF199999999999022861999999MA1102035098875REMMET10001/12/17 07:53:02 METAR KMIC 121353Z 24006KT 10SM OVC075 M16/M22 A3013 RMK AO2 SLP226 T11561217 (FD)
0256726575949602017011214537+45062-093351FM-15+0265KMIC V0202205N003652200059N0160935N5-01565-02225102275ADDAA101000095GA1045+022865999GD12991+0228659GE19AGL   +99999+99999GF104995999999022861999999MA1102075098905MD1190239+9999REMMET10601/12/17 08:53:02 METAR KMIC 121453Z 22007KT 10SM SCT075 M16/M22 A3014 RMK AO2 SLP227 T11561222 51023 (FD)EQDD01      0ADE726
0228726575949602017011215537+45062-093351FM-15+0265KMIC V0202305N006752200059N0048285N5-01445-02115102325ADDAA101000095AU100007015AW1051GA1005+999999999GD10991+9999999GF100991999999999999999999MA1102105098935MW1055OC100985REMMET10201/12/17 09:53:02 METAR KMIC 121553Z 23013G19KT 3SM HZ CLR M14/M21 A3015 RMK AO2 SLP232 T11441211 (FD)
0203726575949602017011216007+45062-093351FM-16+0265KMIC V0202205N005752200059N0040235N5-01445-02115999999ADDAU100007015AW1051GA1005+999999999GD10991+9999999GF100991999999999999999999MA1102105098935MW1055REMMET09601/12/17 10:00:02 SPECI KMIC 121600Z 22011KT 2 1/2SM HZ CLR M14/M21 A3015 RMK AO2 T11441211 (FD)
0174726575949602017011216087+45062-093351FM-16+0265KMIC V0202305N006752200059N0160935N5-01445-02115999999ADDGA1005+999999999GD10991+9999999GF100991999999999999999999MA1102135098975REMMET09001/12/17 10:08:02 SPECI KMIC 121608Z 23013KT 10SM CLR M14/M21 A3016 RMK AO2 T11441211 (FD)
0192726575949602017011216537+45062-093351FM-15+0265KMIC V0202205N006752200059N0160935N5-01285-02005102385ADDAA101000095GA1005+999999999GD10991+9999999GF100991999999999999999999MA1102175099005REMMET09701/12/17 10:53:02 METAR KMIC 121653Z 22013KT 10SM CLR M13/M20 A3017 RMK AO2 SLP238 T11281200 (FD)
0293726575949602017011217537+45062-093351FM-15+0265KMIC V0202405N007752200059N0160935N5-01115-01835102365ADDAA101000095GA1005+999999999GD10991+9999999GF100991999999999999999999KA1060M-01111KA2060N-01561MA1102175099005MD1090109+9999OC101085OD149901331270REMMET13601/12/17 11:53:02 METAR KMIC 121753Z 24015G21KT 10SM CLR M11/M18 A3017 RMK AO2 PK WND 27026/1727 SLP236 T11111183 11111 21156 50010 (FD)
0192726575949602017011218537+45062-093351FM-15+0265KMIC V0202605N007252200059N0160935N5-01065-01785102425ADDAA101000095GA1005+999999999GD10991+9999999GF100991999999999999999999MA1102205099035REMMET09701/12/17 12:53:02 METAR KMIC 121853Z 26014KT 10SM CLR M11/M18 A3018 RMK AO2 SLP242 T11061178 (FD)
0177726575949602017011219536+45062-093351FM-15+0265KMIC V0202805N006752200059N0160935N5-01065-01895102555ADDAA101000095GA1005+999999999GD10991+9999999MA1102345099175OC101295REMMET10001/12/17 13:53:02 METAR KMIC 121953Z 28013G25KT 10SM CLR M11/M19 A3022 RMK AO2 SLP255 T11061189 (FD)
0254726575949602017011220537+45062-093351FM-15+0265KMIC V0202905N009352200059N0112655N5-01225-02115102745ADDAA101000095GA1005+999999999GD10991+9999999GF100991999999999999999999MA1102545099365MD1390379+9999OC101495OD149901491300REMMET12301/12/17 14:53:02 METAR KMIC 122053Z 29018G29KT 7SM CLR M12/M21 A3028 RMK AO2 PK WND 30029/2051 SLP274 T11221211 53037 (FD)
0184726575949602017011221017+45062-093351FM-16+0265KMIC V0202805N010352200059N0144845N5-01225-02175999999ADDGA1005+999999999GD10991+9999999GF100991999999999999999999MA1102545099365OC101295REMMET09201/12/17 15:01:02 SPECI KMIC 122101Z 28020G25KT 9SM CLR M12/M22 A3028 RMK AO2 T11221217 (FD)
0235726575949602017011221537+45062-093351FM-15+0265KMIC V0202805N006752200059N0160935N5-01285-02225102905ADDAA101000095GA1005+999999999GD10991+9999999GF100991999999999999999999MA1102685099505OC101135OD149901491300REMMET11801/12/17 15:53:02 METAR KMIC 122153Z 28013G22KT 10SM CLR M13/M22 A3032 RMK AO2 PK WND 30029/2113 SLP290 T11281222 (FD)
0203726575949602017011222537+45062-093351FM-15+0265KMIC V0202905N007252200059N0160935N5-01565-02395103135ADDAA101000095GA1005+999999999GD10991+9999999GF100991999999999999999999MA1102915099735OC101085REMMET10001/12/17 16:53:02 METAR KMIC 122253Z 29014G21KT 10SM CLR M16/M24 A3039 RMK AO2 SLP313 T11561239 (FD)
0250726575949602017011223537+45062-093351FM-15+0265KMIC V0202905N005152200059N0160935N5-01675-02335103295ADDAA101000095GA1005+999999999GD10991+9999999GF100991999999999999999999KA1060M-01061KA2060N-01671MA1103055099865MD1390529+9999REMMET11501/12/17 17:53:02 METAR KMIC 122353Z 29010KT 10SM CLR M17/M23 A3043 RMK AO2 SLP329 T11671233 11106 21167 53052 (FD)
0187726575949602017011300537+45062-093351FM-15+0265KMIC V0203005N005752200059N0160935N5-01785-02445103465ADDAA101000095GA1005+999999999GD10991+9999999GF100991999999999999999999MA1103225100025REMMET09201/12/17 18:53:01 METAR KMIC 130053Z 30011KT 10SM CLR M18/M24 A3048 RMK AO2 SLP346 T11781244
0187726575949602017011301537+45062-093351FM-15+0265KMIC V0202905N004152200059N0160935N5-01895-02505103565ADDAA101000095GA1005+999999999GD10991+9999999GF100991999999999999999999MA1103325100125REMMET09201/12/17 19:53:01 METAR KMIC 130153Z 29008KT 10SM CLR M19/M25 A3051 RMK AO2 SLP356 T11891250
0212726575949602017011302537+45062-093351FM-15+0265KMIC V0203005N004652200059N0160935N5-01945-02565103635ADDAA101000095GA1005+999999999GD10991+9999999GF100991999999999999999999MA1103395100195MD1190329+9999REMMET10301/12/17 20:53:02 METAR KMIC 130253Z 30009KT 10SM CLR M19/M26 A3053 RMK AO2 SLP363 T11941256 51032 TSNO
0192726575949602017011303537+45062-093351FM-15+0265KMIC V0202805N003652200059N0160935N5-02065-02565103805ADDAA101000095GA1005+999999999GD10991+9999999GF100991999999999999999999MA1103565100355REMMET09701/12/17 21:53:03 METAR KMIC 130353Z 28007KT 10SM CLR M21/M26 A3058 RMK AO2 SLP380 T12061256 TSNO
0166726575949602017011304536+45062-093351FM-15+0265KMIC V0202905N004152200059N0160935N5-02115-02615103985ADDAA101000095GA1005+999999999GD10991+9999999MA1103735100525REMMET09701/12/17 22:53:03 METAR KMIC 130453Z 29008KT 10SM CLR M21/M26 A3063 RMK AO2 SLP398 T12111261 TSNO
0286726575949602017011305537+45062-093351FM-15+0265KMIC V0203105N002652200059N0160935N5-02175-02675104005ADDAA101000095GA1005+999999999GD10991+9999999GF100991999999999999999999KA1060M-01671KA2060N-02221KA3240M-01061KA4240N-02221MA1103765100555MD1190369+9999REMMET12501/12/17 23:53:02 METAR KMIC 130553Z 31005KT 10SM CLR M22/M27 A3064 RMK AO2 SLP400 T12171267 11167 21222 411061222 51036 TSNO
0898726575949602017011305596+45062-093351SOD  +0265KMIC V020999999999999999999999999999+99999+99999999999ADDAA124000095AT1AU08HZ  5KA1240M-01055KA2240N-02215MG1099514101864OE11240147530015135OE22240116229014325OE33240046999999995REMSOD73024 HR PRECIPITATION (IN):0.00  24 HR MAX TEMP (F):13 24 HR MAX TEMP TIME (LST):1415 24 HR MIN TEMP (F):-8 24 HR MIN TEMP TIME (LST):2352 AVERAGE STATION PRESSURE:29.385 MINIMUM SEA LEVEL PRESSURE:30.08 TIME OF OCCURRENCE:0159 PEAK WIND SPEED (MPH):33  PEAK WIND DIR (DEG):300 PEAK WIND TIME (LST):1513  FASTEST 2MIN SPEED (MPH):26 FASTEST 2MIN DIR (DEG):290 FASTEST 2MIN TIME (LST):1432 AVERAGE WIND SPEED (MPH):10.5 24 HR AVG TEMP (F):3  HEATING DEGREE DAYS:62  COOLING DEGREE DAYS:0   LATEST DAY MAX TEMP (0700-1900 LST):13  LATEST NIGHT MIN TEMP(1900-0800 LST):3  HOURLY INCREMENTAL PRECIPITATION VALUES (IN):.00 0.00 0.00 0.00 0.00 0.00 0.00 0.00 0.00 0.00 0.00 0.00 0.00 0.00 0.00 0.00 0.00 0.00 0.00 0.00 0.00 0.00 0.00 0.00EQDR01     N7GJS072R02     N7GKS075
0192726575949602017011306537+45062-093351FM-15+0265KMIC V0202905N002652200059N0160935N5-02225-02725104145ADDAA101000095GA1005+999999999GD10991+9999999GF100991999999999999999999MA1103895100685REMMET09701/13/17 00:53:02 METAR KMIC 130653Z 29005KT 10SM CLR M22/M27 A3068 RMK AO2 SLP414 T12221272 TSNO
0192726575949602017011307537+45062-093351FM-15+0265KMIC V0209999C000052200059N0160935N5-02285-02725104195ADDAA101000095GA1005+999999999GD10991+9999999GF100991999999999999999999MA1103935100725REMMET09701/13/17 01:53:02 METAR KMIC 130753Z 00000KT 10SM CLR M23/M27 A3069 RMK AO2 SLP419 T12281272 TSNO
0212726575949602017011308537+45062-093351FM-15+0265KMIC V0209999C000052200059N0160935N5-02285-02725104275ADDAA101000095GA1005+999999999GD10991+9999999GF100991999999999999999999MA1104035100825MD1190259+9999REMMET10301/13/17 02:53:02 METAR KMIC 130853Z 00000KT 10SM CLR M23/M27 A3072 RMK AO2 SLP427 T12281272 51025 TSNO
0192726575949602017011309537+45062-093351FM-15+0265KMIC V0209999C000052200059N0160935N5-02285-02725104365ADDAA101000095GA1005+999999999GD10991+9999999GF100991999999999999999999MA1104105100885REMMET09701/13/17 03:53:02 METAR KMIC 130953Z 00000KT 10SM CLR M23/M27 A3074 RMK AO2 SLP436 T12281272 TSNO
0192726575949602017011310537+45062-093351FM-15+0265KMIC V0202305N001552200059N0160935N5-02285-02675104465ADDAA101000095GA1005+999999999GD10991+9999999GF100991999999999999999999MA1104205100985REMMET09701/13/17 04:53:02 METAR KMIC 131053Z 23003KT 10SM CLR M23/M27 A3077 RMK AO2 SLP446 T12281267 TSNO
0250726575949602017011311537+45062-093351FM-15+0265KMIC V0203505N002652200059N0160935N5-02285-02675104395ADDAA101000095GA1005+999999999GD10991+9999999GF100991999999999999999999KA1060M-02171KA2060N-02331MA1104135100925MD1090109+9999REMMET11501/13/17 05:53:02 METAR KMIC 131153Z 35005KT 10SM CLR M23/M27 A3075 RMK AO2 SLP439 T12281267 11217 21233 50010 TSNO
0192726575949602017011312537+45062-093351FM-15+0265KMIC V0202905N001552200059N0160935N5-02225-02675104535ADDAA101000095GA1005+999999999GD10991+9999999GF100991999999999999999999MA1104235101015REMMET09701/13/17 06:53:02 METAR KMIC 131253Z 29003KT 10SM CLR M22/M27 A3078 RMK AO2 SLP453 T12221267 (FD)
0217726575949602017011313537+45062-093351FM-15+0265KMIC V0209999C00005030485MN0160935N5-02175-02615104565ADDAA101000095GA1075+030485999GD13991+0304859GE19MSL   +99999+99999GF199999999999030481999999MA1104275101055REMMET10001/13/17 07:53:02 METAR KMIC 131353Z 00000KT 10SM BKN100 M22/M26 A3079 RMK AO2 SLP456 T12171261 (FD)
0256726575949602017011314537+45062-093351FM-15+0265KMIC V0200405N002652200059N0160935N5-02115-02615104605ADDAA101000095GA1025+033535999GD11991+0335359GE19AGL   +99999+99999GF102995999999033531999999MA1104335101115MD1190199+9999REMMET10601/13/17 08:53:02 METAR KMIC 131453Z 04005KT 10SM FEW110 M21/M26 A3081 RMK AO2 SLP460 T12111261 51019 (FD)EQDD01      0ADE726
0236726575949602017011315537+45062-093351FM-15+0265KMIC V0209999V002152200059N0160935N5-02005-02505104605ADDAA101000095GA1045+030485999GD12991+0304859GE19AGL   +99999+99999GF104995999999030481999999MA1104305101085REMMET10001/13/17 09:53:02 METAR KMIC 131553Z VRB04KT 10SM SCT100 M20/M25 A3080 RMK AO2 SLP460 T12001250 (FD)EQDD01      0ADE726
0217726575949602017011316537+45062-093351FM-15+0265KMIC V0201105N00215028965MN0160935N5-01895-02445104565ADDAA101000095GA1085+028965999GD14991+0289659GE19MSL   +99999+99999GF199999999999028961999999MA1104275101055REMMET10001/13/17 10:53:02 METAR KMIC 131653Z 11004KT 10SM OVC095 M19/M24 A3079 RMK AO2 SLP456 T11891244 (FD)
0275726575949602017011317537+45062-093351FM-15+0265KMIC V0201405N00215028965MN0160935N5-01725-02335104495ADDAA101000095GA1085+028965999GD14991+0289659GE19MSL   +99999+99999GF199999999999028961999999KA1060M-01721KA2060N-02281MA1104235101015MD1890109+9999REMMET11801/13/17 11:53:02 METAR KMIC 131753Z 14004KT 10SM OVC095 M17/M23 A3078 RMK AO2 SLP449 T11721233 11172 21228 58010 (FD)
0217726575949602017011318537+45062-093351FM-15+0265KMIC V0201705N00155022865MN0160935N5-01615-02335104455ADDAA101000095GA1085+022865999GD14991+0228659GE19MSL   +99999+99999GF199999999999022861999999MA1104175100955REMMET10001/13/17 12:53:02 METAR KMIC 131853Z 17003KT 10SM OVC075 M16/M23 A3076 RMK AO2 SLP445 T11611233 (FD)
0255726575949602017011319537+45062-093351FM-15+0265KMIC V0201305N00315018295MN0160935N5-01565-02285104325ADDAA101000095GA1075+018295999GA2085+024385999GD13991+0182959GD24991+0243859GE19MSL   +99999+99999GF199999999999018291999999MA1104065100855REMMET10701/13/17 13:53:02 METAR KMIC 131953Z 13006KT 10SM BKN060 OVC080 M16/M23 A3073 RMK AO2 SLP432 T11561228 (FD)
0275726575949602017011320537+45062-093351FM-15+0265KMIC V0201605N00315016765MN0160935N5-01505-02225104305ADDAA101000095GA1075+016765999GA2085+021345999GD13991+0167659GD24991+0213459GE19MSL   +99999+99999GF199999999999016761999999MA1104035100825MD1690189+9999REMMET11301/13/17 14:53:02 METAR KMIC 132053Z 16006KT 10SM BKN055 OVC070 M15/M22 A3072 RMK AO2 SLP430 T11501222 56018 (FD)
0255726575949602017011321537+45062-093351FM-15+0265KMIC V0201605N00315019815MN0160935N5-01505-02225104285ADDAA101000095GA1075+019815999GA2085+025915999GD13991+0198159GD24991+0259159GE19MSL   +99999+99999GF199999999999019811999999MA1104005100785REMMET10701/13/17 15:53:02 METAR KMIC 132153Z 16006KT 10SM BKN065 OVC085 M15/M22 A3071 RMK AO2 SLP428 T11501222 (FD)
0217726575949602017011322537+45062-093351FM-15+0265KMIC V0201505N00215030485MN0160935N5-01445-02175104215ADDAA101000095GA1085+030485999GD14991+0304859GE19MSL   +99999+99999GF199999999999030481999999MA1103965100755REMMET10001/13/17 16:53:02 METAR KMIC 132253Z 15004KT 10SM OVC100 M14/M22 A3070 RMK AO2 SLP421 T11441217 (FD)
0275726575949602017011323537+45062-093351FM-15+0265KMIC V0201605N00315030485MN0160935N5-01505-02115104205ADDAA101000095GA1085+030485999GD14991+0304859GE19MSL   +99999+99999GF199999999999030481999999KA1060M-01441KA2060N-01721MA1103935100725MD1690099+9999REMMET11801/13/17 17:53:02 METAR KMIC 132353Z 16006KT 10SM OVC100 M15/M21 A3069 RMK AO2 SLP420 T11501211 11144 21172 56009 (FD)
0212726575949602017011400537+45062-093351FM-15+0265KMIC V0201305N00315013725MN0160935N5-01395-02065104105ADDAA101000095GA1085+013725999GD14991+0137259GE19MSL   +99999+99999GF199999999999013721999999MA1103835100625REMMET09501/13/17 18:53:01 METAR KMIC 140053Z 13006KT 10SM OVC045 M14/M21 A3066 RMK AO2 SLP410 T11391206
0212726575949602017011401537+45062-093351FM-15+0265KMIC V0201305N00365011895MN0160935N5-01335-02005104005ADDAA101000095GA1085+011895999GD14991+0118959GE19MSL   +99999+99999GF199999999999011891999999MA1103765100555REMMET09501/13/17 19:53:01 METAR KMIC 140153Z 13007KT 10SM OVC039 M13/M20 A3064 RMK AO2 SLP400 T11331200
0275726575949602017011402537+45062-093351FM-15+0265KMIC V0201705N00315010975MN0160935N5-01335-02005103965ADDAA101000095GA1075+010975999GA2085+021345999GD13991+0109759GD24991+0213459GE19MSL   +99999+99999GF199999999999010971999999MA1103735100525MD1690219+9999REMMET11301/13/17 20:53:02 METAR KMIC 140253Z 17006KT 10SM BKN036 OVC070 M13/M20 A3063 RMK AO2 SLP396 T11331200 56021 TSNO
0217726575949602017011403537+45062-093351FM-15+0265KMIC V0201605N00365021345MN0160935N5-01335-01945103895ADDAA101000095GA1085+021345999GD14991+0213459GE19MSL   +99999+99999GF199999999999021341999999MA1103665100455REMMET10001/13/17 21:53:02 METAR KMIC 140353Z 16007KT 10SM OVC070 M13/M19 A3061 RMK AO2 SLP389 T11331194 TSNO
0217726575949602017011404537+45062-093351FM-15+0265KMIC V0201605N00315021345MN0160935N5-01285-01895103825ADDAA101000095GA1085+021345999GD14991+0213459GE19MSL   +99999+99999GF199999999999021341999999MA1103595100395REMMET10001/13/17 22:53:02 METAR KMIC 140453Z 16006KT 10SM OVC070 M13/M19 A3059 RMK AO2 SLP382 T11281189 TSNO
0311726575949602017011405537+45062-093351FM-15+0265KMIC V0201605N00365019815MN0160935N5-01285-01895103765ADDAA101000095GA1085+019815999GD14991+0198159GE19MSL   +99999+99999GF199999999999019811999999KA1060M-01281KA2060N-01501KA3240M-01281KA4240N-02331MA1103525100325MD1690189+9999REMMET12801/13/17 23:53:02 METAR KMIC 140553Z 16007KT 10SM OVC065 M13/M19 A3057 RMK AO2 SLP376 T11281189 11128 21150 411281233 56018 TSNO
0886726575949602017011405596+45062-093351SOD  +0265KMIC V020999999999999999999999999999+99999+99999999999ADDAA124000095KA1240M-01275KA2240N-02325MG1100734103764OE11240058116023405OE22240044716023385OE33240021999999995REMSOD73024 HR PRECIPITATION (IN):0.00  24 HR MAX TEMP (F):9  24 HR MAX TEMP TIME (LST):2359 24 HR MIN TEMP (F):-1024 HR MIN TEMP TIME (LST):0313 AVERAGE STATION PRESSURE:29.745 MINIMUM SEA LEVEL PRESSURE:30.64 TIME OF OCCURRENCE:2359 PEAK WIND SPEED (MPH):13  PEAK WIND DIR (DEG):160 PEAK WIND TIME (LST):2340  FASTEST 2MIN SPEED (MPH):10 FASTEST 2MIN DIR (DEG):160 FASTEST 2MIN TIME (LST):2338 AVERAGE WIND SPEED (MPH):4.9  24 HR AVG TEMP (F):0  HEATING DEGREE DAYS:65  COOLING DEGREE DAYS:0   LATEST DAY MAX TEMP (0700-1900 LST):7   LATEST NIGHT MIN TEMP(1900-0800 LST):-10HOURLY INCREMENTAL PRECIPITATION VALUES (IN):.00 0.00 0.00 0.00 0.00 0.00 0.00 0.00 0.00 0.00 0.00 0.00 0.00 0.00 0.00 0.00 0.00 0.00 0.00 0.00 0.00 0.00 0.00 0.00EQDR01     N7GJS072R02     N7GKS075
0192726575949602017011406537+45062-093351FM-15+0265KMIC V0201705N003152200059N0160935N5-01335-01945103695ADDAA101000095GA1005+999999999GD10991+9999999GF100991999999999999999999MA1103455100265REMMET09701/14/17 00:53:02 METAR KMIC 140653Z 17006KT 10SM CLR M13/M19 A3055 RMK AO2 SLP369 T11331194 TSNO
0192726575949602017011407537+45062-093351FM-15+0265KMIC V0201605N002152200059N0160935N5-01445-01945103665ADDAA101000095GA1005+999999999GD10991+9999999GF100991999999999999999999MA1103425100225REMMET09701/14/17 01:53:02 METAR KMIC 140753Z 16004KT 10SM CLR M14/M19 A3054 RMK AO2 SLP366 T11441194 TSNO
0211726575949602017011408537+45062-093351FM-15+0265KMIC V0201805N002152200059N0112655N5-01445-01895103635ADDAA101000095GA1005+999999999GD10991+9999999GF100991999999999999999999MA1103395100195MD1690139+9999REMMET10201/14/17 02:53:02 METAR KMIC 140853Z 18004KT 7SM CLR M14/M19 A3053 RMK AO2 SLP363 T11441189 56013 TSNO
0192726575949602017011409537+45062-093351FM-15+0265KMIC V0201605N003152200059N0160935N5-01565-01945103545ADDAA101000095GA1005+999999999GD10991+9999999GF100991999999999999999999MA1103325100125REMMET09701/14/17 03:53:02 METAR KMIC 140953Z 16006KT 10SM CLR M16/M19 A3051 RMK AO2 SLP354 T11561194 TSNO
0217726575949602017011410537+45062-093351FM-15+0265KMIC V0201805N00265011895MN0160935N5-01395-01785103515ADDAA101000095GA1075+011895999GD13991+0118959GE19MSL   +99999+99999GF199999999999011891999999MA1103285100095REMMET10001/14/17 04:53:02 METAR KMIC 141053Z 18005KT 10SM BKN039 M14/M18 A3050 RMK AO2 SLP351 T11391178 TSNO
0250726575949602017011411537+45062-093351FM-15+0265KMIC V0201605N002652200059N0160935N5-01445-01835103425ADDAA101000095GA1005+999999999GD10991+9999999GF100991999999999999999999KA1060M-01281KA2060N-01561MA1103225100025MD1690209+9999REMMET11501/14/17 05:53:02 METAR KMIC 141153Z 16005KT 10SM CLR M14/M18 A3048 RMK AO2 SLP342 T11441183 11128 21156 56020 TSNO
0187726575949602017011412537+45062-093351FM-15+0265KMIC V0201905N002652200059N0160935N5-01395-01785103395ADDAA101000095GA1005+999999999GD10991+9999999GF100991999999999999999999MA1103155099965REMMET09201/14/17 06:53:02 METAR KMIC 141253Z 19005KT 10SM CLR M14/M18 A3046 RMK AO2 SLP339 T11391178
0187726575949602017011413537+45062-093351FM-15+0265KMIC V0201605N001552200059N0160935N5-01565-01835103405ADDAA101000095GA1005+999999999GD10991+9999999GF100991999999999999999999MA1103185099995REMMET09201/14/17 07:53:02 METAR KMIC 141353Z 16003KT 10SM CLR M16/M18 A3047 RMK AO2 SLP340 T11561183
0206726575949602017011414537+45062-093351FM-15+0265KMIC V0201705N001552200059N0144845N5-01445-01725103435ADDAA101000095GA1005+999999999GD10991+9999999GF100991999999999999999999MA1103225100025MD1390019+9999REMMET09701/14/17 08:53:02 METAR KMIC 141453Z 17003KT 9SM CLR M14/M17 A3048 RMK AO2 SLP343 T11441172 53001
0187726575949602017011415537+45062-093351FM-15+0265KMIC V0202305N001552200059N0160935N5-01175-01615103475ADDAA101000095GA1005+999999999GD10991+9999999GF100991999999999999999999MA1103255100065REMMET09201/14/17 09:53:02 METAR KMIC 141553Z 23003KT 10SM CLR M12/M16 A3049 RMK AO2 SLP347 T11171161
0187726575949602017011416537+45062-093351FM-15+0265KMIC V0202705N002652200059N0160935N5-00945-01505103455ADDAA101000095GA1005+999999999GD10991+9999999GF100991999999999999999999MA1103255100065REMMET09201/14/17 10:53:02 METAR KMIC 141653Z 27005KT 10SM CLR M09/M15 A3049 RMK AO2 SLP345 T10941150
0245726575949602017011417537+45062-093351FM-15+0265KMIC V0202605N002152200059N0160935N5-00835-01445103405ADDAA101000095GA1005+999999999GD10991+9999999GF100991999999999999999999KA1060M-00831KA2060N-01611MA1103225100025MD1090009+9999REMMET11001/14/17 11:53:02 METAR KMIC 141753Z 26004KT 10SM CLR M08/M14 A3048 RMK AO2 SLP340 T10831144 11083 21161 50000
0187726575949602017011418537+45062-093351FM-15+0265KMIC V0202905N002152200059N0160935N5-00675-01395103335ADDAA101000095GA1005+999999999GD10991+9999999GF100991999999999999999999MA1103155099965REMMET09201/14/17 12:53:02 METAR KMIC 141853Z 29004KT 10SM CLR M07/M14 A3046 RMK AO2 SLP333 T10671139
0187726575949602017011419537+45062-093351FM-15+0265KMIC V0202405N001552200059N0160935N5-00615-01335103285ADDAA101000095GA1005+999999999GD10991+9999999GF100991999999999999999999MA1103125099935REMMET09201/14/17 13:53:02 METAR KMIC 141953Z 24003KT 10SM CLR M06/M13 A3045 RMK AO2 SLP328 T10611133
0212726575949602017011420537+45062-093351FM-15+0265KMIC V0202905N002152200059N0160935N5-00565-01335103245ADDAA101000095GA1005+999999999GD10991+9999999GF100991999999999999999999MA1103055099865MD1690159+9999REMMET10301/14/17 14:53:02 METAR KMIC 142053Z 29004KT 10SM CLR M06/M13 A3043 RMK AO2 SLP324 T10561133 56015 (FD)
0192726575949602017011421537+45062-093351FM-15+0265KMIC V0202505N002152200059N0160935N5-00565-01395103255ADDAA101000095GA1005+999999999GD10991+9999999GF100991999999999999999999MA1103055099865REMMET09701/14/17 15:53:02 METAR KMIC 142153Z 25004KT 10SM CLR M06/M14 A3043 RMK AO2 SLP325 T10561139 (FD)
0192726575949602017011422537+45062-093351FM-15+0265KMIC V0202805N002152200059N0160935N5-00675-01445103245ADDAA101000095GA1005+999999999GD10991+9999999GF100991999999999999999999MA1103055099865REMMET09701/14/17 16:53:02 METAR KMIC 142253Z 28004KT 10SM CLR M07/M14 A3043 RMK AO2 SLP324 T10671144 (FD)
0250726575949602017011423537+45062-093351FM-15+0265KMIC V0202605N002152200059N0160935N5-00785-01445103265ADDAA101000095GA1005+999999999GD10991+9999999GF100991999999999999999999KA1060M-00561KA2060N-00831MA1103085099895MD1390019+9999REMMET11501/14/17 17:53:02 METAR KMIC 142353Z 26004KT 10SM CLR M08/M14 A3044 RMK AO2 SLP326 T10781144 11056 21083 53001 (FD)
0187726575949602017011500537+45062-093351FM-15+0265KMIC V0202605N001552200059N0160935N5-00895-01445103285ADDAA101000095GA1005+999999999GD10991+9999999GF100991999999999999999999MA1103085099895REMMET09201/14/17 18:53:01 METAR KMIC 150053Z 26003KT 10SM CLR M09/M14 A3044 RMK AO2 SLP328 T10891144
0187726575949602017011501537+45062-093351FM-15+0265KMIC V0202205N002152200059N0160935N5-01115-01565103325ADDAA101000095GA1005+999999999GD10991+9999999GF100991999999999999999999MA1103125099935REMMET09201/14/17 19:53:01 METAR KMIC 150153Z 22004KT 10SM CLR M11/M16 A3045 RMK AO2 SLP332 T11111156
0207726575949602017011502537+45062-093351FM-15+0265KMIC V0202205N001552200059N0160935N5-01115-01565103305ADDAA101000095GA1005+999999999GD10991+9999999GF100991999999999999999999MA1103085099895MD1090029+9999REMMET09801/14/17 20:53:01 METAR KMIC 150253Z 22003KT 10SM CLR M11/M16 A3044 RMK AO2 SLP330 T11111156 50002
0192726575949602017011503537+45062-093351FM-15+0265KMIC V0209999C000052200059N0160935N5-01335-01675103285ADDAA101000095GA1005+999999999GD10991+9999999GF100991999999999999999999MA1103085099895REMMET09701/14/17 21:53:02 METAR KMIC 150353Z 00000KT 10SM CLR M13/M17 A3044 RMK AO2 SLP328 T11331167 TSNO
0206726575949602017011504537+45062-093351FM-15+0265KMIC V0202405N001552200059N0128755N5-01395-01675103275ADDAA101000095GA1005+999999999GD10991+9999999GF100991999999999999999999MA1103085099895WA1900099REMMET10201/14/17 22:53:02 METAR KMIC 150453Z 24003KT 8SM CLR M14/M17 A3044 RMK AO2 SLP327 I1000 T11391167 TSNO
0306726575949602017011505537+45062-093351FM-15+0265KMIC V0209999C000052200059N0128755N5-01565-01785103285ADDAA101000095GA1005+999999999GD10991+9999999GF100991999999999999999999KA1060M-00781KA2060N-01611KA3240M-00561KA4240N-01611MA1103085099895MD1590019+9999WA1900099REMMET13601/14/17 23:53:02 METAR KMIC 150553Z 00000KT 8SM CLR M16/M18 A3044 RMK AO2 SLP328 I1000 I6000 T11561178 11078 21161 410561161 55001 TSNO
0886726575949602017011505596+45062-093351SOD  +0265KMIC V020999999999999999999999999999+99999+99999999999ADDAA124000095KA1240M-00555KA2240N-01605MG1099934103224OE11240058115000145OE22240040228011265OE33240019299999995REMSOD73024 HR PRECIPITATION (IN):0.00  24 HR MAX TEMP (F):22 24 HR MAX TEMP TIME (LST):1556 24 HR MIN TEMP (F):3  24 HR MIN TEMP TIME (LST):2329 AVERAGE STATION PRESSURE:29.510 MINIMUM SEA LEVEL PRESSURE:30.48 TIME OF OCCURRENCE:1735 PEAK WIND SPEED (MPH):13  PEAK WIND DIR (DEG):150 PEAK WIND TIME (LST):0014  FASTEST 2MIN SPEED (MPH):9  FASTEST 2MIN DIR (DEG):280 FASTEST 2MIN TIME (LST):1126 AVERAGE WIND SPEED (MPH):4.3  24 HR AVG TEMP (F):13 HEATING DEGREE DAYS:52  COOLING DEGREE DAYS:0   LATEST DAY MAX TEMP (0700-1900 LST):22  LATEST NIGHT MIN TEMP(1900-0800 LST):4  HOURLY INCREMENTAL PRECIPITATION VALUES (IN):.00 0.00 0.00 0.00 0.00 0.00 0.00 0.00 0.00 0.00 0.00 0.00 0.00 0.00 0.00 0.00 0.00 0.00 0.00 0.00 0.00 0.00 0.00 0.00EQDR01     N7GJS072R02     N7GKS075
0232726575949602017011506537+45062-093351FM-15+0265KMIC V0201905N001552200059N0096565N5-01565-01895103235ADDAA101000095AU100007015AW1051GA1005+999999999GD10991+9999999GF100991999999999999999999MA1103055099865MW1055WA1900099REMMET10501/15/17 00:53:02 METAR KMIC 150653Z 19003KT 6SM HZ CLR M16/M19 A3043 RMK AO2 SLP323 I1000 T11561189 TSNO
0232726575949602017011507537+45062-093351FM-15+0265KMIC V0209999C000052200059N0096565N5-01675-01945103185ADDAA101000095AU100007015AW1051GA1005+999999999GD10991+9999999GF100991999999999999999999MA1102985099795MW1055WA1900099REMMET10501/15/17 01:53:02 METAR KMIC 150753Z 00000KT 6SM HZ CLR M17/M19 A3041 RMK AO2 SLP318 I1000 T11671194 TSNO
0226726575949602017011508537+45062-093351FM-15+0265KMIC V0209999C000052200059N0112655N5-01725-02065103145ADDAA101000095GA1005+999999999GD10991+9999999GF100991999999999999999999MA1102955099765MD1890139+9999WA1900099REMMET10801/15/17 02:53:02 METAR KMIC 150853Z 00000KT 7SM CLR M17/M21 A3040 RMK AO2 SLP314 I3000 T11721206 58013 TSNO
0191726575949602017011509537+45062-093351FM-15+0265KMIC V0209999C000052200059N0112655N5-01725-02065103105ADDAA101000095GA1005+999999999GD10991+9999999GF100991999999999999999999MA1102915099735REMMET09601/15/17 03:53:02 METAR KMIC 150953Z 00000KT 7SM CLR M17/M21 A3039 RMK AO2 SLP310 T11721206 TSNO
0191726575949602017011510537+45062-093351FM-15+0265KMIC V0209999C000052200059N0112655N5-01725-02065103075ADDAA101000095GA1005+999999999GD10991+9999999GF100991999999999999999999MA1102885099695REMMET09601/15/17 04:53:02 METAR KMIC 151053Z 00000KT 7SM CLR M17/M21 A3038 RMK AO2 SLP307 T11721206 TSNO
0264726575949602017011511537+45062-093351FM-15+0265KMIC V0201705N001552200059N0112655N5-01725-02005103035ADDAA101000095GA1005+999999999GD10991+9999999GF100991999999999999999999KA1060M-01501KA2060N-01831MA1102845099665MD1790129+9999WA1900099REMMET12001/15/17 05:53:02 METAR KMIC 151153Z 17003KT 7SM CLR M17/M20 A3037 RMK AO2 SLP303 I6000 T11721200 11150 21183 57012 TSNO
0186726575949602017011512537+45062-093351FM-15+0265KMIC V0201705N001552200059N0128755N5-01675-01945102955ADDAA101000095GA1005+999999999GD10991+9999999GF100991999999999999999999MA1102745099565REMMET09101/15/17 06:53:02 METAR KMIC 151253Z 17003KT 8SM CLR M17/M19 A3034 RMK AO2 SLP295 T11671194
0186726575949602017011513537+45062-093351FM-15+0265KMIC V0201805N002652200059N0112655N5-01615-01895102875ADDAA101000095GA1005+999999999GD10991+9999999GF100991999999999999999999MA1102685099505REMMET09101/15/17 07:53:02 METAR KMIC 151353Z 18005KT 7SM CLR M16/M19 A3032 RMK AO2 SLP287 T11611189
0247726575949602017011514537+45062-093351FM-15+0265KMIC V0201405N001552200059N0096565N5-01395-01615102915ADDAA101000095AU100001015AW1105GA1005+999999999GD10991+9999999GF100991999999999999999999MA1102715099535MD1590129+9999WA1900099REMMET11201/15/17 08:53:02 METAR KMIC 151453Z 14003KT 6SM BR CLR M14/M16 A3033 RMK AO2 SLP291 I1000 I3000 T11391161 55012
0173726575949602017011515167+45062-093351FM-16+0265KMIC V0201705N002152200059N0112655N5-01395-01615999999ADDGA1005+999999999GD10991+9999999GF100991999999999999999999MA1102745099565REMMET08901/15/17 09:16:02 SPECI KMIC 151516Z 17004KT 7SM CLR M14/M16 A3034 RMK AO2 T11391161 (HH)
0191726575949602017011515537+45062-093351FM-15+0265KMIC V0201805N002152200059N0128755N5-01175-01445102915ADDAA101000095GA1005+999999999GD10991+9999999GF100991999999999999999999MA1102715099535REMMET09601/15/17 09:53:02 METAR KMIC 151553Z 18004KT 8SM CLR M12/M14 A3033 RMK AO2 SLP291 T11171144 (HH)
0192726575949602017011516537+45062-093351FM-15+0265KMIC V0201905N002652200059N0160935N5-00725-01225102835ADDAA101000095GA1005+999999999GD10991+9999999GF100991999999999999999999MA1102645099465REMMET09701/15/17 10:53:02 METAR KMIC 151653Z 19005KT 10SM CLR M07/M12 A3031 RMK AO2 SLP283 T10721122 (HH)
0265726575949602017011517537+45062-093351FM-15+0265KMIC V0202005N002652200059N0160935N5-00395-01005102685ADDAA101000095GA1005+999999999GD10991+9999999GF100991999999999999999999KA1060M-00391KA2060N-01721MA1102515099335MD1890209+9999WA1900099REMMET12101/15/17 11:53:02 METAR KMIC 151753Z 20005KT 10SM CLR M04/M10 A3027 RMK AO2 SLP268 I6000 T10391100 11039 21172 58020 (HH)
0192726575949602017011518537+45062-093351FM-15+0265KMIC V0202005N004152200059N0160935N5-00175-00945102615ADDAA101000095GA1005+999999999GD10991+9999999GF100991999999999999999999MA1102445099265REMMET09701/15/17 12:53:02 METAR KMIC 151853Z 20008KT 10SM CLR M02/M09 A3025 RMK AO2 SLP261 T10171094 (HH)
0192726575949602017011519537+45062-093351FM-15+0265KMIC V0201905N004152200059N0160935N5-00065-00895102515ADDAA101000095GA1005+999999999GD10991+9999999GF100991999999999999999999MA1102345099175REMMET09701/15/17 13:53:02 METAR KMIC 151953Z 19008KT 10SM CLR M01/M09 A3022 RMK AO2 SLP251 T10061089 (FD)
0212726575949602017011520537+45062-093351FM-15+0265KMIC V0201805N002652200059N0160935N5-00065-00835102505ADDAA101000095GA1005+999999999GD10991+9999999GF100991999999999999999999MA1102345099175MD1690189+9999REMMET10301/15/17 14:53:02 METAR KMIC 152053Z 18005KT 10SM CLR M01/M08 A3022 RMK AO2 SLP250 T10061083 56018 (FD)
0192726575949602017011521537+45062-093351FM-15+0265KMIC V0201705N002652200059N0160935N5-00065-00785102475ADDAA101000095GA1005+999999999GD10991+9999999GF100991999999999999999999MA1102305099135REMMET09701/15/17 15:53:02 METAR KMIC 152153Z 17005KT 10SM CLR M01/M08 A3021 RMK AO2 SLP247 T10061078 (FD)
0192726575949602017011522537+45062-093351FM-15+0265KMIC V0201805N002652200059N0160935N5-00115-00835102465ADDAA101000095GA1005+999999999GD10991+9999999GF100991999999999999999999MA1102275099105REMMET09701/15/17 16:53:02 METAR KMIC 152253Z 18005KT 10SM CLR M01/M08 A3020 RMK AO2 SLP246 T10111083 (FD)
0249726575949602017011523537+45062-093351FM-15+0265KMIC V0201605N002152200059N0144845N5-00395-00895102485ADDAA101000095GA1005+999999999GD10991+9999999GF100991999999999999999999KA1060M+00001KA2060N-00501MA1102305099135MD1590039+9999REMMET11401/15/17 17:53:02 METAR KMIC 152353Z 16004KT 9SM CLR M04/M09 A3021 RMK AO2 SLP248 T10391089 10000 21050 55003 (FD)
0186726575949602017011600537+45062-093351FM-15+0265KMIC V0201705N002152200059N0112655N5-00675-01005102475ADDAA101000095GA1005+999999999GD10991+9999999GF100991999999999999999999MA1102275099105REMMET09101/15/17 18:53:01 METAR KMIC 160053Z 17004KT 7SM CLR M07/M10 A3020 RMK AO2 SLP247 T10671100
0186726575949602017011601537+45062-093351FM-15+0265KMIC V0201805N002152200059N0112655N5-00615-01005102465ADDAA101000095GA1005+999999999GD10991+9999999GF100991999999999999999999MA1102275099105REMMET09101/15/17 19:53:01 METAR KMIC 160153Z 18004KT 7SM CLR M06/M10 A3020 RMK AO2 SLP246 T10611100
0206726575949602017011602537+45062-093351FM-15+0265KMIC V0201705N002152200059N0128755N5-00565-00895102445ADDAA101000095GA1005+999999999GD10991+9999999GF100991999999999999999999MA1102275099105MD1690029+9999REMMET09701/15/17 20:53:02 METAR KMIC 160253Z 17004KT 8SM CLR M06/M09 A3020 RMK AO2 SLP244 T10561089 56002
0191726575949602017011603537+45062-093351FM-15+0265KMIC V0201805N002652200059N0112655N5-00505-00895102445ADDAA101000095GA1005+999999999GD10991+9999999GF100991999999999999999999MA1102275099105REMMET09601/15/17 21:53:02 METAR KMIC 160353Z 18005KT 7SM CLR M05/M09 A3020 RMK AO2 SLP244 T10501089 TSNO
0191726575949602017011604537+45062-093351FM-15+0265KMIC V0201805N002652200059N0112655N5-00615-00945102415ADDAA101000095GA1005+999999999GD10991+9999999GF100991999999999999999999MA1102275099105REMMET09601/15/17 22:53:02 METAR KMIC 160453Z 18005KT 7SM CLR M06/M09 A3020 RMK AO2 SLP241 T10611094 TSNO
0285726575949602017011605537+45062-093351FM-15+0265KMIC V0201705N002652200059N0112655N5-00675-01005102365ADDAA101000095GA1005+999999999GD10991+9999999GF100991999999999999999999KA1060M-00391KA2060N-00721KA3240M+00001KA4240N-01831MA1102205099035MD1890059+9999REMMET12401/15/17 23:53:02 METAR KMIC 160553Z 17005KT 7SM CLR M07/M10 A3018 RMK AO2 SLP236 T10671100 11039 21072 400001183 58005 TSNO
0910726575949602017011605596+45062-093351SOD  +0265KMIC V020999999999999999999999999999+99999+99999999999ADDAA124000095AT1AU13BR  5AT2AU08HZ  5KA1240M+00005KA2240N-01825MG1099274102374OE11240067120013535OE22240053618010405OE33240020199999995REMSOD73024 HR PRECIPITATION (IN):0.00  24 HR MAX TEMP (F):32 24 HR MAX TEMP TIME (LST):1436 24 HR MIN TEMP (F):-1 24 HR MIN TEMP TIME (LST):0432 AVERAGE STATION PRESSURE:29.315 MINIMUM SEA LEVEL PRESSURE:30.23 TIME OF OCCURRENCE:2359 PEAK WIND SPEED (MPH):15  PEAK WIND DIR (DEG):200 PEAK WIND TIME (LST):1353  FASTEST 2MIN SPEED (MPH):12 FASTEST 2MIN DIR (DEG):180 FASTEST 2MIN TIME (LST):1040 AVERAGE WIND SPEED (MPH):4.5  24 HR AVG TEMP (F):16 HEATING DEGREE DAYS:49  COOLING DEGREE DAYS:0   LATEST DAY MAX TEMP (0700-1900 LST):32  LATEST NIGHT MIN TEMP(1900-0800 LST):-1 HOURLY INCREMENTAL PRECIPITATION VALUES (IN):.00 0.00 0.00 0.00 0.00 0.00 0.00 0.00 0.00 0.00 0.00 0.00 0.00 0.00 0.00 0.00 0.00 0.00 0.00 0.00 0.00 0.00 0.00 0.00EQDR01     N7GJS072R02     N7GKS075
0191726575949602017011606537+45062-093351FM-15+0265KMIC V0209999C000052200059N0128755N5-00615-01005102335ADDAA101000095GA1005+999999999GD10991+9999999GF100991999999999999999999MA1102205099035REMMET09601/16/17 00:53:02 METAR KMIC 160653Z 00000KT 8SM CLR M06/M10 A3018 RMK AO2 SLP233 T10611100 TSNO
0191726575949602017011607537+45062-093351FM-15+0265KMIC V0209999C000052200059N0112655N5-00615-01005102345ADDAA101000095GA1005+999999999GD10991+9999999GF100991999999999999999999MA1102205099035REMMET09601/16/17 01:53:02 METAR KMIC 160753Z 00000KT 7SM CLR M06/M10 A3018 RMK AO2 SLP234 T10611100 TSNO
0231726575949602017011608537+45062-093351FM-15+0265KMIC V0209999C000052200059N0064375N5-01115-01285102365ADDAA101000095AU100001015AW1105GA1005+999999999GD10991+9999999GF100991999999999999999999MA1102205099035MD1690019+9999REMMET10501/16/17 02:53:02 METAR KMIC 160853Z 00000KT 4SM BR CLR M11/M13 A3018 RMK AO2 SLP236 T11111128 56001 TSNO
0226726575949602017011609537+45062-093351FM-15+0265KMIC V0201505N002152200059N0080475N5-01005-01175102325ADDAA101000095AU100001015AW1105GA1005+999999999GD10991+9999999GF100991999999999999999999MA1102175099005WA1900099REMMET10501/16/17 03:53:02 METAR KMIC 160953Z 15004KT 5SM BR CLR M10/M12 A3017 RMK AO2 SLP232 I1000 T11001117 TSNO
0226726575949602017011610537+45062-093351FM-15+0265KMIC V0201605N001552200059N0080475N5-01115-01335102265ADDAA101000095AU100001015AW1105GA1005+999999999GD10991+9999999GF100991999999999999999999MA1102135098975WA1900099REMMET10501/16/17 04:53:02 METAR KMIC 161053Z 16003KT 5SM BR CLR M11/M13 A3016 RMK AO2 SLP226 I1000 T11111133 TSNO
0290726575949602017011611537+45062-093351FM-15+0265KMIC V0200105N001552200059N0064375N5-01175-01335102335ADDAA101000095AU100001015AW1105GA1005+999999999GD10991+9999999GF100991999999999999999999KA1060M-00611KA2060N-01171MA1102175099005MD1590059+9999WA1900099REMMET12901/16/17 05:53:02 METAR KMIC 161153Z 01003KT 4SM BR CLR M12/M13 A3017 RMK AO2 SLP233 I1000 I6000 T11171133 11061 21117 55005 TSNO
0226726575949602017011612537+45062-093351FM-15+0265KMIC V0209999C000052200059N0048285N5-01225-01445102365ADDAA101000095AU100001015AW1105GA1005+999999999GD10991+9999999GF100991999999999999999999MA1102175099005WA1900099REMMET10501/16/17 06:53:02 METAR KMIC 161253Z 00000KT 3SM BR CLR M12/M14 A3017 RMK AO2 SLP236 I1000 T11221144 (FD)
0197726575949602017011613167+45062-093351FM-16+0265KMIC V0201605N001552200059N0040235N5-01175-01395999999ADDAU100001015AW1105GA1005+999999999GD10991+9999999GF100991999999999999999999MA1102175099005REMMET09601/16/17 07:16:02 SPECI KMIC 161316Z 16003KT 2 1/2SM BR CLR M12/M14 A3017 RMK AO2 T11171139 (FD)
0193726575949602017011613237+45062-093351FM-16+0265KMIC V0201605N002152200059N0064375N5-01175-01395999999ADDAU100001015AW1105GA1005+999999999GD10991+9999999GF100991999999999999999999MA1102175099005REMMET09201/16/17 07:23:02 SPECI KMIC 161323Z 16004KT 4SM BR CLR M12/M14 A3017 RMK AO2 T11171139 (FD)
0211726575949602017011613537+45062-093351FM-15+0265KMIC V0209999C000052200059N0048285N5-01335-01565102335ADDAA101000095AU100001015AW1105GA1005+999999999GD10991+9999999GF100991999999999999999999MA1102175099005REMMET09901/16/17 07:53:02 METAR KMIC 161353Z 00000KT 3SM BR CLR M13/M16 A3017 RMK AO2 SLP233 T11331156 (FD)
0209726575949602017011614067+45062-093351FM-16+0265KMIC V0209999C000052200059N0032195N5-01225-01505999999ADDAU100007015AW1051GA1005+999999999GD10991+9999999GF100991999999999999999999MA1102135098975MW1055REMMET10201/16/17 08:06:02 SPECI KMIC 161406Z 00000KT 2SM HZ CLR M12/M15 A3016 RMK AO2 TWR VIS 3 T11221150 (FD)
0177726575949602017011614477+45062-093351FM-16+0265KMIC V0209999C000052200059N0040235N5-01205-01405999999ADDGA1005+999999999GD10991+9999999GF100991999999999999999999MA1102135098975REMMET09301/16/17 08:47:02 SPECI KMIC 161447Z 00000KT 2 1/2SM CLR M12/M14 A3016 RMK AO2 TWR VIS 7 (FD)
0163726575949602017011614487+45062-093351FM-16+0265KMIC V0209999C000052200059N0112655N5-01205-01405999999ADDGA1005+999999999GD10991+9999999GF100991999999999999999999MA1102135098975REMMET07901/16/17 08:48:02 SPECI KMIC 161448Z 00000KT 7SM CLR M12/M14 A3016 RMK AO2 (FD)
0226726575949602017011614537+45062-093351FM-15+0265KMIC V0209999C000052200059N0112655N5-01225-01395102305ADDAA101000095GA1005+999999999GD10991+9999999GF100991999999999999999999MA1102135098975MD1890039+9999WA1900099REMMET10801/16/17 08:53:02 METAR KMIC 161453Z 00000KT 7SM CLR M12/M14 A3016 RMK AO2 SLP230 I3000 T11221139 58003 (FD)
0206726575949602017011615537+45062-093351FM-15+0265KMIC V0209999C000052200059N0112655N5-00945-01115102275ADDAA101000095GA1005+999999999GD10991+9999999GF100991999999999999999999MA1102135098975WA1900099REMMET10201/16/17 09:53:02 METAR KMIC 161553Z 00000KT 7SM CLR M09/M11 A3016 RMK AO2 SLP227 I1000 T10941111 (FD)
0224726575949602017011616397+45062-093351FM-16+0265KMIC V0209999C00005003665MN0064375N5-00675-00945999999ADDAU100007015AW1051GA1075+003665999GD13991+0036659GE19MSL   +99999+99999GF199999999999003661999999MA1102135098975MW1055REMMET09501/16/17 10:39:02 SPECI KMIC 161639Z 00000KT 4SM HZ BKN012 M07/M09 A3016 RMK AO2 T10671094 (FD)
0242726575949602017011616537+45062-093351FM-15+0265KMIC V0209999C00005003665MN0096565N5-00565-00895102275ADDAA101000095AU100007015AW1051GA1085+003665999GD14991+0036659GE19MSL   +99999+99999GF199999999999003661999999MA1102135098975MW1055REMMET10201/16/17 10:53:02 METAR KMIC 161653Z 00000KT 6SM HZ OVC012 M06/M09 A3016 RMK AO2 SLP227 T10561089 (FD)
0224726575949602017011617247+45062-093351FM-16+0265KMIC V0200905N00155002445MN0096565N5-00395-00895999999ADDAU100007015AW1051GA1085+002445999GD14991+0024459GE19MSL   +99999+99999GF199999999999002441999999MA1102035098875MW1055REMMET09501/16/17 11:24:02 SPECI KMIC 161724Z 09003KT 6SM HZ OVC008 M04/M09 A3013 RMK AO2 T10391089 (FD)
0327726575949602017011617537+45062-093351FM-15+0265KMIC V0201205N00155003055MN0096565N5-00335-00895102165ADDAA101000095AU100007015AW1051GA1075+003055999GD13991+0030551GE19MSL   +99999+99999GF199999999999003051999999KA1060M-00331KA2060N-01331MA1102035098875MD1890109+9999MW1055WA1900099REMMET13801/16/17 11:53:02 METAR KMIC 161753Z 12003KT 6SM HZ BKN010 M03/M09 A3013 RMK AO2 CIG 008V012 SLP216 I6000 T10331089 11033 21133 58010 (FD)
0274726575949602017011618417+45062-093351FM-16+0265KMIC V0201105N00155002745MN0096565N5-00175-00785999999ADDAU100007015AW1051GA1075+002745999GA2085+009145999GD13991+0027451GD24991+0091459GE19MSL   +99999+99999GF199999999999002741999999MA1101935098775MW1055REMMET11401/16/17 12:41:02 SPECI KMIC 161841Z 11003KT 6SM HZ BKN009 OVC030 M02/M08 A3010 RMK AO2 CIG 006V012 T10171078 (FD)
0292726575949602017011618537+45062-093351FM-15+0265KMIC V0201005N00215002445MN0096565N5-00175-00675102035ADDAA101000095AU100007015AW1051GA1075+002445999GA2085+009145999GD13991+0024451GD24991+0091459GE19MSL   +99999+99999GF199999999999002441999999MA1101905098745MW1055REMMET12101/16/17 12:53:02 METAR KMIC 161853Z 10004KT 6SM HZ BKN008 OVC030 M02/M07 A3009 RMK AO2 CIG 006V011 SLP203 T10171067 (FD)
0242726575949602017011619537+45062-093351FM-15+0265KMIC V0200605N00155002445MN0080475N5-00065-00505101915ADDAA101000095AU100007015AW1051GA1085+002445999GD14991+0024459GE19MSL   +99999+99999GF199999999999002441999999MA1101795098645MW1055REMMET10201/16/17 13:53:02 METAR KMIC 161953Z 06003KT 5SM HZ OVC008 M01/M05 A3006 RMK AO2 SLP191 T10061050 (FD)
0261726575949602017011620267+45062-093351FM-16+0265KMIC V0200705N00215009455MN0096565N5+00005-00445999999ADDAU100007015AW1051GA1025+002745999GA2085+009455999GD11991+0027459GD24991+0094559GE19MSL   +99999+99999GF199999999999002741999999MA1101765098605MW1055REMMET10101/16/17 14:26:02 SPECI KMIC 162026Z 07004KT 6SM HZ FEW009 OVC031 00/M04 A3005 RMK AO2 T00001044 (FD)
0273726575949602017011620537+45062-093351FM-15+0265KMIC V0200405N00215009455MN0112655N5+00005-00445101895ADDAA101000095GA1025+005795999GA2085+009455999GD11991+0057959GD24991+0094559GE19MSL   +99999+99999GF199999999999005791999999MA1101765098605MD1690269+9999REMMET11101/16/17 14:53:02 METAR KMIC 162053Z 04004KT 7SM FEW019 OVC031 00/M04 A3005 RMK AO2 SLP189 T00001044 56026 (FD)
0253726575949602017011621537+45062-093351FM-15+0265KMIC V0200605N00265006105MN0144845N5+00005-00615101875ADDAA101000095GA1075+006105999GA2085+009755999GD13991+0061059GD24991+0097559GE19MSL   +99999+99999GF199999999999006101999999MA1101735098575REMMET10501/16/17 15:53:02 METAR KMIC 162153Z 06005KT 9SM BKN020 OVC032 00/M06 A3004 RMK AO2 SLP187 T00001061 (FD)
0226726575949602017011622487+45062-093351FM-16+0265KMIC V0200405N00315011285MN0160935N5+00005-00605999999ADDGA1045+007015999GA2085+011285999GD12991+0070159GD24991+0112859GE19MSL   +99999+99999GF199999999999007011999999MA1101695098545REMMET08901/16/17 16:48:02 SPECI KMIC 162248Z 04006KT 10SM SCT023 OVC037 00/M06 A3003 RMK AO2 (FD)
0254726575949602017011622537+45062-093351FM-15+0265KMIC V0200505N00215011285MN0160935N5+00005-00615101835ADDAA101000095GA1025+007015999GA2085+011285999GD11991+0070159GD24991+0112859GE19MSL   +99999+99999GF199999999999007011999999MA1101695098545REMMET10601/16/17 16:53:02 METAR KMIC 162253Z 05004KT 10SM FEW023 OVC037 00/M06 A3003 RMK AO2 SLP183 T00001061 (FD)
0351726575949602017011623537+45062-093351FM-15+0265KMIC V0200605N00155010675MN0160935N5-00065-00675101835ADDAA101000095GA1025+006105999GA2075+010675999GA3085+015245999GD11991+0061059GD23991+0106759GD34991+0152459GE19MSL   +99999+99999GF199999999999006101999999KA1060M+00061KA2060N-00171MA1101695098545MD1690049+9999REMMET13201/16/17 17:53:02 METAR KMIC 162353Z 06003KT 10SM FEW020 BKN035 OVC050 M01/M07 A3003 RMK AO2 SLP183 T10061067 10006 21017 56004 (FD)
0250726575949602017011700537+45062-093351FM-15+0265KMIC V0200305N00215012805MN0160935N5-00065-00725101795ADDAA101000095GA1075+012805999GA2085+015245999GD13991+0128059GD24991+0152459GE19MSL   +99999+99999GF199999999999012801999999MA1101665098515REMMET10201/16/17 18:53:01 METAR KMIC 170053Z 03004KT 10SM BKN042 OVC050 M01/M07 A3002 RMK AO2 SLP179 T10061072
0212726575949602017011701537+45062-093351FM-15+0265KMIC V0200205N00265013115MN0160935N5-00115-00725101735ADDAA101000095GA1085+013115999GD14991+0131159GE19MSL   +99999+99999GF199999999999013111999999MA1101595098445REMMET09501/16/17 19:53:01 METAR KMIC 170153Z 02005KT 10SM OVC043 M01/M07 A3000 RMK AO2 SLP173 T10111072
0269726575949602017011702147+45062-093351FM-16+0265KMIC V0200205N00215005795MN0144845N5-00115-00725999999ADDGA1045+003665999GA2075+005795999GA3085+013115999GD12991+0036659GD23991+0057959GD34991+0131159GE19MSL   +99999+99999GF199999999999003661999999MA1101565098415REMMET10101/16/17 20:14:01 SPECI KMIC 170214Z 02004KT 9SM SCT012 BKN019 OVC043 M01/M07 A2999 RMK AO2 T10111072
0193726575949602017011702317+45062-093351FM-16+0265KMIC V0200205N00265004275MN0128755N5-00115-00725999999ADDGA1085+004275999GD14991+0042759GE19MSL   +99999+99999GF199999999999004271999999MA1101565098415REMMET08701/16/17 20:31:01 SPECI KMIC 170231Z 02005KT 8SM OVC014 M01/M07 A2999 RMK AO2 T10111072
0236726575949602017011702537+45062-093351FM-15+0265KMIC V0200105N00215003665MN0128755N5-00115-00725101695ADDAA101000095GA1085+003665999GD14991+0036659GE19MSL   +99999+99999GF199999999999003661999999MA1101525098375MD1890149+9999REMMET10501/16/17 20:53:02 METAR KMIC 170253Z 01004KT 8SM OVC012 M01/M07 A2998 RMK AO2 SLP169 T10111072 58014 TSNO
0198726575949602017011703377+45062-093351FM-16+0265KMIC V0200105N00215004885MN0128755N5-00175-00725999999ADDGA1085+004885999GD14991+0048859GE19MSL   +99999+99999GF199999999999004881999999MA1101495098345REMMET09201/16/17 21:37:02 SPECI KMIC 170337Z 01004KT 8SM OVC016 M02/M07 A2997 RMK AO2 T10171072 TSNO
0254726575949602017011703537+45062-093351FM-15+0265KMIC V0203505N00315003665MN0128755N5-00175-00725101645ADDAA101000095GA1075+003665999GA2085+005795999GD13991+0036659GD24991+0057959GE19MSL   +99999+99999GF199999999999003661999999MA1101495098345REMMET10601/16/17 21:53:02 METAR KMIC 170353Z 35006KT 8SM BKN012 OVC019 M02/M07 A2997 RMK AO2 SLP164 T10171072 TSNO
0231726575949602017011704537+45062-093351FM-15+0265KMIC V0203605N00265004275MN0128755N5-00175-00675101605ADDAA101000025GA1085+004275999GD14991+0042759GE19MSL   +99999+99999GF199999999999004271999999MA1101495098345REMMET11401/16/17 22:53:02 METAR KMIC 170453Z 36005KT 8SM OVC014 M02/M07 A2997 RMK AO2 UPB27E48 SLP160 P0000 T10171067 TSNO
0287726575949602017011705447+45062-093351FM-16+0265KMIC V0200105N00215006405MN0096565N5-00175-00615999999ADDAA101000021AU120090015AW1401AW2415GA1045+003665999GA2085+006405999GD12991+0036659GD24991+0064059GE19MSL   +99999+99999GF199999999999003661999999MA1101465098315REMMET11601/16/17 23:44:02 SPECI KMIC 170544Z 01004KT 6SM UP SCT012 OVC021 M02/M06 A2996 RMK AO2 UPB0455 P0000 T10171061 TSNO
0483726575949602017011705537+45062-093351FM-15+0265KMIC V0203605N00215006715MN0096565N5-00175-00615101565ADDAA101000025AA206000021AU120090015AW1401AW2415GA1025+003665999GA2075+006715999GA3085+008235999GD11991+0036659GD23991+0067159GD34991+0082359GE19MSL   +99999+99999GF199999999999003661999999KA1060M-00061KA2060N-00171KA3240M+00061KA4240N-01331MA1101465098315MD1690089+9999WA1900099REMMET17601/16/17 23:53:02 METAR KMIC 170553Z 36004KT 6SM UP FEW012 BKN022 OVC027 M02/M06 A2996 RMK AO2 UPB0455 SLP156 P0000 60000 I1000 I6000 T10171061 11006 21017 400061133 56008 TSNOEQDQ01  00008PRCP06
0935726575949602017011705596+45062-093351SOD  +0265KMIC V020999999999999999999999999999+99999+99999999999ADDAA124000026AT1AU13BR  5AT2AU19UP  5AT3AU08HZ  5KA1240M+00065KA2240N-01325MG1098664101564OE11240044734022105OE22240035835022295OE33240014899999995REMSOD72724 HR PRECIPITATION (IN):T     24 HR MAX TEMP (F):33 24 HR MAX TEMP TIME (LST):1536 24 HR MIN TEMP (F):8  24 HR MIN TEMP TIME (LST):0828 AVERAGE STATION PRESSURE:29.135 MINIMUM SEA LEVEL PRESSURE:29.99 TIME OF OCCURRENCE:2359 PEAK WIND SPEED (MPH):10  PEAK WIND DIR (DEG):340 PEAK WIND TIME (LST):2210  FASTEST 2MIN SPEED (MPH):8  FASTEST 2MIN DIR (DEG):350 FASTEST 2MIN TIME (LST):2229 AVERAGE WIND SPEED (MPH):3.3  24 HR AVG TEMP (F):21 HEATING DEGREE DAYS:44  COOLING DEGREE DAYS:0   LATEST DAY MAX TEMP (0700-1900 LST):33  LATEST NIGHT MIN TEMP(1900-0800 LST):8  HOURLY INCREMENTAL PRECIPITATION VALUES (IN):.00 0.00 0.00 0.00 0.00 0.00 0.00 0.00 0.00 0.00 0.00 0.00 0.00 0.00 0.00 0.00 0.00 0.00 0.00 0.00 0.00 0.00 T    TEQDR01     T7AAP092R02     N7GJS072R03     N7GKS075
0266726575949602017011706077+45062-093351FM-16+0265KMIC V0203505N00265007325MN0080475N5-00115-00565999999ADDAA101000021AU118020015AW1645GA1085+007325999GD14991+0073259GE19MSL   +99999+99999GF199999999999007321999999MA1101465098315WA1900099REMMET12301/17/17 00:07:02 SPECI KMIC 170607Z 35005KT 5SM -FZRA OVC024 M01/M06 A2996 RMK AO2 UPE01FZRAB01 P0000 I1000 T10111056 TSNO
0303726575949602017011706487+45062-093351FM-16+0265KMIC V0203605N00265006715MN0080475N5-00205-00505999999ADDAA101000531AU120090015AW1401AW2415GA1025+005185999GA2085+006715999GD11991+0051859GD24991+0067159GE19MSL   +99999+99999GF199999999999005181999999MA1101425098275WA1900199REMMET12301/17/17 00:48:02 SPECI KMIC 170648Z 36005KT 5SM UP FEW017 OVC022 M02/M05 A2995 RMK AO2 UPE01B42FZRAB01E42 P0002 I1001 TSNO
0243726575949602017011706516+45062-093351FM-16+0265KMIC V0203605N00215006715MN0080475N5-00205-00505999999ADDAU118020015AW1645GA1025+005185999GA2085+006715999GD11991+0051859GD24991+0067159MA1101425098275REMMET13701/17/17 00:51:02 SPECI KMIC 170651Z 36004KT 5SM -FZRA FEW017 OVC022 M02/M05 A2995 RMK AO2 UPE01B42E49FZRAB01E42B49 P0002 I1001 TSNO FIBI
0285726575949602017011706537+45062-093351FM-15+0265KMIC V0200105N00265006715MN0080475N5-00175-00505101535ADDAA101000595AU118020015AW1645GA1085+006715999GD14991+0067159GE19MSL   +99999+99999GF199999999999006711999999MA1101425098275WA1900199REMMET14201/17/17 00:53:02 METAR KMIC 170653Z 01005KT 5SM -FZRA OVC022 M02/M05 A2995 RMK AO2 UPE01B42E49FZRAB01E42B49 SLP153 P0002 I1001 T10171050 TSNO
0345726575949602017011707147+45062-093351FM-16+0265KMIC V0203605N00265006715MN0096565N5-00115-00505999999ADDAA101000021AU120090015AW1401AW2415GA1025+004575999GA2075+006715999GA3085+008235999GD11991+0045759GD23991+0067159GD34991+0082359GE19MSL   +99999+99999GF199999999999004571999999MA1101425098275WA1900099REMMET13401/17/17 01:14:02 SPECI KMIC 170714Z 36005KT 6SM UP FEW015 BKN022 OVC027 M01/M05 A2995 RMK AO2 UPB08FZRAE08 P0000 I1000 T10111050 TSNO
0279726575949602017011707537+45062-093351FM-15+0265KMIC V0203405N00365004885MN0080475N5-00175-00505101515ADDAA101000395AU110030015AW1715GA1085+004885999GD14991+0048859GE19MSL   +99999+99999GF199999999999004881999999MA1101395098245WA1900099REMMET13601/17/17 01:53:02 METAR KMIC 170753Z 34007KT 5SM -SN OVC016 M02/M05 A2994 RMK AO2 UPB08E28FZRAE08SNB28 SLP151 P0001 I1000 T10171050 TSNO
0274726575949602017011708037+45062-093351FM-16+0265KMIC V0203405N00265004275MN0064375N5-00175-00505999999ADDAA101000021AU110030015AW1715GA1075+004275999GA2085+005795999GD13991+0042759GD24991+0057959GE19MSL   +99999+99999GF199999999999004271999999MA1101395098245REMMET10901/17/17 02:03:02 SPECI KMIC 170803Z 34005KT 4SM -SN BKN014 OVC019 M02/M05 A2994 RMK AO2 P0000 T10171050 TSNO
0210726575949602017011708516+45062-093351FM-16+0265KMIC V0203305N00265007325MN0064375N5-00205-00505999999ADDAU110030015AW1715GA1045+003355999GA2085+007325999GD12991+0033559GD24991+0073259MA1101395098245REMMET10401/17/17 02:51:02 SPECI KMIC 170851Z 33005KT 4SM -SN SCT011 OVC024 M02/M05 A2994 RMK AO2 P0001 TSNO FIBI
0352726575949602017011708537+45062-093351FM-15+0265KMIC V0203305N00265007325MN0064375N5-00175-00505101505ADDAA101000395AA203001091AU110030015AW1715GA1045+003355999GA2085+007325999GD12991+0033559GD24991+0073259GE19MSL   +99999+99999GF199999999999003351999999MA1101395098245MD1690029+9999WA1900199REMMET13401/17/17 02:53:02 METAR KMIC 170853Z 33005KT 4SM -SN SCT011 OVC024 M02/M05 A2994 RMK AO2 SLP150 P0001 60004 I3001 T10171050 56002 TSNOEQDQ01  00108PRCP03
0332726575949602017011709217+45062-093351FM-16+0265KMIC V0203405N00265010065MN0080475N5-00175-00445999999ADDAA101000021AU120090015AW1401AW2415GA1025+005185999GA2025+007325999GA3085+010065999GD11991+0051859GD21991+0073259GD34991+0100659GE19MSL   +99999+99999GF199999999999005181999999MA1101395098245REMMET13001/17/17 03:21:02 SPECI KMIC 170921Z 34005KT 5SM UP FEW017 FEW024 OVC033 M02/M04 A2994 RMK AO2 UPB0859SNE0859 P0000 T10171044 TSNO
0263726575949602017011709537+45062-093351FM-15+0265KMIC V0203405N00265011895MN0112655N5-00115-00445101505ADDAA101000025AU120090015AW1401AW2415GA1085+011895999GD14991+0118959GE19MSL   +99999+99999GF199999999999011891999999MA1101395098245REMMET12301/17/17 03:53:02 METAR KMIC 170953Z 34005KT 7SM UP OVC039 M01/M04 A2994 RMK AO2 UPB0859SNE0859 SLP150 P0000 T10111044 TSNO
0297726575949602017011710537+45062-093351FM-15+0265KMIC V0203505N00265014335MN0080475N5-00115-00335101445ADDAA101000595AU120090015AU200001015AW1105AW2401AW3415GA1085+014335999GD14991+0143359GE19MSL   +99999+99999GF199999999999014331999999MA1101325098185REMMET14001/17/17 04:53:02 METAR KMIC 171053Z 35005KT 5SM UP BR OVC047 M01/M03 A2992 RMK AO2 UPE04B25E33B50SNB04E25B33E50 SLP144 P0002 T10111033 TSNO
0395726575949602017011711537+45062-093351FM-15+0265KMIC V0203405N00265021345MN0112655N5-00065-00335101465ADDAA101000025AA206001591AA324001591GA1045+003665999GA2085+021345999GD12991+0036659GD24991+0213459GE19MSL   +99999+99999GF199999999999003661999999KA1060M-00061MA1101355098215MD1590039+9999WA1900199REMMET15401/17/17 05:53:02 METAR KMIC 171153Z 34005KT 7SM SCT012 OVC070 M01/M03 A2993 RMK AO2 UPE22 SLP146 P0000 60006 70006 I6001 T10061033 11006 21017 55003 TSNOEQDQ01  00158PRCP06Q02  00158PRCP24
0236726575949602017011712167+45062-093351FM-16+0265KMIC V0203305N00365004275MN0112655N5-00065-00335999999ADDGA1075+004275999GA2085+021345999GD13991+0042759GD24991+0213459GE19MSL   +99999+99999GF199999999999004271999999MA1101395098245REMMET09901/17/17 06:16:02 SPECI KMIC 171216Z 33007KT 7SM BKN014 OVC070 M01/M03 A2994 RMK AO2 T10061033 TSNO
0216726575949602017011712537+45062-093351FM-15+0265KMIC V0203305N00315004275MN0128755N5-00065-00445101495ADDAA101000095GA1085+004275999GD14991+0042759GE19MSL   +99999+99999GF199999999999004271999999MA1101395098245REMMET09901/17/17 06:53:02 METAR KMIC 171253Z 33006KT 8SM OVC014 M01/M04 A2994 RMK AO2 SLP149 T10061044 (FD)
0198726575949602017011713047+45062-093351FM-16+0265KMIC V0203305N00265004885MN0128755N5-00065-00445999999ADDGA1085+004885999GD14991+0048859GE19MSL   +99999+99999GF199999999999004881999999MA1101395098245REMMET09201/17/17 07:04:02 SPECI KMIC 171304Z 33005KT 8SM OVC016 M01/M04 A2994 RMK AO2 T10061044 (FD)
0254726575949602017011713537+45062-093351FM-15+0265KMIC V0203205N00315005185MN0144845N5-00115-00505101535ADDAA101000095GA1075+005185999GA2085+014025999GD13991+0051859GD24991+0140259GE19MSL   +99999+99999GF199999999999005181999999MA1101425098275REMMET10601/17/17 07:53:02 METAR KMIC 171353Z 32006KT 9SM BKN017 OVC046 M01/M05 A2995 RMK AO2 SLP153 T10111050 (FD)
0262726575949602017011714537+45062-093351FM-15+0265KMIC V0203305N00415005795MN0096565N5-00225-00675101605ADDAA101000095AU100007015AW1051GA1085+005795999GD14991+0057959GE19MSL   +99999+99999GF199999999999005791999999MA1101495098345MD1390139+9999MW1055REMMET10801/17/17 08:53:02 METAR KMIC 171453Z 33008KT 6SM HZ OVC019 M02/M07 A2997 RMK AO2 SLP160 T10221067 53013 (FD)
0242726575949602017011715537+45062-093351FM-15+0265KMIC V0203405N00365006105MN0096565N5-00225-00615101645ADDAA101000095AU100007015AW1051GA1085+006105999GD14991+0061059GE19MSL   +99999+99999GF199999999999006101999999MA1101525098375MW1055REMMET10201/17/17 09:53:02 METAR KMIC 171553Z 34007KT 6SM HZ OVC020 M02/M06 A2998 RMK AO2 SLP164 T10221061 (FD)
0145726575949602017011716516+45062-093351FM-16+0265KMIC V0203405N003152200059N0128755N5-00105-00605999999ADDGA1045+006105999GD12991+0061059MA1101495098345REMMET08701/17/17 10:51:02 SPECI KMIC 171651Z 34006KT 8SM SCT020 M01/M06 A2997 RMK AO2 FIBI (FD)
0216726575949602017011716537+45062-093351FM-15+0265KMIC V0203405N002652200059N0128755N5-00065-00565101615ADDAA101000095GA1045+006105999GD12991+0061059GE19MSL   +99999+99999GF199999999999006101999999MA1101495098345REMMET09901/17/17 10:53:02 METAR KMIC 171653Z 34005KT 8SM SCT020 M01/M06 A2997 RMK AO2 SLP161 T10061056 (FD)
0197726575949602017011717177+45062-093351FM-16+0265KMIC V0203405N002152200059N0128755N5+00065-00505999999ADDGA1045+002745999GD12991+0027459GE19MSL   +99999+99999GF199999999999002741999999MA1101495098345REMMET09101/17/17 11:17:02 SPECI KMIC 171717Z 34004KT 8SM SCT009 01/M05 A2997 RMK AO2 T00061050 (FD)
0197726575949602017011717257+45062-093351FM-16+0265KMIC V0203205N00315003055MN0128755N5+00005-00445999999ADDGA1075+003055999GD13991+0030559GE19MSL   +99999+99999GF199999999999003051999999MA1101495098345REMMET09101/17/17 11:25:02 SPECI KMIC 171725Z 32006KT 8SM BKN010 00/M04 A2997 RMK AO2 T00001044 (FD)
0273726575949602017011717537+45062-093351FM-15+0265KMIC V0203205N00365003055MN0128755N5+00065-00445101595ADDAA101000095GA1085+003055999GD14991+0030559GE19MSL   +99999+99999GF199999999999003051999999KA1060M+00061KA2060N-00221MA1101495098345MD1890019+9999REMMET11601/17/17 11:53:02 METAR KMIC 171753Z 32007KT 8SM OVC010 01/M04 A2997 RMK AO2 SLP159 T00061044 10006 21022 58001 (FD)
0241726575949602017011718537+45062-093351FM-15+0265KMIC V0203105N00365003355MN0096565N5+00115-00335101555ADDAA101000095AU100007015AW1051GA1085+003355999GD14991+0033559GE19MSL   +99999+99999GF199999999999003351999999MA1101465098315MW1055REMMET10101/17/17 12:53:02 METAR KMIC 171853Z 31007KT 6SM HZ OVC011 01/M03 A2996 RMK AO2 SLP155 T00111033 (FD)
0215726575949602017011719537+45062-093351FM-15+0265KMIC V0202805N00365003055MN0128755N5+00115-00225101565ADDAA101000095GA1085+003055999GD14991+0030559GE19MSL   +99999+99999GF199999999999003051999999MA1101465098315REMMET09801/17/17 13:53:02 METAR KMIC 171953Z 28007KT 8SM OVC010 01/M02 A2996 RMK AO2 SLP156 T00111022 (FD)
0223726575949602017011720187+45062-093351FM-16+0265KMIC V0203005N00215002745MN0096565N5+00115-00175999999ADDAU100007015AW1051GA1085+002745999GD14991+0027459GE19MSL   +99999+99999GF199999999999002741999999MA1101465098315MW1055REMMET09401/17/17 14:18:02 SPECI KMIC 172018Z 30004KT 6SM HZ OVC009 01/M02 A2996 RMK AO2 T00111017 (FD)
0235726575949602017011720537+45062-093351FM-15+0265KMIC V0203005N00315002745MN0144845N5+00115-00175101595ADDAA101000095GA1085+002745999GD14991+0027459GE19MSL   +99999+99999GF199999999999002741999999MA1101495098345MD1390009+9999REMMET10401/17/17 14:53:02 METAR KMIC 172053Z 30006KT 9SM OVC009 01/M02 A2997 RMK AO2 SLP159 T00111017 53000 (FD)
0216726575949602017011721537+45062-093351FM-15+0265KMIC V0202905N00265002445MN0160935N5+00115-00175101605ADDAA101000095GA1085+002445999GD14991+0024459GE19MSL   +99999+99999GF199999999999002441999999MA1101495098345REMMET09901/17/17 15:53:02 METAR KMIC 172153Z 29005KT 10SM OVC008 01/M02 A2997 RMK AO2 SLP160 T00111017 (FD)
0216726575949602017011722537+45062-093351FM-15+0265KMIC V0202605N00215002135MN0160935N5+00065-00175101625ADDAA101000095GA1085+002135999GD14991+0021359GE19MSL   +99999+99999GF199999999999002131999999MA1101525098375REMMET09901/17/17 16:53:02 METAR KMIC 172253Z 26004KT 10SM OVC007 01/M02 A2998 RMK AO2 SLP162 T00061017 (FD)
0274726575949602017011723537+45062-093351FM-15+0265KMIC V0202405N00315001835MN0160935N5+00065-00175101625ADDAA101000095GA1085+001835999GD14991+0018359GE19MSL   +99999+99999GF199999999999001831999999KA1060M+00171KA2060N+00001MA1101525098375MD1090039+9999REMMET11701/17/17 17:53:02 METAR KMIC 172353Z 24006KT 10SM OVC006 01/M02 A2998 RMK AO2 SLP162 T00061017 10017 20000 50003 (FD)
0210726575949602017011800537+45062-093351FM-15+0265KMIC V0202605N00365002135MN0144845N5+00005-00225101625ADDAA101000095GA1085+002135999GD14991+0021359GE19MSL   +99999+99999GF199999999999002131999999MA1101525098375REMMET09301/17/17 18:53:01 METAR KMIC 180053Z 26007KT 9SM OVC007 00/M02 A2998 RMK AO2 SLP162 T00001022
0211726575949602017011801537+45062-093351FM-15+0265KMIC V0202205N00365001835MN0160935N5+00005-00285101615ADDAA101000095GA1085+001835999GD14991+0018359GE19MSL   +99999+99999GF199999999999001831999999MA1101525098375REMMET09401/17/17 19:53:01 METAR KMIC 180153Z 22007KT 10SM OVC006 00/M03 A2998 RMK AO2 SLP161 T00001028
0213726575949602017011802217+45062-093351FM-16+0265KMIC V0202305N002652200059N0160935N5-00065-00335999999ADDGA1045+002745999GD12991+0027459GE19AGL   +99999+99999GF104995999999002741999999MA1101525098375REMMET08801/17/17 20:21:01 SPECI KMIC 180221Z 23005KT 10SM SCT009 M01/M03 A2998 RMK AO2 T10061033EQDD01      0ADE726
0250726575949602017011802537+45062-093351FM-15+0265KMIC V0202305N002652200059N0128755N5-00115-00395101635ADDAA101000095GA1025+003055999GD11991+0030559GE19AGL   +99999+99999GF102995999999003051999999MA1101525098375MD1390019+9999REMMET10001/17/17 20:53:02 METAR KMIC 180253Z 23005KT 8SM FEW010 M01/M04 A2998 RMK AO2 SLP163 T10111039 53001EQDD01      0ADE726
0212726575949602017011803077+45062-093351FM-16+0265KMIC V0202205N004652200059N0112655N5-00175-00445999999ADDGA1025+002745999GD11991+0027459GE19AGL   +99999+99999GF102995999999002741999999MA1101525098375REMMET08701/17/17 21:07:02 SPECI KMIC 180307Z 22009KT 7SM FEW009 M02/M04 A2998 RMK AO2 T10171044EQDD01      0ADE726
0219726575949602017011803267+45062-093351FM-16+0265KMIC V0202205N00465002745MN0096565N5-00225-00505999999ADDAU100007015AW1051GA1075+002745999GD13991+0027459GE19MSL   +99999+99999GF199999999999002741999999MA1101525098375MW1055REMMET09001/17/17 21:26:02 SPECI KMIC 180326Z 22009KT 6SM HZ BKN009 M02/M05 A2998 RMK AO2 T10221050
0231726575949602017011803537+45062-093351FM-15+0265KMIC V0202205N00265002135MN0096565N5-00225-00445101645ADDAA101000095AU100001015AW1105GA1085+002135999GD14991+0021359GE19MSL   +99999+99999GF199999999999002131999999MA1101525098375REMMET09701/17/17 21:53:02 METAR KMIC 180353Z 22005KT 6SM BR OVC007 M02/M04 A2998 RMK AO2 SLP164 T10221044
0231726575949602017011804537+45062-093351FM-15+0265KMIC V0202005N00415001835MN0096565N5-00175-00395101615ADDAA101000095AU100001015AW1105GA1085+001835999GD14991+0018359GE19MSL   +99999+99999GF199999999999001831999999MA1101495098345REMMET09701/17/17 22:53:02 METAR KMIC 180453Z 20008KT 6SM BR OVC006 M02/M04 A2997 RMK AO2 SLP161 T10171039
0331726575949602017011805537+45062-093351FM-15+0265KMIC V0201905N00315001835MN0096565N5-00115-00395101555ADDAA101000095AU100007015AW1051GA1085+001835999GD14991+0018359GE19MSL   +99999+99999GF199999999999001831999999KA1060M+00061KA2060N-00221KA3240M+00171KA4240N-00221MA1101465098315MD1890079+9999MW1055REMMET12501/17/17 23:53:02 METAR KMIC 180553Z 19006KT 6SM HZ OVC006 M01/M04 A2996 RMK AO2 SLP155 T10111039 10006 21022 400171022 58007
0946726575949602017011805596+45062-093351SOD  +0265KMIC V020999999999999999999999999999+99999+99999999999ADDAA124001595AT1AU17FZRA5AT2AU18SN  5AT3AU13BR  5AT4AU19UP  5AT5AU08HZ  5KA1240M+00175KA2240N-00215MG1098294101424OE11240071522019595OE22240058123020015OE33240030899999995REMSOD73024 HR PRECIPITATION (IN):0.06  24 HR MAX TEMP (F):35 24 HR MAX TEMP TIME (LST):1531 24 HR MIN TEMP (F):28 24 HR MIN TEMP TIME (LST):2247 AVERAGE STATION PRESSURE:29.025 MINIMUM SEA LEVEL PRESSURE:29.95 TIME OF OCCURRENCE:0454 PEAK WIND SPEED (MPH):16  PEAK WIND DIR (DEG):220 PEAK WIND TIME (LST):1959  FASTEST 2MIN SPEED (MPH):13 FASTEST 2MIN DIR (DEG):230 FASTEST 2MIN TIME (LST):2001 AVERAGE WIND SPEED (MPH):6.9  24 HR AVG TEMP (F):32 HEATING DEGREE DAYS:33  COOLING DEGREE DAYS:0   LATEST DAY MAX TEMP (0700-1900 LST):35  LATEST NIGHT MIN TEMP(1900-0800 LST):29 HOURLY INCREMENTAL PRECIPITATION VALUES (IN):.02 0.01 0.01 T    0.02 T    0.00 0.00 0.00 0.00 0.00 0.00 0.00 0.00 0.00 0.00 0.00 0.00 0.00 0.00 0.00 0.00 0.00 0.00EQDR01     N7GJS072R02     N7GKS075
0237726575949602017011806537+45062-093351FM-15+0265KMIC V0201905N00515002135MN0096565N5-00115-00395101535ADDAA101000095AU100007015AW1051GA1085+002135999GD14991+0021359GE19MSL   +99999+99999GF199999999999002131999999MA1101425098275MW1055REMMET09701/18/17 00:53:02 METAR KMIC 180653Z 19010KT 6SM HZ OVC007 M01/M04 A2995 RMK AO2 SLP153 T10111039
0250726575949602017011807537+45062-093351FM-15+0265KMIC V0201805N003152200059N0096565N5-00225-00445101495ADDAA101000095AU100001015AW1105GA1025+002445999GD11991+0024459GE19AGL   +99999+99999GF102995999999002441999999MA1101395098245REMMET09701/18/17 01:53:02 METAR KMIC 180753Z 18006KT 6SM BR FEW008 M02/M04 A2994 RMK AO2 SLP149 T10221044EQDD01      0ADE726
0180726575949602017011808536+45062-093351FM-15+0265KMIC V0201805N004652200059N0112655N5-00225-00565101495ADDAA101000095GA1005+999999999GD10991+9999999MA1101395098245MD1590069+9999REMMET09701/18/17 02:53:02 METAR KMIC 180853Z 18009KT 7SM CLR M02/M06 A2994 RMK AO2 SLP149 T10221056 55006
0186726575949602017011809537+45062-093351FM-15+0265KMIC V0201905N004152200059N0128755N5-00285-00565101445ADDAA101000095GA1005+999999999GD10991+9999999GF100991999999999999999999MA1101355098215REMMET09101/18/17 03:53:02 METAR KMIC 180953Z 19008KT 8SM CLR M03/M06 A2993 RMK AO2 SLP144 T10281056
0212726575949602017011810537+45062-093351FM-15+0265KMIC V0201805N006252200059N0096565N5-00225-00565101415ADDAA101000095AU100007015AW1051GA1005+999999999GD10991+9999999GF100991999999999999999999MA1101325098185MW1055REMMET09401/18/17 04:53:02 METAR KMIC 181053Z 18012KT 6SM HZ CLR M02/M06 A2992 RMK AO2 SLP141 T10221056
0281726575949602017011811537+45062-093351FM-15+0265KMIC V0201905N005752200059N0080475N5-00225-00565101385ADDAA101000095AU100007015AW1051GA1005+999999999GD10991+9999999GF100991999999999999999999KA1060M-00111KA2060N-00281MA1101295098145MD1690109+9999MW1055OC100935REMMET11501/18/17 05:53:02 METAR KMIC 181153Z 19011G18KT 5SM HZ CLR M02/M06 A2991 RMK AO2 SLP138 T10221056 11011 21028 56010
0186726575949602017011812537+45062-093351FM-15+0265KMIC V0201905N004152200059N0112655N5-00175-00505101375ADDAA101000095GA1005+999999999GD10991+9999999GF100991999999999999999999MA1101255098115REMMET09101/18/17 06:53:02 METAR KMIC 181253Z 19008KT 7SM CLR M02/M05 A2990 RMK AO2 SLP137 T10171050
0186726575949602017011813537+45062-093351FM-15+0265KMIC V0201805N005752200059N0112655N5-00175-00445101265ADDAA101000095GA1005+999999999GD10991+9999999GF100991999999999999999999MA1101155098015REMMET09101/18/17 07:53:02 METAR KMIC 181353Z 18011KT 7SM CLR M02/M04 A2987 RMK AO2 SLP126 T10171044
0206726575949602017011814537+45062-093351FM-15+0265KMIC V0202005N003152200059N0112655N5-00115-00445101355ADDAA101000095GA1005+999999999GD10991+9999999GF100991999999999999999999MA1101255098115MD1590049+9999REMMET09701/18/17 08:53:02 METAR KMIC 181453Z 20006KT 7SM CLR M01/M04 A2990 RMK AO2 SLP135 T10111044 55004
0185726575949602017011815537+45062-093351FM-15+0265KMIC V0202005N004652200059N0144845N5+00065-00395101295ADDAA101000095GA1005+999999999GD10991+9999999GF100991999999999999999999MA1101195098045REMMET09001/18/17 09:53:02 METAR KMIC 181553Z 20009KT 9SM CLR 01/M04 A2988 RMK AO2 SLP129 T00061039
0186726575949602017011816537+45062-093351FM-15+0265KMIC V0202005N005152200059N0160935N5+00225-00285101275ADDAA101000095GA1005+999999999GD10991+9999999GF100991999999999999999999MA1101195098045REMMET09101/18/17 10:53:02 METAR KMIC 181653Z 20010KT 10SM CLR 02/M03 A2988 RMK AO2 SLP127 T00221028
0244726575949602017011817537+45062-093351FM-15+0265KMIC V0202005N004652200059N0160935N5+00285-00285101205ADDAA101000095GA1005+999999999GD10991+9999999GF100991999999999999999999KA1060M+00281KA2060N-00221MA1101125097985MD1890129+9999REMMET10901/18/17 11:53:02 METAR KMIC 181753Z 20009KT 10SM CLR 03/M03 A2986 RMK AO2 SLP120 T00281028 10028 21022 58012
0160726575949602017011818536+45062-093351FM-15+0265KMIC V0201905N004652200059N0160935N5+00395-00285101175ADDAA101000095GA1005+999999999GD10991+9999999MA1101085097945REMMET09101/18/17 12:53:02 METAR KMIC 181853Z 19009KT 10SM CLR 04/M03 A2985 RMK AO2 SLP117 T00391028
0186726575949602017011819537+45062-093351FM-15+0265KMIC V0201905N005752200059N0160935N5+00395-00225101155ADDAA101000095GA1005+999999999GD10991+9999999GF100991999999999999999999MA1101055097915REMMET09101/18/17 13:53:02 METAR KMIC 181953Z 19011KT 10SM CLR 04/M02 A2984 RMK AO2 SLP115 T00391022
0211726575949602017011820537+45062-093351FM-15+0265KMIC V0201805N004152200059N0160935N5+00445-00175101125ADDAA101000095GA1005+999999999GD10991+9999999GF100991999999999999999999MA1101055097915MD1690089+9999REMMET10201/18/17 14:53:02 METAR KMIC 182053Z 18008KT 10SM CLR 04/M02 A2984 RMK AO2 SLP112 T00441017 56008 (FD)
0191726575949602017011821537+45062-093351FM-15+0265KMIC V0201705N004152200059N0160935N5+00445-00175101145ADDAA101000095GA1005+999999999GD10991+9999999GF100991999999999999999999MA1101055097915REMMET09601/18/17 15:53:02 METAR KMIC 182153Z 17008KT 10SM CLR 04/M02 A2984 RMK AO2 SLP114 T00441017 (FD)
0191726575949602017011822537+45062-093351FM-15+0265KMIC V0201805N003152200059N0160935N5+00335-00175101145ADDAA101000095GA1005+999999999GD10991+9999999GF100991999999999999999999MA1101055097915REMMET09601/18/17 16:53:02 METAR KMIC 182253Z 18006KT 10SM CLR 03/M02 A2984 RMK AO2 SLP114 T00331017 (FD)
0249726575949602017011823537+45062-093351FM-15+0265KMIC V0201705N002152200059N0160935N5+00285-00175101155ADDAA101000095GA1005+999999999GD10991+9999999GF100991999999999999999999KA1060M+00441KA2060N+00281MA1101055097915MD1190029+9999REMMET11401/18/17 17:53:02 METAR KMIC 182353Z 17004KT 10SM CLR 03/M02 A2984 RMK AO2 SLP115 T00281017 10044 20028 51002 (FD)
0186726575949602017011900537+45062-093351FM-15+0265KMIC V0201605N002152200059N0160935N5+00115-00175101165ADDAA101000095GA1005+999999999GD10991+9999999GF100991999999999999999999MA1101055097915REMMET09101/18/17 18:53:01 METAR KMIC 190053Z 16004KT 10SM CLR 01/M02 A2984 RMK AO2 SLP116 T00111017
0185726575949602017011901537+45062-093351FM-15+0265KMIC V0201405N002152200059N0128755N5+00115-00175101125ADDAA101000095GA1005+999999999GD10991+9999999GF100991999999999999999999MA1101025097885REMMET09001/18/17 19:53:01 METAR KMIC 190153Z 14004KT 8SM CLR 01/M02 A2983 RMK AO2 SLP112 T00111017
0230726575949602017011902537+45062-093351FM-15+0265KMIC V0201405N002152200059N0096565N5+00115-00115101105ADDAA101000095AU100001015AW1105GA1005+999999999GD10991+9999999GF100991999999999999999999MA1101025097885MD1890059+9999REMMET10401/18/17 20:53:02 METAR KMIC 190253Z 14004KT 6SM BR CLR 01/M01 A2983 RMK AO2 SLP110 T00111011 58005 TSNO
0197726575949602017011903447+45062-093351FM-16+0265KMIC V0209999C000052200059N0028165N5-00175-00285999999ADDAU100001015AW1105GA1005+999999999GD10991+9999999GF100991999999999999999999MA1100985097855REMMET09601/18/17 21:44:02 SPECI KMIC 190344Z 00000KT 1 3/4SM BR CLR M02/M03 A2982 RMK AO2 T10171028 TSNO
0172726575949602017011903516+45062-093351FM-16+0265KMIC V0209999C000052200059N0008055N5-00205-00305999999ADDAU108002015AW1355GA1005+999999999GD10991+9999999MA1100985097855REMMET09701/18/17 21:51:03 SPECI KMIC 190351Z 00000KT 1/2SM FZFG CLR M02/M03 A2982 RMK AO2 I1000 TSNO FIBI
0230726575949602017011903537+45062-093351FM-15+0265KMIC V0209999C000052200059N0008055N5-00115-00335101085ADDAA101000095AU108002015AW1355GA1005+999999999GD10991+9999999GF100991999999999999999999MA1100985097855WA1900099REMMET10901/18/17 21:53:02 METAR KMIC 190353Z 00000KT 1/2SM FZFG CLR M01/M03 A2982 RMK AO2 SLP108 I1000 T10111033 TSNO
0230726575949602017011904537+45062-093351FM-15+0265KMIC V0209999C000052200059N0004025N5-00225-00395101095ADDAA101000095AU108002015AW1355GA1005+999999999GD10991+9999999GF100991999999999999999999MA1100985097855WA1900199REMMET10901/18/17 22:53:02 METAR KMIC 190453Z 00000KT 1/4SM FZFG CLR M02/M04 A2982 RMK AO2 SLP109 I1001 T10221039 TSNO
0198726575949602017011905497+45062-093351FM-16+0265KMIC V0201505N002652200059N0032195N5-00305-00405999999ADDAU100001015AW1105GA1005+999999999GD10991+9999999GF100991999999999999999999MA1100955097815WA1900099REMMET08801/18/17 23:49:02 SPECI KMIC 190549Z 15005KT 2SM BR CLR M03/M04 A2981 RMK AO2 I1000 TSNO
0326726575949602017011905537+45062-093351FM-15+0265KMIC V0201505N002652200059N0048285N5-00225-00335101035ADDAA101000095AU100001015AW1105GA1005+999999999GD10991+9999999GF100991999999999999999999KA1060M+00281KA2060N-00331KA3240M+00441KA4240N-00331MA1100955097815MD1890069+9999WA1900199REMMET13901/18/17 23:53:02 METAR KMIC 190553Z 15005KT 3SM BR CLR M02/M03 A2981 RMK AO2 SLP103 I1000 I6001 T10221033 10028 21033 400441033 58006 TSNO
0934726575949602017011905596+45062-093351SOD  +0265KMIC V020999999999999999999999999999+99999+99999999999ADDAA124000095AT1AU22FZFG5AT2AU13BR  5AT3AU08HZ  5AT4AW01FG  5KA1240M+00445KA2240N-00325MG1097954101024OE11240093919005445OE22240067119006125OE33240036299999995REMSOD73024 HR PRECIPITATION (IN):0.00  24 HR MAX TEMP (F):40 24 HR MAX TEMP TIME (LST):1602 24 HR MIN TEMP (F):26 24 HR MIN TEMP TIME (LST):2341 AVERAGE STATION PRESSURE:28.925 MINIMUM SEA LEVEL PRESSURE:29.83 TIME OF OCCURRENCE:2359 PEAK WIND SPEED (MPH):21  PEAK WIND DIR (DEG):190 PEAK WIND TIME (LST):0544  FASTEST 2MIN SPEED (MPH):15 FASTEST 2MIN DIR (DEG):190 FASTEST 2MIN TIME (LST):0612 AVERAGE WIND SPEED (MPH):8.1  24 HR AVG TEMP (F):33 HEATING DEGREE DAYS:32  COOLING DEGREE DAYS:0   LATEST DAY MAX TEMP (0700-1900 LST):40  LATEST NIGHT MIN TEMP(1900-0800 LST):27 HOURLY INCREMENTAL PRECIPITATION VALUES (IN):.00 0.00 0.00 0.00 0.00 0.00 0.00 0.00 0.00 0.00 0.00 0.00 0.00 0.00 0.00 0.00 0.00 0.00 0.00 0.00 0.00 0.00 0.00 0.00EQDR01     N7GJS072R02     N7GKS075
0197726575949602017011906027+45062-093351FM-16+0265KMIC V0201605N002152200059N0028165N5-00175-00335999999ADDAU100001015AW1105GA1005+999999999GD10991+9999999GF100991999999999999999999MA1100955097815REMMET09601/19/17 00:02:02 SPECI KMIC 190602Z 16004KT 1 3/4SM BR CLR M02/M03 A2981 RMK AO2 T10171033 TSNO
0197726575949602017011906187+45062-093351FM-16+0265KMIC V0201605N002152200059N0040235N5-00175-00285999999ADDAU100001015AW1105GA1005+999999999GD10991+9999999GF100991999999999999999999MA1100915097785REMMET09601/19/17 00:18:02 SPECI KMIC 190618Z 16004KT 2 1/2SM BR CLR M02/M03 A2980 RMK AO2 T10171028 TSNO
0208726575949602017011906257+45062-093351FM-16+0265KMIC V0201505N002152200059N0064375N5-00065-00225999999ADDAU100001015AW1105GA1005+999999999GD10991+9999999GF100991999999999999999999MA1100915097785WA1900099REMMET09801/19/17 00:25:02 SPECI KMIC 190625Z 15004KT 4SM BR CLR M01/M02 A2980 RMK AO2 I1000 T10061022 TSNO
0226726575949602017011906537+45062-093351FM-15+0265KMIC V0201505N002652200059N0064375N5-00115-00285101015ADDAA101000095AU100001015AW1105GA1005+999999999GD10991+9999999GF100991999999999999999999MA1100915097785WA1900099REMMET10501/19/17 00:53:02 METAR KMIC 190653Z 15005KT 4SM BR CLR M01/M03 A2980 RMK AO2 SLP101 I1000 T10111028 TSNO
0226726575949602017011907537+45062-093351FM-15+0265KMIC V0201605N003152200059N0064375N5-00115-00285100985ADDAA101000095AU100001015AW1105GA1005+999999999GD10991+9999999GF100991999999999999999999MA1100885097755WA1900099REMMET10501/19/17 01:53:02 METAR KMIC 190753Z 16006KT 4SM BR CLR M01/M03 A2979 RMK AO2 SLP098 I1000 T10111028 TSNO
0252726575949602017011908537+45062-093351FM-15+0265KMIC V0201605N002152200059N0064375N5-00175-00285100995ADDAA101000095AU100001015AW1105GA1005+999999999GD10991+9999999GF100991999999999999999999MA1100915097785MD1590049+9999WA1900099REMMET11701/19/17 02:53:02 METAR KMIC 190853Z 16004KT 4SM BR CLR M02/M03 A2980 RMK AO2 SLP099 I1000 I3000 T10171028 55004 TSNO
0226726575949602017011909537+45062-093351FM-15+0265KMIC V0201605N003152200059N0096565N5-00065-00225100975ADDAA101000095AU100001015AW1105GA1005+999999999GD10991+9999999GF100991999999999999999999MA1100885097755WA1900199REMMET10501/19/17 03:53:02 METAR KMIC 190953Z 16006KT 6SM BR CLR M01/M02 A2979 RMK AO2 SLP097 I1001 T10061022 TSNO
0210726575949602017011910537+45062-093351FM-15+0265KMIC V0201705N003152200059N0096565N5+00005-00175100985ADDAA101000095AU100001015AW1105GA1005+999999999GD10991+9999999GF100991999999999999999999MA1100885097755REMMET09801/19/17 04:53:02 METAR KMIC 191053Z 17006KT 6SM BR CLR 00/M02 A2979 RMK AO2 SLP098 T00001017 TSNO
0284726575949602017011911537+45062-093351FM-15+0265KMIC V0201705N002652200059N0096565N5-00065-00225101005ADDAA101000095AU100001015AW1105GA1005+999999999GD10991+9999999GF100991999999999999999999KA1060M+00001KA2060N-00221MA1100915097785MD1390019+9999WA1900199REMMET12301/19/17 05:53:02 METAR KMIC 191153Z 17005KT 6SM BR CLR M01/M02 A2980 RMK AO2 SLP100 I6001 T10061022 10000 21022 53001 TSNO
0211726575949602017011912537+45062-093351FM-15+0265KMIC V0201605N002652200059N0080475N5-00115-00285100995ADDAA101000095AU100001015AW1105GA1005+999999999GD10991+9999999GF100991999999999999999999MA1100915097785REMMET09901/19/17 06:53:02 METAR KMIC 191253Z 16005KT 5SM BR CLR M01/M03 A2980 RMK AO2 SLP099 T10111028 (FD)
0226726575949602017011913537+45062-093351FM-15+0265KMIC V0201405N002152200059N0048285N5-00115-00285101015ADDAA101000095AU100001015AW1105GA1005+999999999GD10991+9999999GF100991999999999999999999MA1100915097785WA1900099REMMET10501/19/17 07:53:02 METAR KMIC 191353Z 14004KT 3SM BR CLR M01/M03 A2980 RMK AO2 SLP101 I1000 T10111028 (FD)
0245726575949602017011914537+45062-093351FM-15+0265KMIC V0201305N002152200059N0096565N5+00065-00175100955ADDAA101000095AU100001015AW1105GA1005+999999999GD10991+9999999GF100991999999999999999999MA1100885097755MD1890049+9999WA1900099REMMET11001/19/17 08:53:02 METAR KMIC 191453Z 13004KT 6SM BR CLR 01/M02 A2979 RMK AO2 SLP095 I3000 T00061017 58004 (FD)
0216726575949602017011915537+45062-093351FM-15+0265KMIC V0201605N004652200059N0096565N5+00225-00115100955ADDAA101000095AU100007015AW1051GA1005+999999999GD10991+9999999GF100991999999999999999999MA1100885097755MW1055REMMET09801/19/17 09:53:02 METAR KMIC 191553Z 16009KT 6SM HZ CLR 02/M01 A2979 RMK AO2 SLP095 T00221011 (FD)
0190726575949602017011916537+45062-093351FM-15+0265KMIC V0201505N004652200059N0112655N5+00335-00065100965ADDAA101000095GA1005+999999999GD10991+9999999GF100991999999999999999999MA1100885097755REMMET09501/19/17 10:53:02 METAR KMIC 191653Z 15009KT 7SM CLR 03/M01 A2979 RMK AO2 SLP096 T00331006 (FD)
0263726575949602017011917537+45062-093351FM-15+0265KMIC V0201505N004152200059N0128755N5+00445-00065100845ADDAA101000095GA1005+999999999GD10991+9999999GF100991999999999999999999KA1060M+00441KA2060N-00171MA1100755097615MD1890119+9999WA1900099REMMET11901/19/17 11:53:02 METAR KMIC 191753Z 15008KT 8SM CLR 04/M01 A2975 RMK AO2 SLP084 I6000 T00441006 10044 21017 58011 (FD)
0190726575949602017011918537+45062-093351FM-15+0265KMIC V0201305N004152200059N0128755N5+00395-00065100815ADDAA101000095GA1005+999999999GD10991+9999999GF100991999999999999999999MA1100715097585REMMET09501/19/17 12:53:02 METAR KMIC 191853Z 13008KT 8SM CLR 04/M01 A2974 RMK AO2 SLP081 T00391006 (FD)
0172726575949602017011919257+45062-093351FM-16+0265KMIC V0201505N004152200059N0128755N5+00335-00065999999ADDGA1005+999999999GD10991+9999999GF100991999999999999999999MA1100715097585REMMET08801/19/17 13:25:02 SPECI KMIC 191925Z 15008KT 8SM CLR 03/M01 A2974 RMK AO2 T00331006 (FD)
0190726575949602017011919537+45062-093351FM-15+0265KMIC V0201405N004652200059N0128755N5+00395-00065100785ADDAA101000095GA1005+999999999GD10991+9999999GF100991999999999999999999MA1100685097555REMMET09501/19/17 13:53:02 METAR KMIC 191953Z 14009KT 8SM CLR 04/M01 A2973 RMK AO2 SLP078 T00391006 (FD)
0273726575949602017011920537+45062-093351FM-15+0265KMIC V0201505N00415024385MN0144845N5+00335-00065100775ADDAA101000095GA1025+018295999GA2075+024385999GD11991+0182959GD23991+0243859GE19MSL   +99999+99999GF199999999999018291999999MA1100685097555MD1690079+9999REMMET11101/19/17 14:53:02 METAR KMIC 192053Z 15008KT 9SM FEW060 BKN080 03/M01 A2973 RMK AO2 SLP077 T00331006 56007 (FD)
0216726575949602017011921537+45062-093351FM-15+0265KMIC V0201405N00365021345MN0160935N5+00285-00115100775ADDAA101000095GA1085+021345999GD14991+0213459GE19MSL   +99999+99999GF199999999999021341999999MA1100685097555REMMET09901/19/17 15:53:02 METAR KMIC 192153Z 14007KT 10SM OVC070 03/M01 A2973 RMK AO2 SLP077 T00281011 (FD)
0216726575949602017011922537+45062-093351FM-15+0265KMIC V0201505N00315021345MN0160935N5+00285-00115100795ADDAA101000095GA1085+021345999GD14991+0213459GE19MSL   +99999+99999GF199999999999021341999999MA1100715097585REMMET09901/19/17 16:53:02 METAR KMIC 192253Z 15006KT 10SM OVC070 03/M01 A2974 RMK AO2 SLP079 T00281011 (FD)
0274726575949602017011923537+45062-093351FM-15+0265KMIC V0201305N00265013725MN0160935N5+00285-00115100815ADDAA101000095GA1085+013725999GD14991+0137259GE19MSL   +99999+99999GF199999999999013721999999KA1060M+00441KA2060N+00281MA1100715097585MD1390039+9999REMMET11701/19/17 17:53:02 METAR KMIC 192353Z 13005KT 10SM OVC045 03/M01 A2974 RMK AO2 SLP081 T00281011 10044 20028 53003 (FD)
0210726575949602017012000537+45062-093351FM-15+0265KMIC V0201105N00215013725MN0144845N5+00285-00115100775ADDAA101000095GA1085+013725999GD14991+0137259GE19MSL   +99999+99999GF199999999999013721999999MA1100685097555REMMET09301/19/17 18:53:01 METAR KMIC 200053Z 11004KT 9SM OVC045 03/M01 A2973 RMK AO2 SLP077 T00281011
0210726575949602017012001537+45062-093351FM-15+0265KMIC V0201005N00155011285MN0144845N5+00285-00115100725ADDAA101000095GA1085+011285999GD14991+0112859GE19MSL   +99999+99999GF199999999999011281999999MA1100645097525REMMET09301/19/17 19:53:01 METAR KMIC 200153Z 10003KT 9SM OVC037 03/M01 A2972 RMK AO2 SLP072 T00281011
0268726575949602017012002327+45062-093351FM-16+0265KMIC V0201205N00215006715MN0144845N5+00225-00115999999ADDGA1045+004885999GA2075+006715999GA3085+010365999GD12991+0048859GD23991+0067159GD34991+0103659GE19MSL   +99999+99999GF199999999999004881999999MA1100645097525REMMET10001/19/17 20:32:01 SPECI KMIC 200232Z 12004KT 9SM SCT016 BKN022 OVC034 02/M01 A2972 RMK AO2 T00221011
0235726575949602017012002537+45062-093351FM-15+0265KMIC V0201205N00155005185MN0144845N5+00285-00115100685ADDAA101000095GA1085+005185999GD14991+0051859GE19MSL   +99999+99999GF199999999999005181999999MA1100585097455MD1890139+9999REMMET10401/19/17 20:53:02 METAR KMIC 200253Z 12003KT 9SM OVC017 03/M01 A2970 RMK AO2 SLP068 T00281011 58013 TSNO
0254726575949602017012003537+45062-093351FM-15+0265KMIC V0201205N00215008535MN0160935N5+00285-00115100615ADDAA101000095GA1045+003965999GA2085+008535999GD12991+0039659GD24991+0085359GE19MSL   +99999+99999GF199999999999003961999999MA1100545097425REMMET10601/19/17 21:53:02 METAR KMIC 200353Z 12004KT 10SM SCT013 OVC028 03/M01 A2969 RMK AO2 SLP061 T00281011 TSNO
0236726575949602017012004057+45062-093351FM-16+0265KMIC V0200805N00155003965MN0160935N5+00285-00115999999ADDGA1075+003965999GA2085+007625999GD13991+0039659GD24991+0076259GE19MSL   +99999+99999GF199999999999003961999999MA1100515097385REMMET09901/19/17 22:05:02 SPECI KMIC 200405Z 08003KT 10SM BKN013 OVC025 03/M01 A2968 RMK AO2 T00281011 TSNO
0215726575949602017012004537+45062-093351FM-15+0265KMIC V0201205N00155003665MN0144845N5+00285-00115100545ADDAA101000095GA1085+003665999GD14991+0036659GE19MSL   +99999+99999GF199999999999003661999999MA1100475097355REMMET09801/19/17 22:53:02 METAR KMIC 200453Z 12003KT 9SM OVC012 03/M01 A2967 RMK AO2 SLP054 T00281011 TSNO
0220726575949602017012005467+45062-093351FM-16+0265KMIC V0201005N00265002745MN0040235N5+00225+00005999999ADDAU100001015AW1105GA1085+002745999GD14991+0027459GE19MSL   +99999+99999GF199999999999002741999999MA1100445097325REMMET09701/19/17 23:46:02 SPECI KMIC 200546Z 10005KT 2 1/2SM BR OVC009 02/00 A2966 RMK AO2 T00220000 TSNO
0163726575949602017012005516+45062-093351FM-16+0265KMIC V0201105N00215002745MN0048285N5+00205+00105999999ADDAU100001015AW1105GA1085+002745999GD14991+0027459MA1100445097325REMMET08801/19/17 23:51:03 SPECI KMIC 200551Z 11004KT 3SM BR OVC009 02/01 A2966 RMK AO2 TSNO FIBI
0328726575949602017012005537+45062-093351FM-15+0265KMIC V0201105N00155002745MN0048285N5+00225+00065100505ADDAA101000095AU100001015AW1105GA1085+002745999GD14991+0027459GE19MSL   +99999+99999GF199999999999002741999999KA1060M+00281KA2060N+00221KA3240M+00441KA4240N-00171MA1100445097325MD1690159+9999REMMET12801/19/17 23:53:02 METAR KMIC 200553Z 11003KT 3SM BR OVC009 02/01 A2966 RMK AO2 SLP050 T00220006 10028 20022 400441017 56015 TSNO
0910726575949602017012005596+45062-093351SOD  +0265KMIC V020999999999999999999999999999+99999+99999999999ADDAA124000095AT1AU13BR  5AT2AU08HZ  5KA1240M+00445KA2240N-00165MG1097564100514OE11240071515013185OE22240058114013295OE33240028699999995REMSOD73024 HR PRECIPITATION (IN):0.00  24 HR MAX TEMP (F):40 24 HR MAX TEMP TIME (LST):1212 24 HR MIN TEMP (F):29 24 HR MIN TEMP TIME (LST):0750 AVERAGE STATION PRESSURE:28.810 MINIMUM SEA LEVEL PRESSURE:29.68 TIME OF OCCURRENCE:2359 PEAK WIND SPEED (MPH):16  PEAK WIND DIR (DEG):150 PEAK WIND TIME (LST):1318  FASTEST 2MIN SPEED (MPH):13 FASTEST 2MIN DIR (DEG):140 FASTEST 2MIN TIME (LST):1329 AVERAGE WIND SPEED (MPH):6.4  24 HR AVG TEMP (F):35 HEATING DEGREE DAYS:30  COOLING DEGREE DAYS:0   LATEST DAY MAX TEMP (0700-1900 LST):40  LATEST NIGHT MIN TEMP(1900-0800 LST):26 HOURLY INCREMENTAL PRECIPITATION VALUES (IN):.00 0.00 0.00 0.00 0.00 0.00 0.00 0.00 0.00 0.00 0.00 0.00 0.00 0.00 0.00 0.00 0.00 0.00 0.00 0.00 0.00 0.00 0.00 0.00EQDR01     N7GJS072R02     N7GKS075
0277726575949602017012006117+45062-093351FM-16+0265KMIC V0201005N00155002445MN0032195N5+00225+00065999999ADDAA101000021AU120090015AU200001015AW1105AW2401AW3415GA1085+002445999GD14991+0024451GE19MSL   +99999+99999GF199999999999002441999999MA1100415097285REMMET12001/20/17 00:11:02 SPECI KMIC 200611Z 10003KT 2SM UP BR OVC008 02/01 A2965 RMK AO2 UPB06 CIG 004V009 P0000 T00220006 TSNO
0254726575949602017012006277+45062-093351FM-16+0265KMIC V0201105N00215002135MN0064375N5+00225+00065999999ADDAA101000021AU100001015AW1105GA1085+002135999GD14991+0021351GE19MSL   +99999+99999GF199999999999002131999999MA1100415097285REMMET12001/20/17 00:27:02 SPECI KMIC 200627Z 11004KT 4SM BR OVC007 02/01 A2965 RMK AO2 UPB06E20 CIG 004V009 P0000 T00220006 TSNO
0194726575949602017012006516+45062-093351FM-16+0265KMIC V0201205N00265002135MN0040235N5+00205+00105999999ADDAU100001015AW1105GA1085+002135999GD14991+0021359MA1100375097255REMMET11901/20/17 00:51:02 SPECI KMIC 200651Z 12005KT 2 1/2SM BR OVC007 02/01 A2964 RMK AO2 UPB06E20 CIG 004V009 P0000 TSNO FIBI
0265726575949602017012006537+45062-093351FM-15+0265KMIC V0201305N00265001525MN0040235N5+00225+00065100455ADDAA101000025AU100001015AW1105GA1085+001525999GD14991+0015251GE19MSL   +99999+99999GF199999999999001521999999MA1100375097255REMMET13101/20/17 00:53:02 METAR KMIC 200653Z 13005KT 2 1/2SM BR OVC005 02/01 A2964 RMK AO2 UPB06E20 CIG 004V009 SLP045 P0000 T00220006 TSNO
0220726575949602017012007107+45062-093351FM-16+0265KMIC V0201205N00315001525MN0028165N5+00225+00065999999ADDAU100001015AW1105GA1085+001525999GD14991+0015259GE19MSL   +99999+99999GF199999999999001521999999MA1100375097255REMMET09701/20/17 01:10:02 SPECI KMIC 200710Z 12006KT 1 3/4SM BR OVC005 02/01 A2964 RMK AO2 T00220006 TSNO
0269726575949602017012007337+45062-093351FM-16+0265KMIC V0201205N00315001525MN0040235N5+00225+00065999999ADDAA101000231AU120090015AU200001015AW1105AW2401AW3415GA1085+001525999GD14991+0015259GE19MSL   +99999+99999GF199999999999001521999999MA1100375097255REMMET11201/20/17 01:33:02 SPECI KMIC 200733Z 12006KT 2 1/2SM UP BR OVC005 02/01 A2964 RMK AO2 UPB19 P0001 T00220006 TSNO
0268726575949602017012007417+45062-093351FM-16+0265KMIC V0201105N00265001525MN0064375N5+00225+00065999999ADDAA101000231AU110020015AU200001015AW1105AW2615GA1085+001525999GD14991+0015259GE19MSL   +99999+99999GF199999999999001521999999MA1100375097255REMMET11701/20/17 01:41:02 SPECI KMIC 200741Z 11005KT 4SM -RA BR OVC005 02/01 A2964 RMK AO2 UPB19E34RAB34 P0001 T00220006 TSNO
0287726575949602017012007537+45062-093351FM-15+0265KMIC V0201105N00265001525MN0064375N5+00225+00065100415ADDAA101000595AU110020015AU200001015AW1105AW2615GA1085+001525999GD14991+0015251GE19MSL   +99999+99999GF199999999999001521999999MA1100345097225REMMET13601/20/17 01:53:02 METAR KMIC 200753Z 11005KT 4SM -RA BR OVC005 02/01 A2963 RMK AO2 UPB19E34RAB34 CIG 004V008 SLP041 P0002 T00220006 TSNO
0326726575949602017012008537+45062-093351FM-15+0265KMIC V0201205N00365002135MN0064375N5+00225+00065100435ADDAA101000595AA203001091AU110020015AU200001015AW1105AW2615GA1085+002135999GD14991+0021359GE19MSL   +99999+99999GF199999999999002131999999MA1100375097255MD1590089+9999REMMET13101/20/17 02:53:02 METAR KMIC 200853Z 12007KT 4SM -RA BR OVC007 02/01 A2964 RMK AO2 UPB35E38 SLP043 P0002 60004 T00220006 55008 TSNOEQDQ01  00108PRCP03
0243726575949602017012009217+45062-093351FM-16+0265KMIC V0201205N00265001525MN0040235N5+00225+00065999999ADDAA101000021AU100001015AW1105GA1085+001525999GD14991+0015259GE19MSL   +99999+99999GF199999999999001521999999MA1100345097225REMMET10901/20/17 03:21:02 SPECI KMIC 200921Z 12005KT 2 1/2SM BR OVC005 02/01 A2963 RMK AO2 RAE07 P0000 T00220006 TSNO
0246726575949602017012009537+45062-093351FM-15+0265KMIC V0201305N00315001525MN0048285N5+00225+00065100395ADDAA101000025AU100001015AW1105GA1085+001525999GD14991+0015259GE19MSL   +99999+99999GF199999999999001521999999MA1100305097195REMMET11201/20/17 03:53:02 METAR KMIC 200953Z 13006KT 3SM BR OVC005 02/01 A2962 RMK AO2 RAE07 SLP039 P0000 T00220006 TSNO
0234726575949602017012010537+45062-093351FM-15+0265KMIC V0201505N00315001525MN0064375N5+00225+00065100355ADDAA101000095AU100001015AW1105GA1085+001525999GD14991+0015259GE19MSL   +99999+99999GF199999999999001521999999MA1100275097155REMMET10001/20/17 04:53:02 METAR KMIC 201053Z 15006KT 4SM BR OVC005 02/01 A2961 RMK AO2 SLP035 T00220006 TSNO
0345726575949602017012011537+45062-093351FM-15+0265KMIC V0201405N00315001525MN0080475N5+00225+00065100365ADDAA101000095AA206001091AA324001091AU100001015AW1105GA1085+001525999GD14991+0015259GE19MSL   +99999+99999GF199999999999001521999999KA1060M+00221KA2060N+00171MA1100275097155MD1690079+9999REMMET13001/20/17 05:53:02 METAR KMIC 201153Z 14006KT 5SM BR OVC005 02/01 A2961 RMK AO2 SLP036 60004 70004 T00220006 10022 20017 56007 TSNOEQDQ01  00108PRCP24
0234726575949602017012012537+45062-093351FM-15+0265KMIC V0201105N00215001525MN0048285N5+00225+00065100345ADDAA101000095AU100001015AW1105GA1085+001525999GD14991+0015259GE19MSL   +99999+99999GF199999999999001521999999MA1100275097155REMMET10001/20/17 06:53:02 METAR KMIC 201253Z 11004KT 3SM BR OVC005 02/01 A2961 RMK AO2 SLP034 T00220006 (FD)
0220726575949602017012013137+45062-093351FM-16+0265KMIC V0201205N00215001525MN0040235N5+00175+00065999999ADDAU100001015AW1105GA1085+001525999GD14991+0015259GE19MSL   +99999+99999GF199999999999001521999999MA1100275097155REMMET09701/20/17 07:13:02 SPECI KMIC 201313Z 12004KT 2 1/2SM BR OVC005 02/01 A2961 RMK AO2 T00170006 (FD)
0216726575949602017012013277+45062-093351FM-16+0265KMIC V0201305N00265001225MN0032195N5+00175+00065999999ADDAU100001015AW1105GA1085+001225999GD14991+0012259GE19MSL   +99999+99999GF199999999999001221999999MA1100275097155REMMET09301/20/17 07:27:02 SPECI KMIC 201327Z 13005KT 2SM BR OVC004 02/01 A2961 RMK AO2 T00170006 (FD)
0216726575949602017012013427+45062-093351FM-16+0265KMIC V0201205N00265001225MN0048285N5+00175+00065999999ADDAU100001015AW1105GA1085+001225999GD14991+0012259GE19MSL   +99999+99999GF199999999999001221999999MA1100275097155REMMET09301/20/17 07:42:02 SPECI KMIC 201342Z 12005KT 3SM BR OVC004 02/01 A2961 RMK AO2 T00170006 (FD)
0234726575949602017012013537+45062-093351FM-15+0265KMIC V0201205N00265001225MN0048285N5+00175+00065100345ADDAA101000095AU100001015AW1105GA1085+001225999GD14991+0012259GE19MSL   +99999+99999GF199999999999001221999999MA1100275097155REMMET10001/20/17 07:53:02 METAR KMIC 201353Z 12005KT 3SM BR OVC004 02/01 A2961 RMK AO2 SLP034 T00170006 (FD)
0220726575949602017012014087+45062-093351FM-16+0265KMIC V0201305N00215001225MN0028165N5+00175+00065999999ADDAU100001015AW1105GA1085+001225999GD14991+0012259GE19MSL   +99999+99999GF199999999999001221999999MA1100275097155REMMET09701/20/17 08:08:02 SPECI KMIC 201408Z 13004KT 1 3/4SM BR OVC004 02/01 A2961 RMK AO2 T00170006 (FD)
0216726575949602017012014367+45062-093351FM-16+0265KMIC V0201105N00315001225MN0032195N5+00175+00065999999ADDAU100001015AW1105GA1085+001225999GD14991+0012259GE19MSL   +99999+99999GF199999999999001221999999MA1100275097155REMMET09301/20/17 08:36:02 SPECI KMIC 201436Z 11006KT 2SM BR OVC004 02/01 A2961 RMK AO2 T00170006 (FD)
0254726575949602017012014537+45062-093351FM-15+0265KMIC V0201205N00265001225MN0048285N5+00175+00065100335ADDAA101000095AU100001015AW1105GA1085+001225999GD14991+0012259GE19MSL   +99999+99999GF199999999999001221999999MA1100275097155MD1690039+9999REMMET10601/20/17 08:53:02 METAR KMIC 201453Z 12005KT 3SM BR OVC004 02/01 A2961 RMK AO2 SLP033 T00170006 56003 (FD)
0216726575949602017012015047+45062-093351FM-16+0265KMIC V0201105N00265001525MN0048285N5+00225+00065999999ADDAU100001015AW1105GA1085+001525999GD14991+0015259GE19MSL   +99999+99999GF199999999999001521999999MA1100245097125REMMET09301/20/17 09:04:02 SPECI KMIC 201504Z 11005KT 3SM BR OVC005 02/01 A2960 RMK AO2 T00220006 (FD)
0234726575949602017012015537+45062-093351FM-15+0265KMIC V0201205N00365001525MN0080475N5+00225+00065100295ADDAA101000095AU100001015AW1105GA1085+001525999GD14991+0015259GE19MSL   +99999+99999GF199999999999001521999999MA1100205097095REMMET10001/20/17 09:53:02 METAR KMIC 201553Z 12007KT 5SM BR OVC005 02/01 A2959 RMK AO2 SLP029 T00220006 (FD)
0216726575949602017012016327+45062-093351FM-16+0265KMIC V0201305N00315001225MN0064375N5+00225+00065999999ADDAU100001015AW1105GA1085+001225999GD14991+0012259GE19MSL   +99999+99999GF199999999999001221999999MA1100205097095REMMET09301/20/17 10:32:02 SPECI KMIC 201632Z 13006KT 4SM BR OVC004 02/01 A2959 RMK AO2 T00220006 (FD)
0234726575949602017012016537+45062-093351FM-15+0265KMIC V0201405N00265001225MN0064375N5+00225+00065100295ADDAA101000095AU100001015AW1105GA1085+001225999GD14991+0012259GE19MSL   +99999+99999GF199999999999001221999999MA1100205097095REMMET10001/20/17 10:53:02 METAR KMIC 201653Z 14005KT 4SM BR OVC004 02/01 A2959 RMK AO2 SLP029 T00220006 (FD)
0216726575949602017012017007+45062-093351FM-16+0265KMIC V0201505N00315001525MN0064375N5+00225+00065999999ADDAU100001015AW1105GA1085+001525999GD14991+0015259GE19MSL   +99999+99999GF199999999999001521999999MA1100205097095REMMET09301/20/17 11:00:02 SPECI KMIC 201700Z 15006KT 4SM BR OVC005 02/01 A2959 RMK AO2 T00220006 (FD)
0292726575949602017012017537+45062-093351FM-15+0265KMIC V0201505N00265001525MN0064375N5+00225+00065100255ADDAA101000095AU100001015AW1105GA1085+001525999GD14991+0015259GE19MSL   +99999+99999GF199999999999001521999999KA1060M+00221KA2060N+00171MA1100175097055MD1790089+9999REMMET11801/20/17 11:53:02 METAR KMIC 201753Z 15005KT 4SM BR OVC005 02/01 A2958 RMK AO2 SLP025 T00220006 10022 20017 57008 (FD)
0220726575949602017012018227+45062-093351FM-16+0265KMIC V0201505N00265001525MN0040235N5+00225+00065999999ADDAU100001015AW1105GA1085+001525999GD14991+0015259GE19MSL   +99999+99999GF199999999999001521999999MA1100145097025REMMET09701/20/17 12:22:02 SPECI KMIC 201822Z 15005KT 2 1/2SM BR OVC005 02/01 A2957 RMK AO2 T00220006 (FD)
0216726575949602017012018357+45062-093351FM-16+0265KMIC V0201405N00365001525MN0048285N5+00225+00065999999ADDAU100001015AW1105GA1085+001525999GD14991+0015259GE19MSL   +99999+99999GF199999999999001521999999MA1100105096995REMMET09301/20/17 12:35:02 SPECI KMIC 201835Z 14007KT 3SM BR OVC005 02/01 A2956 RMK AO2 T00220006 (FD)
0234726575949602017012018537+45062-093351FM-15+0265KMIC V0201505N00365001525MN0048285N5+00225+00065100155ADDAA101000095AU100001015AW1105GA1085+001525999GD14991+0015259GE19MSL   +99999+99999GF199999999999001521999999MA1100075096955REMMET10001/20/17 12:53:02 METAR KMIC 201853Z 15007KT 3SM BR OVC005 02/01 A2955 RMK AO2 SLP015 T00220006 (FD)
0234726575949602017012019537+45062-093351FM-15+0265KMIC V0201305N00215001835MN0096565N5+00285+00065100075ADDAA101000095AU100001015AW1105GA1085+001835999GD14991+0018359GE19MSL   +99999+99999GF199999999999001831999999MA1100005096895REMMET10001/20/17 13:53:02 METAR KMIC 201953Z 13004KT 6SM BR OVC006 03/01 A2953 RMK AO2 SLP007 T00280006 (FD)
0254726575949602017012020537+45062-093351FM-15+0265KMIC V0201005N00315001835MN0064375N5+00285+00065100075ADDAA101000095AU100001015AW1105GA1085+001835999GD14991+0018359GE19MSL   +99999+99999GF199999999999001831999999MA1100005096895MD1690189+9999REMMET10601/20/17 14:53:02 METAR KMIC 202053Z 10006KT 4SM BR OVC006 03/01 A2953 RMK AO2 SLP007 T00280006 56018 (FD)
0234726575949602017012021537+45062-093351FM-15+0265KMIC V0201205N00365001835MN0064375N5+00285+00065100135ADDAA101000095AU100001015AW1105GA1085+001835999GD14991+0018359GE19MSL   +99999+99999GF199999999999001831999999MA1100075096955REMMET10001/20/17 15:53:02 METAR KMIC 202153Z 12007KT 4SM BR OVC006 03/01 A2955 RMK AO2 SLP013 T00280006 TSNO
0234726575949602017012022537+45062-093351FM-15+0265KMIC V0201505N00265001525MN0048285N5+00225+00065100195ADDAA101000095AU100001015AW1105GA1085+001525999GD14991+0015259GE19MSL   +99999+99999GF199999999999001521999999MA1100145097025REMMET10001/20/17 16:53:02 METAR KMIC 202253Z 15005KT 3SM BR OVC005 02/01 A2957 RMK AO2 SLP019 T00220006 (FD)
0216726575949602017012023137+45062-093351FM-16+0265KMIC V0201205N00265001225MN0048285N5+00225+00065999999ADDAU100001015AW1105GA1085+001225999GD14991+0012259GE19MSL   +99999+99999GF199999999999001221999999MA1100075096955REMMET09301/20/17 17:13:02 SPECI KMIC 202313Z 12005KT 3SM BR OVC004 02/01 A2955 RMK AO2 T00220006 (FD)
0220726575949602017012023327+45062-093351FM-16+0265KMIC V0201305N00265001225MN0040235N5+00225+00065999999ADDAU100001015AW1105GA1085+001225999GD14991+0012259GE19MSL   +99999+99999GF199999999999001221999999MA1100075096955REMMET09701/20/17 17:32:02 SPECI KMIC 202332Z 13005KT 2 1/2SM BR OVC004 02/01 A2955 RMK AO2 T00220006 (FD)
0296726575949602017012023537+45062-093351FM-15+0265KMIC V0201205N00265000915MN0040235N5+00225+00065100135ADDAA101000095AU100001015AW1105GA1085+000915999GD14991+0009159GE19MSL   +99999+99999GF199999999999000911999999KA1060M+00281KA2060N+00221MA1100075096955MD1090069+9999REMMET12201/20/17 17:53:02 METAR KMIC 202353Z 12005KT 2 1/2SM BR OVC003 02/01 A2955 RMK AO2 SLP013 T00220006 10028 20022 50006 (FD)
0167726575949602017012100516+45062-093351FM-16+0265KMIC V0201005N00215000915MN0024145N5+00205+00105999999ADDAU100001015AW1105GA1085+000915999GD14991+0009159MA1100035096925REMMET09201/20/17 18:51:03 SPECI KMIC 210051Z 10004KT 1 1/2SM BR OVC003 02/01 A2954 RMK AO2 FIBI (FD)
0233726575949602017012100537+45062-093351FM-15+0265KMIC V0201005N00265000915MN0020125N5+00225+00065100105ADDAA101000095AU100001015AW1105GA1085+000915999GD14991+0009159GE19MSL   +99999+99999GF199999999999000911999999MA1100035096925REMMET09901/20/17 18:53:01 METAR KMIC 210053Z 10005KT 1 1/4SM BR OVC003 02/01 A2954 RMK AO2 SLP010 T00220006
0213726575949602017012101037+45062-093351FM-16+0265KMIC V0201205N00365000615MN0008055N5+00225+00065999999ADDAU100002015AW1305GA1085+000615999GD14991+0006159GE19MSL   +99999+99999GF199999999999000611999999MA1100075096955REMMET09001/20/17 19:03:01 SPECI KMIC 210103Z 12007KT 1/2SM FG OVC002 02/01 A2955 RMK AO2 T00220006
0215726575949602017012101327+45062-093351FM-16+0265KMIC V0201105N00315000615MN0020125N5+00225+00065999999ADDAU100001015AW1105GA1085+000615999GD14991+0006159GE19MSL   +99999+99999GF199999999999000611999999MA1100035096925REMMET09201/20/17 19:32:01 SPECI KMIC 210132Z 11006KT 1 1/4SM BR OVC002 02/01 A2954 RMK AO2 T00220006
0167726575949602017012101516+45062-093351FM-16+0265KMIC V0201405N00315000615MN0040235N5+00205+00105999999ADDAU100001015AW1105GA1085+000615999GD14991+0006159MA1100075096955REMMET09201/20/17 19:51:03 SPECI KMIC 210151Z 14006KT 2 1/2SM BR OVC002 02/01 A2955 RMK AO2 FIBI (FD)
0233726575949602017012101537+45062-093351FM-15+0265KMIC V0201405N00315000615MN0040235N5+00175+00065100155ADDAA101000095AU100001015AW1105GA1085+000615999GD14991+0006159GE19MSL   +99999+99999GF199999999999000611999999MA1100075096955REMMET09901/20/17 19:53:01 METAR KMIC 210153Z 14006KT 2 1/2SM BR OVC002 02/01 A2955 RMK AO2 SLP015 T00170006
0211726575949602017012102017+45062-093351FM-16+0265KMIC V0201405N00365000615MN0064375N5+00225+00065999999ADDAU100001015AW1105GA1085+000615999GD14991+0006159GE19MSL   +99999+99999GF199999999999000611999999MA1100075096955REMMET08801/20/17 20:01:01 SPECI KMIC 210201Z 14007KT 4SM BR OVC002 02/01 A2955 RMK AO2 T00220006
0215726575949602017012102367+45062-093351FM-16+0265KMIC V0201505N00415001225MN0040235N5+00225+00065999999ADDAU100001015AW1105GA1085+001225999GD14991+0012259GE19MSL   +99999+99999GF199999999999001221999999MA1100075096955REMMET09201/20/17 20:36:01 SPECI KMIC 210236Z 15008KT 2 1/2SM BR OVC004 02/01 A2955 RMK AO2 T00220006
0163726575949602017012102516+45062-093351FM-16+0265KMIC V0201505N00365000915MN0048285N5+00205+00105999999ADDAU100001015AW1105GA1085+000915999GD14991+0009159MA1100075096955REMMET08801/20/17 20:51:03 SPECI KMIC 210251Z 15007KT 3SM BR OVC003 02/01 A2955 RMK AO2 TSNO FIBI
0254726575949602017012102537+45062-093351FM-15+0265KMIC V0201505N00365000915MN0048285N5+00225+00065100155ADDAA101000095AU100001015AW1105GA1085+000915999GD14991+0009159GE19MSL   +99999+99999GF199999999999000911999999MA1100075096955MD1390019+9999REMMET10601/20/17 20:53:02 METAR KMIC 210253Z 15007KT 3SM BR OVC003 02/01 A2955 RMK AO2 SLP015 T00220006 53001 TSNO
0234726575949602017012103537+45062-093351FM-15+0265KMIC V0201305N00315001225MN0080475N5+00225+00065100115ADDAA101000095AU100001015AW1105GA1085+001225999GD14991+0012259GE19MSL   +99999+99999GF199999999999001221999999MA1100035096925REMMET10001/20/17 21:53:02 METAR KMIC 210353Z 13006KT 5SM BR OVC004 02/01 A2954 RMK AO2 SLP011 T00220006 TSNO
0234726575949602017012104537+45062-093351FM-15+0265KMIC V0201205N00265001225MN0048285N5+00225+00065100085ADDAA101000095AU100001015AW1105GA1085+001225999GD14991+0012259GE19MSL   +99999+99999GF199999999999001221999999MA1100005096895REMMET10001/20/17 22:53:02 METAR KMIC 210453Z 12005KT 3SM BR OVC004 02/01 A2953 RMK AO2 SLP008 T00220006 TSNO
0328726575949602017012105537+45062-093351FM-15+0265KMIC V0201205N00265000915MN0064375N5+00225+00065100045ADDAA101000095AU100001015AW1105GA1085+000915999GD14991+0009159GE19MSL   +99999+99999GF199999999999000911999999KA1060M+00221KA2060N+00171KA3240M+00281KA4240N+00171MA1099975096865MD1690109+9999REMMET12801/20/17 23:53:02 METAR KMIC 210553Z 12005KT 4SM BR OVC003 02/01 A2952 RMK AO2 SLP004 T00220006 10022 20017 400280017 56010 TSNO
0934726575949602017012105596+45062-093351SOD  +0265KMIC V020999999999999999999999999999+99999+99999999999ADDAA124001095AT1AU16RA  5AT2AU01FG  5AT3AU13BR  5AT4AU19UP  5KA1240M+00285KA2240N+00175MG1097004100034OE11240067114021115OE22240053615021125OE33240028699999995REMSOD73024 HR PRECIPITATION (IN):0.04  24 HR MAX TEMP (F):37 24 HR MAX TEMP TIME (LST):1645 24 HR MIN TEMP (F):35 24 HR MIN TEMP TIME (LST):2014 AVERAGE STATION PRESSURE:28.645 MINIMUM SEA LEVEL PRESSURE:29.54 TIME OF OCCURRENCE:2359 PEAK WIND SPEED (MPH):15  PEAK WIND DIR (DEG):140 PEAK WIND TIME (LST):2111  FASTEST 2MIN SPEED (MPH):12 FASTEST 2MIN DIR (DEG):150 FASTEST 2MIN TIME (LST):2112 AVERAGE WIND SPEED (MPH):6.4  24 HR AVG TEMP (F):36 HEATING DEGREE DAYS:29  COOLING DEGREE DAYS:0   LATEST DAY MAX TEMP (0700-1900 LST):37  LATEST NIGHT MIN TEMP(1900-0800 LST):35 HOURLY INCREMENTAL PRECIPITATION VALUES (IN):    0.02 0.02 T    0.00 0.00 0.00 0.00 0.00 0.00 0.00 0.00 0.00 0.00 0.00 0.00 0.00 0.00 0.00 0.00 0.00 0.00 0.00 0.00EQDR01     N7GJS072R02     N7GKS075
0234726575949602017012106537+45062-093351FM-15+0265KMIC V0201305N00265000915MN0064375N5+00225+00065100005ADDAA101000095AU100001015AW1105GA1085+000915999GD14991+0009159GE19MSL   +99999+99999GF199999999999000911999999MA1099935096825REMMET10001/21/17 00:53:02 METAR KMIC 210653Z 13005KT 4SM BR OVC003 02/01 A2951 RMK AO2 SLP000 T00220006 TSNO
0234726575949602017012107537+45062-093351FM-15+0265KMIC V0201105N00315000915MN0064375N5+00225+00065099945ADDAA101000095AU100001015AW1105GA1085+000915999GD14991+0009159GE19MSL   +99999+99999GF199999999999000911999999MA1099865096765REMMET10001/21/17 01:53:02 METAR KMIC 210753Z 11006KT 4SM BR OVC003 02/01 A2949 RMK AO2 SLP994 T00220006 TSNO
0220726575949602017012108207+45062-093351FM-16+0265KMIC V0200905N00265000915MN0040235N5+00225+00065999999ADDAU100001015AW1105GA1085+000915999GD14991+0009159GE19MSL   +99999+99999GF199999999999000911999999MA1099835096725REMMET09701/21/17 02:20:02 SPECI KMIC 210820Z 09005KT 2 1/2SM BR OVC003 02/01 A2948 RMK AO2 T00220006 TSNO
0220726575949602017012108317+45062-093351FM-16+0265KMIC V0200905N00265000915MN0024145N5+00175+00065999999ADDAU100001015AW1105GA1085+000915999GD14991+0009159GE19MSL   +99999+99999GF199999999999000911999999MA1099835096725REMMET09701/21/17 02:31:02 SPECI KMIC 210831Z 09005KT 1 1/2SM BR OVC003 02/01 A2948 RMK AO2 T00170006 TSNO
0208726575949602017012108517+45062-093351FM-16+0265KMIC V0201005N00265000615MN0012075N5+00205+00105999999ADDAU100001015AW1105GA1085+000615999GD14991+0006159GE19MSL   +99999+99999GF199999999999000611999999MA1099805096695REMMET08501/21/17 02:51:02 SPECI KMIC 210851Z 10005KT 3/4SM BR OVC002 02/01 A2947 RMK AO2 TSNO
0256726575949602017012108537+45062-093351FM-15+0265KMIC V0201005N00265000615MN0012075N5+00175+00065099885ADDAA101000095AU100001015AW1105GA1085+000615999GD14991+0006159GE19MSL   +99999+99999GF199999999999000611999999MA1099805096695MD1690129+9999REMMET10801/21/17 02:53:02 METAR KMIC 210853Z 10005KT 3/4SM BR OVC002 02/01 A2947 RMK AO2 SLP988 T00170006 56012 TSNO
0216726575949602017012109167+45062-093351FM-16+0265KMIC V0201105N00265000615MN0016095N5+00175+00065999999ADDAU100001015AW1105GA1085+000615999GD14991+0006159GE19MSL   +99999+99999GF199999999999000611999999MA1099805096695REMMET09301/21/17 03:16:02 SPECI KMIC 210916Z 11005KT 1SM BR OVC002 02/01 A2947 RMK AO2 T00170006 TSNO
0238726575949602017012109537+45062-093351FM-15+0265KMIC V0201005N00215000615MN0024145N5+00175+00065099815ADDAA101000095AU100001015AW1105GA1085+000615999GD14991+0006159GE19MSL   +99999+99999GF199999999999000611999999MA1099735096625REMMET10401/21/17 03:53:02 METAR KMIC 210953Z 10004KT 1 1/2SM BR OVC002 02/01 A2945 RMK AO2 SLP981 T00170006 TSNO
0218726575949602017012110057+45062-093351FM-16+0265KMIC V0200705N00265000615MN0012075N5+00175+00065999999ADDAU100001015AW1105GA1085+000615999GD14991+0006159GE19MSL   +99999+99999GF199999999999000611999999MA1099735096625REMMET09501/21/17 04:05:02 SPECI KMIC 211005Z 07005KT 3/4SM BR OVC002 02/01 A2945 RMK AO2 T00170006 TSNO
0216726575949602017012110367+45062-093351FM-16+0265KMIC V0200905N00265000615MN0016095N5+00175+00065999999ADDAU100001015AW1105GA1085+000615999GD14991+0006159GE19MSL   +99999+99999GF199999999999000611999999MA1099705096595REMMET09301/21/17 04:36:02 SPECI KMIC 211036Z 09005KT 1SM BR OVC002 02/01 A2944 RMK AO2 T00170006 TSNO
0234726575949602017012110537+45062-093351FM-15+0265KMIC V0200805N00265000615MN0016095N5+00175+00065099775ADDAA101000095AU100001015AW1105GA1085+000615999GD14991+0006159GE19MSL   +99999+99999GF199999999999000611999999MA1099705096595REMMET10001/21/17 04:53:02 METAR KMIC 211053Z 08005KT 1SM BR OVC002 02/01 A2944 RMK AO2 SLP977 T00170006 TSNO
0246726575949602017012111277+45062-093351FM-16+0265KMIC V0200905N00315000615MN0040235N5+00175+00065999999ADDAA101000021AU100001015AW1105GA1085+000615999GD14991+0006159GE19MSL   +99999+99999GF199999999999000611999999MA1099705096595REMMET11201/21/17 05:27:02 SPECI KMIC 211127Z 09006KT 2 1/2SM BR OVC002 02/01 A2944 RMK AO2 UPB08E19 P0000 T00170006 TSNO
0242726575949602017012111347+45062-093351FM-16+0265KMIC V0200905N00215000615MN0048285N5+00175+00065999999ADDAA101000021AU100001015AW1105GA1085+000615999GD14991+0006159GE19MSL   +99999+99999GF199999999999000611999999MA1099705096595REMMET10801/21/17 05:34:02 SPECI KMIC 211134Z 09004KT 3SM BR OVC002 02/01 A2944 RMK AO2 UPB08E19 P0000 T00170006 TSNO
0363726575949602017012111537+45062-093351FM-15+0265KMIC V0200605N00265000915MN0040235N5+00175+00065099735ADDAA101000025AA206000021AU100001015AW1105GA1085+000915999GD14991+0009159GE19MSL   +99999+99999GF199999999999000911999999KA1060M+00221KA2060N+00171MA1099665096565MD1690159+9999REMMET14301/21/17 05:53:02 METAR KMIC 211153Z 06005KT 2 1/2SM BR OVC003 02/01 A2943 RMK AO2 UPB08E19 SLP973 P0000 60000 T00170006 10022 20017 56015 TSNOEQDQ01  00002PRCP06Q02  00008PRCP06
0273726575949602017012112377+45062-093351FM-16+0265KMIC V0200705N00265000915MN0048285N5+00175+00005999999ADDAA101000021AU120090015AU200001015AW1105AW2401AW3415GA1085+000915999GD14991+0009159GE19MSL   +99999+99999GF199999999999000911999999MA1099635096535REMMET11601/21/17 06:37:02 SPECI KMIC 211237Z 07005KT 3SM UP BR OVC003 02/00 A2942 RMK AO2 RAB30E34UPB34 P0000 T00170000 (FD)
0244726575949602017012112487+45062-093351FM-16+0265KMIC V0200705N00215000915MN0040235N5+00205+00105999999ADDAA101000021AU100001015AW1105GA1085+000915999GD14991+0009159GE19MSL   +99999+99999GF199999999999000911999999MA1099635096535REMMET11001/21/17 06:48:02 SPECI KMIC 211248Z 07004KT 2 1/2SM BR OVC003 02/01 A2942 RMK AO2 RAB30E34UPB34E46 P0000 (FD)
0186726575949602017012112516+45062-093351FM-16+0265KMIC V0200805N00155000915MN0048285N5+00205+00105999999ADDAU100001015AW1105GA1085+000915999GD14991+0009159MA1099635096535REMMET11101/21/17 06:51:02 SPECI KMIC 211251Z 08003KT 3SM BR OVC003 02/01 A2942 RMK AO2 RAB30E34UPB34E46 P0000 FIBI (FD)
0257726575949602017012112537+45062-093351FM-15+0265KMIC V0200705N00215000915MN0048285N5+00175+00065099715ADDAA101000025AU100001015AW1105GA1085+000915999GD14991+0009159GE19MSL   +99999+99999GF199999999999000911999999MA1099635096535REMMET12301/21/17 06:53:02 METAR KMIC 211253Z 07004KT 3SM BR OVC003 02/01 A2942 RMK AO2 RAB30E34UPB34E46 SLP971 P0000 T00170006 (FD)
0234726575949602017012113537+45062-093351FM-15+0265KMIC V0200705N00265001225MN0080475N5+00175+00005099705ADDAA101000095AU100001015AW1105GA1085+001225999GD14991+0012259GE19MSL   +99999+99999GF199999999999001221999999MA1099635096535REMMET10001/21/17 07:53:02 METAR KMIC 211353Z 07005KT 5SM BR OVC004 02/00 A2942 RMK AO2 SLP970 T00170000 (FD)
0271726575949602017012114537+45062-093351FM-15+0265KMIC V0200705N00215001225MN0048285N5+00175+00005099685ADDAA101000095AA203000021AU100001015AW1105GA1085+001225999GD14991+0012259GE19MSL   +99999+99999GF199999999999001221999999MA1099595096495MD1890039+9999REMMET11201/21/17 08:53:02 METAR KMIC 211453Z 07004KT 3SM BR OVC004 02/00 A2941 RMK AO2 SLP968 60000 T00170000 58003 (FD)
0208726575949602017012115516+45062-093351FM-16+0265KMIC V0200705N00215001225MN0040235N5+00205+00105999999ADDAU110020015AU200001015AW1105AW2615GA1085+001225999GD14991+0012259MA1099635096535REMMET11601/21/17 09:51:02 SPECI KMIC 211551Z 07004KT 2 1/2SM -RA BR OVC004 02/01 A2942 RMK AO2 UPB37E49RAB49 P0000 FIBI (FD)
0279726575949602017012115537+45062-093351FM-15+0265KMIC V0200805N00155001225MN0040235N5+00175+00065099695ADDAA101000395AU110020015AU200001015AW1105AW2615GA1085+001225999GD14991+0012259GE19MSL   +99999+99999GF199999999999001221999999MA1099635096535REMMET12801/21/17 09:53:02 METAR KMIC 211553Z 08003KT 2 1/2SM -RA BR OVC004 02/01 A2942 RMK AO2 UPB37E49RAB49 SLP969 P0000 T00170006 (FD)
0247726575949602017012116107+45062-093351FM-16+0265KMIC V0200805N00265001225MN0064375N5+00225+00065999999ADDAA101000231AU100001015AW1105GA1085+001225999GD14991+0012259GE19MSL   +99999+99999GF199999999999001221999999MA1099635096535REMMET11301/21/17 10:10:02 SPECI KMIC 211610Z 08005KT 4SM BR OVC004 02/01 A2942 RMK AO2 RAE08UPB08E10 P0001 T00220006 (FD)
0183726575949602017012116516+45062-093351FM-16+0265KMIC V0200605N00215001525MN0064375N5+00205+00105999999ADDAU100001015AW1105GA1085+001525999GD14991+0015259MA1099595096495REMMET10801/21/17 10:51:02 SPECI KMIC 211651Z 06004KT 4SM BR OVC005 02/01 A2941 RMK AO2 RAE08UPB08E10 P0001 FIBI (FD)
0254726575949602017012116537+45062-093351FM-15+0265KMIC V0200705N00265001525MN0064375N5+00225+00065099665ADDAA101000025AU100001015AW1105GA1085+001525999GD14991+0015259GE19MSL   +99999+99999GF199999999999001521999999MA1099595096495REMMET12001/21/17 10:53:02 METAR KMIC 211653Z 07005KT 4SM BR OVC005 02/01 A2941 RMK AO2 RAE08UPB08E10 SLP966 P0001 T00220006 (FD)
0290726575949602017012117537+45062-093351FM-15+0265KMIC V0200705N00265001835MN0160935N5+00335+00065099585ADDAA101000095AA206000391GA1085+001835999GD14991+0018359GE19MSL   +99999+99999GF199999999999001831999999KA1060M+00331KA2060N+00171MA1099535096435MD1890109+9999REMMET12201/21/17 11:53:02 METAR KMIC 211753Z 07005KT 10SM OVC006 03/01 A2939 RMK AO2 SLP958 60001 T00330006 10033 20017 58010 (FD)
0215726575949602017012118537+45062-093351FM-15+0265KMIC V0201305N00155002135MN0160935N5+00335+00065099555ADDAA101000095GA1085+002135999GD14991+0021359GE19MSL   +99999+99999GF199999999999002131999999MA1099495096395REMMET09801/21/17 12:53:02 METAR KMIC 211853Z 13003KT 10SM OVC007 03/01 A2938 RMK AO2 SLP955 T00330006 (FD)
0234726575949602017012119537+45062-093351FM-15+0265KMIC V0209999C00005002135MN0096565N5+00335+00115099585ADDAA101000095AU100001015AW1105GA1085+002135999GD14991+0021359GE19MSL   +99999+99999GF199999999999002131999999MA1099535096435REMMET10001/21/17 13:53:02 METAR KMIC 211953Z 00000KT 6SM BR OVC007 03/01 A2939 RMK AO2 SLP958 T00330011 (FD)
0167726575949602017012120516+45062-093351FM-16+0265KMIC V0209999C00005001835MN0040235N5+00305+00105999999ADDAU100001015AW1105GA1085+001835999GD14991+0018359MA1099535096435REMMET09201/21/17 14:51:02 SPECI KMIC 212051Z 00000KT 2 1/2SM BR OVC006 03/01 A2939 RMK AO2 FIBI (FD)
0254726575949602017012120537+45062-093351FM-15+0265KMIC V0200205N00155001835MN0032195N5+00335+00115099605ADDAA101000095AU100001015AW1105GA1085+001835999GD14991+0018359GE19MSL   +99999+99999GF199999999999001831999999MA1099535096435MD1390019+9999REMMET10601/21/17 14:53:02 METAR KMIC 212053Z 02003KT 2SM BR OVC006 03/01 A2939 RMK AO2 SLP960 T00330011 53001 (FD)
0216726575949602017012121377+45062-093351FM-16+0265KMIC V0200305N00155001225MN0032195N5+00285+00115999999ADDAU100001015AW1105GA1085+001225999GD14991+0012259GE19MSL   +99999+99999GF199999999999001221999999MA1099595096495REMMET09301/21/17 15:37:02 SPECI KMIC 212137Z 03003KT 2SM BR OVC004 03/01 A2941 RMK AO2 T00280011 (FD)
0238726575949602017012121537+45062-093351FM-15+0265KMIC V0209999C00005001225MN0040235N5+00285+00115099715ADDAA101000095AU100001015AW1105GA1085+001225999GD14991+0012259GE19MSL   +99999+99999GF199999999999001221999999MA1099635096535REMMET10401/21/17 15:53:02 METAR KMIC 212153Z 00000KT 2 1/2SM BR OVC004 03/01 A2942 RMK AO2 SLP971 T00280011 (FD)
0216726575949602017012122007+45062-093351FM-16+0265KMIC V0209999C00005001225MN0048285N5+00285+00115999999ADDAU100001015AW1105GA1085+001225999GD14991+0012259GE19MSL   +99999+99999GF199999999999001221999999MA1099665096565REMMET09301/21/17 16:00:02 SPECI KMIC 212200Z 00000KT 3SM BR OVC004 03/01 A2943 RMK AO2 T00280011 (FD)
0210726575949602017012122517+45062-093351FM-16+0265KMIC V0209999C00005001225MN0040235N5+00305+00105999999ADDAU100001015AW1105GA1085+001225999GD14991+0012259GE19MSL   +99999+99999GF199999999999001221999999MA1099705096595REMMET08701/21/17 16:51:02 SPECI KMIC 212251Z 00000KT 2 1/2SM BR OVC004 03/01 A2944 RMK AO2 (FD)
0234726575949602017012122537+45062-093351FM-15+0265KMIC V0209999C00005001225MN0032195N5+00285+00115099775ADDAA101000095AU100001015AW1105GA1085+001225999GD14991+0012259GE19MSL   +99999+99999GF199999999999001221999999MA1099705096595REMMET10001/21/17 16:53:02 METAR KMIC 212253Z 00000KT 2SM BR OVC004 03/01 A2944 RMK AO2 SLP977 T00280011 (FD)
0216726575949602017012123027+45062-093351FM-16+0265KMIC V0209999C00005001225MN0016095N5+00285+00115999999ADDAU100001015AW1105GA1085+001225999GD14991+0012259GE19MSL   +99999+99999GF199999999999001221999999MA1099735096625REMMET09301/21/17 17:02:02 SPECI KMIC 212302Z 00000KT 1SM BR OVC004 03/01 A2945 RMK AO2 T00280011 (FD)
0218726575949602017012123247+45062-093351FM-16+0265KMIC V0200105N00155000915MN0012075N5+00285+00115999999ADDAU100001015AW1105GA1085+000915999GD14991+0009159GE19MSL   +99999+99999GF199999999999000911999999MA1099735096625REMMET09501/21/17 17:24:02 SPECI KMIC 212324Z 01003KT 3/4SM BR OVC003 03/01 A2945 RMK AO2 T00280011 (FD)
0293726575949602017012123537+45062-093351FM-15+0265KMIC V0200105N00155000915WN0008055N5+00225+00115099805ADDAA101000095AU100002015AW1305GA1095+000915999GD15991+0009159GE19MSL   +99999+99999GF109991999999000911999999KA1060M+00331KA2060N+00221MA1099735096625MD1190099+9999REMMET11901/21/17 17:53:02 METAR KMIC 212353Z 01003KT 1/2SM FG VV003 02/01 A2945 RMK AO2 SLP980 T00220011 10033 20022 51009 (FD)
0231726575949602017012200537+45062-093351FM-15+0265KMIC V0200105N00155000915MN0008055N5+00225+00115099865ADDAA101000095AU100002015AW1305GA1085+000915999GD14991+0009159GE19MSL   +99999+99999GF199999999999000911999999MA1099805096695REMMET09701/21/17 18:53:01 METAR KMIC 220053Z 01003KT 1/2SM FG OVC003 02/01 A2947 RMK AO2 SLP986 T00220011
0230726575949602017012201537+45062-093351FM-15+0265KMIC V0209999C00005000915WN0004025N5+00175+00065099935ADDAA101000095AU100002015AW1305GA1095+000915999GD15991+0009159GE19MSL   +99999+99999GF109991999999000911999999MA1099835096725REMMET09601/21/17 19:53:01 METAR KMIC 220153Z 00000KT 1/4SM FG VV003 02/01 A2948 RMK AO2 SLP993 T00170006
0250726575949602017012202537+45062-093351FM-15+0265KMIC V0209999C00005000615WN0004025N5+00225+00115099995ADDAA101000095AU100002015AW1305GA1095+000615999GD15991+0006159GE19MSL   +99999+99999GF109991999999000611999999MA1099935096825MD1390199+9999REMMET10201/21/17 20:53:02 METAR KMIC 220253Z 00000KT 1/4SM FG VV002 02/01 A2951 RMK AO2 SLP999 T00220011 53019
0235726575949602017012203537+45062-093351FM-15+0265KMIC V0209999C00005000615WN0004025N5+00175+00065100045ADDAA101000095AU100002015AW1305GA1095+000615999GD15991+0006159GE19MSL   +99999+99999GF109991999999000611999999MA1099975096865REMMET10101/21/17 21:53:02 METAR KMIC 220353Z 00000KT 1/4SM FG VV002 02/01 A2952 RMK AO2 SLP004 T00170006 TSNO
0235726575949602017012204537+45062-093351FM-15+0265KMIC V0209999C00005000615WN0004025N5+00225+00115100075ADDAA101000095AU100002015AW1305GA1095+000615999GD15991+0006159GE19MSL   +99999+99999GF109991999999000611999999MA1100005096895REMMET10101/21/17 22:53:02 METAR KMIC 220453Z 00000KT 1/4SM FG VV002 02/01 A2953 RMK AO2 SLP007 T00220011 TSNO
0329726575949602017012205537+45062-093351FM-15+0265KMIC V0209999C00005000615WN0004025N5+00175+00065100115ADDAA101000095AU100002015AW1305GA1095+000615999GD15991+0006159GE19MSL   +99999+99999GF109991999999000611999999KA1060M+00221KA2060N+00171KA3240M+00331KA4240N+00171MA1100035096925MD1290129+9999REMMET12901/21/17 23:53:02 METAR KMIC 220553Z 00000KT 1/4SM FG VV002 02/01 A2954 RMK AO2 SLP011 T00170006 10022 20017 400330017 52012 TSNO
0934726575949602017012205596+45062-093351SOD  +0265KMIC V020999999999999999999999999999+99999+99999999999ADDAA124000395AT1AU16RA  5AT2AU01FG  5AT3AU13BR  5AT4AU19UP  5KA1240M+00335KA2240N+00175MG1096614099534OE11240049211001485OE22240035810012295OE33240014899999995REMSOD73024 HR PRECIPITATION (IN):0.01  24 HR MAX TEMP (F):38 24 HR MAX TEMP TIME (LST):1610 24 HR MIN TEMP (F):35 24 HR MIN TEMP TIME (LST):2359 AVERAGE STATION PRESSURE:28.530 MINIMUM SEA LEVEL PRESSURE:29.39 TIME OF OCCURRENCE:1243 PEAK WIND SPEED (MPH):11  PEAK WIND DIR (DEG):110 PEAK WIND TIME (LST):0148  FASTEST 2MIN SPEED (MPH):8  FASTEST 2MIN DIR (DEG):100 FASTEST 2MIN TIME (LST):1229 AVERAGE WIND SPEED (MPH):3.3  24 HR AVG TEMP (F):37 HEATING DEGREE DAYS:28  COOLING DEGREE DAYS:0   LATEST DAY MAX TEMP (0700-1900 LST):38  LATEST NIGHT MIN TEMP(1900-0800 LST):35 HOURLY INCREMENTAL PRECIPITATION VALUES (IN):.00 0.00 0.00 0.00 0.00 T    T    0.00 0.00 0.01 T    0.00 0.00 0.00 0.00 0.00 0.00 0.00 0.00 0.00 0.00 0.00 0.00 0.00EQDR01     N7GJS072R02     N7GKS075
0220726575949602017012206457+45062-093351FM-16+0265KMIC V0203105N00215000915MN0020125N5+00175+00065999999ADDAU100001015AW1105GA1085+000915999GD14991+0009159GE19MSL   +99999+99999GF199999999999000911999999MA1100035096925REMMET09701/22/17 00:45:02 SPECI KMIC 220645Z 31004KT 1 1/4SM BR OVC003 02/01 A2954 RMK AO2 T00170006 TSNO
0238726575949602017012206537+45062-093351FM-15+0265KMIC V0203005N00215000915MN0024145N5+00175+00065100135ADDAA101000095AU100001015AW1105GA1085+000915999GD14991+0009159GE19MSL   +99999+99999GF199999999999000911999999MA1100075096955REMMET10401/22/17 00:53:02 METAR KMIC 220653Z 30004KT 1 1/2SM BR OVC003 02/01 A2955 RMK AO2 SLP013 T00170006 TSNO
0216726575949602017012207097+45062-093351FM-16+0265KMIC V0203205N00265000615MN0032195N5+00175+00065999999ADDAU100001015AW1105GA1085+000615999GD14991+0006159GE19MSL   +99999+99999GF199999999999000611999999MA1100075096955REMMET09301/22/17 01:09:02 SPECI KMIC 220709Z 32005KT 2SM BR OVC002 02/01 A2955 RMK AO2 T00170006 TSNO
0218726575949602017012207337+45062-093351FM-16+0265KMIC V0203305N00215000615MN0012075N5+00175+00065999999ADDAU100001015AW1105GA1085+000615999GD14991+0006159GE19MSL   +99999+99999GF199999999999000611999999MA1100075096955REMMET09501/22/17 01:33:02 SPECI KMIC 220733Z 33004KT 3/4SM BR OVC002 02/01 A2955 RMK AO2 T00170006 TSNO
0235726575949602017012207537+45062-093351FM-15+0265KMIC V0203305N00215000615WN0004025N5+00175+00065100175ADDAA101000095AU100002015AW1305GA1095+000615999GD15991+0006159GE19MSL   +99999+99999GF109991999999000611999999MA1100105096995REMMET10101/22/17 01:53:02 METAR KMIC 220753Z 33004KT 1/4SM FG VV002 02/01 A2956 RMK AO2 SLP017 T00170006 TSNO
0255726575949602017012208537+45062-093351FM-15+0265KMIC V0203205N00155000915WN0012075N5+00175+00065100235ADDAA101000095AU100001015AW1105GA1095+000915999GD15991+0009159GE19MSL   +99999+99999GF109991999999000911999999MA1100175097055MD1390129+9999REMMET10701/22/17 02:53:02 METAR KMIC 220853Z 32003KT 3/4SM BR VV003 02/01 A2958 RMK AO2 SLP023 T00170006 53012 TSNO
0216726575949602017012209217+45062-093351FM-16+0265KMIC V0203405N00215000615MN0016095N5+00175+00005999999ADDAU100001015AW1105GA1085+000615999GD14991+0006159GE19MSL   +99999+99999GF199999999999000611999999MA1100175097055REMMET09301/22/17 03:21:02 SPECI KMIC 220921Z 34004KT 1SM BR OVC002 02/00 A2958 RMK AO2 T00170000 TSNO
0167726575949602017012209516+45062-093351FM-16+0265KMIC V0203305N00215000615MN0040235N5+00205+00105999999ADDAU100001015AW1105GA1085+000615999GD14991+0006159MA1100205097095REMMET09201/22/17 03:51:02 SPECI KMIC 220951Z 33004KT 2 1/2SM BR OVC002 02/01 A2959 RMK AO2 TSNO FIBI
0238726575949602017012209537+45062-093351FM-15+0265KMIC V0203205N00155000615MN0040235N5+00175+00065100265ADDAA101000095AU100001015AW1105GA1085+000615999GD14991+0006159GE19MSL   +99999+99999GF199999999999000611999999MA1100175097055REMMET10401/22/17 03:53:02 METAR KMIC 220953Z 32003KT 2 1/2SM BR OVC002 02/01 A2958 RMK AO2 SLP026 T00170006 TSNO
0216726575949602017012210047+45062-093351FM-16+0265KMIC V0203205N00155000615MN0048285N5+00115+00005999999ADDAU100001015AW1105GA1085+000615999GD14991+0006159GE19MSL   +99999+99999GF199999999999000611999999MA1100205097095REMMET09301/22/17 04:04:02 SPECI KMIC 221004Z 32003KT 3SM BR OVC002 01/00 A2959 RMK AO2 T00110000 TSNO
0220726575949602017012210467+45062-093351FM-16+0265KMIC V0202905N00215000615MN0040235N5+00115+00005999999ADDAU100001015AW1105GA1085+000615999GD14991+0006159GE19MSL   +99999+99999GF199999999999000611999999MA1100245097125REMMET09701/22/17 04:46:02 SPECI KMIC 221046Z 29004KT 2 1/2SM BR OVC002 01/00 A2960 RMK AO2 T00110000 TSNO
0238726575949602017012210537+45062-093351FM-15+0265KMIC V0203105N00155000615MN0040235N5+00115+00005100335ADDAA101000095AU100001015AW1105GA1085+000615999GD14991+0006159GE19MSL   +99999+99999GF199999999999000611999999MA1100245097125REMMET10401/22/17 04:53:02 METAR KMIC 221053Z 31003KT 2 1/2SM BR OVC002 01/00 A2960 RMK AO2 SLP033 T00110000 TSNO
0216726575949602017012211147+45062-093351FM-16+0265KMIC V0203005N00215000615MN0048285N5+00115+00005999999ADDAU100001015AW1105GA1085+000615999GD14991+0006159GE19MSL   +99999+99999GF199999999999000611999999MA1100275097155REMMET09301/22/17 05:14:02 SPECI KMIC 221114Z 30004KT 3SM BR OVC002 01/00 A2961 RMK AO2 T00110000 TSNO
0220726575949602017012211267+45062-093351FM-16+0265KMIC V0203105N00215000615MN0040235N5+00115+00005999999ADDAU100001015AW1105GA1085+000615999GD14991+0006159GE19MSL   +99999+99999GF199999999999000611999999MA1100275097155REMMET09701/22/17 05:26:02 SPECI KMIC 221126Z 31004KT 2 1/2SM BR OVC002 01/00 A2961 RMK AO2 T00110000 TSNO
0216726575949602017012211347+45062-093351FM-16+0265KMIC V0203205N00215000615MN0048285N5+00115+00005999999ADDAU100001015AW1105GA1085+000615999GD14991+0006159GE19MSL   +99999+99999GF199999999999000611999999MA1100275097155REMMET09301/22/17 05:34:02 SPECI KMIC 221134Z 32004KT 3SM BR OVC002 01/00 A2961 RMK AO2 T00110000 TSNO
0309726575949602017012211537+45062-093351FM-15+0265KMIC V0203205N00265000615MN0048285N5+00115+00005100395ADDAA101000095AA224000391AU100001015AW1105GA1085+000615999GD14991+0006159GE19MSL   +99999+99999GF199999999999000611999999KA1060M+00171KA2060N+00111MA1100305097195MD1390129+9999REMMET12401/22/17 05:53:02 METAR KMIC 221153Z 32005KT 3SM BR OVC002 01/00 A2962 RMK AO2 SLP039 70001 T00110000 10017 20011 53012 TSNO
0216726575949602017012212057+45062-093351FM-16+0265KMIC V0203305N00265000615MN0032195N5+00115+00005999999ADDAU100001015AW1105GA1085+000615999GD14991+0006159GE19MSL   +99999+99999GF199999999999000611999999MA1100305097195REMMET09301/22/17 06:05:02 SPECI KMIC 221205Z 33005KT 2SM BR OVC002 01/00 A2962 RMK AO2 T00110000 TSNO
0220726575949602017012212247+45062-093351FM-16+0265KMIC V0203305N00315000615MN0024145N5+00115+00005999999ADDAU100001015AW1105GA1085+000615999GD14991+0006159GE19MSL   +99999+99999GF199999999999000611999999MA1100305097195REMMET09701/22/17 06:24:02 SPECI KMIC 221224Z 33006KT 1 1/2SM BR OVC002 01/00 A2962 RMK AO2 T00110000 TSNO
0238726575949602017012212537+45062-093351FM-15+0265KMIC V0203405N00365000615MN0020125N5+00115+00005100435ADDAA101000095AU100001015AW1105GA1085+000615999GD14991+0006159GE19MSL   +99999+99999GF199999999999000611999999MA1100345097225REMMET10401/22/17 06:53:02 METAR KMIC 221253Z 34007KT 1 1/4SM BR OVC002 01/00 A2963 RMK AO2 SLP043 T00110000 TSNO
0220726575949602017012213217+45062-093351FM-16+0265KMIC V0203505N00265000615MN0040235N5+00115+00005999999ADDAU100001015AW1105GA1085+000615999GD14991+0006159GE19MSL   +99999+99999GF199999999999000611999999MA1100375097255REMMET09701/22/17 07:21:02 SPECI KMIC 221321Z 35005KT 2 1/2SM BR OVC002 01/00 A2964 RMK AO2 T00110000 (FD)
0216726575949602017012213307+45062-093351FM-16+0265KMIC V0203505N00265000615MN0048285N5+00115+00005999999ADDAU100001015AW1105GA1085+000615999GD14991+0006159GE19MSL   +99999+99999GF199999999999000611999999MA1100375097255REMMET09301/22/17 07:30:02 SPECI KMIC 221330Z 35005KT 3SM BR OVC002 01/00 A2964 RMK AO2 T00110000 (FD)
0234726575949602017012213537+45062-093351FM-15+0265KMIC V0203405N00265000915MN0080475N5+00115+00005100495ADDAA101000095AU100001015AW1105GA1085+000915999GD14991+0009159GE19MSL   +99999+99999GF199999999999000911999999MA1100415097285REMMET10001/22/17 07:53:02 METAR KMIC 221353Z 34005KT 5SM BR OVC003 01/00 A2965 RMK AO2 SLP049 T00110000 (FD)
0254726575949602017012214537+45062-093351FM-15+0265KMIC V0203005N00215001225MN0080475N5+00175+00065100585ADDAA101000095AU100001015AW1105GA1085+001225999GD14991+0012259GE19MSL   +99999+99999GF199999999999001221999999MA1100515097385MD1390209+9999REMMET10601/22/17 08:53:02 METAR KMIC 221453Z 30004KT 5SM BR OVC004 02/01 A2968 RMK AO2 SLP058 T00170006 53020 (FD)
0216726575949602017012215007+45062-093351FM-16+0265KMIC V0203005N00215001525MN0080475N5+00175+00065999999ADDAU100001015AW1105GA1085+001525999GD14991+0015259GE19MSL   +99999+99999GF199999999999001521999999MA1100515097385REMMET09301/22/17 09:00:02 SPECI KMIC 221500Z 30004KT 5SM BR OVC005 02/01 A2968 RMK AO2 T00170006 (FD)
0254726575949602017012215327+45062-093351FM-16+0265KMIC V0203205N00215005795MN0096565N5+00225+00065999999ADDAU100001015AW1105GA1025+001525999GA2085+005795999GD11991+0015259GD24991+0057959GE19MSL   +99999+99999GF199999999999001521999999MA1100545097425REMMET10001/22/17 09:32:02 SPECI KMIC 221532Z 32004KT 6SM BR FEW005 OVC019 02/01 A2969 RMK AO2 T00220006 (FD)
0214726575949602017012215537+45062-093351FM-15+0265KMIC V0203405N00215006105MN0112655N5+00225+00065100645ADDAA101000095GA1085+006105999GD14991+0061059GE19MSL   +99999+99999GF199999999999006101999999MA1100585097455REMMET09701/22/17 09:53:02 METAR KMIC 221553Z 34004KT 7SM OVC020 02/01 A2970 RMK AO2 SLP064 T00220006 (FD)
0234726575949602017012216137+45062-093351FM-16+0265KMIC V0203305N00265006105MN0128755N5+00285+00065999999ADDGA1025+001525999GA2085+006105999GD11991+0015259GD24991+0061059GE19MSL   +99999+99999GF199999999999001521999999MA1100585097455REMMET09701/22/17 10:13:02 SPECI KMIC 221613Z 33005KT 8SM FEW005 OVC020 03/01 A2970 RMK AO2 T00280006 (FD)
0291726575949602017012216537+45062-093351FM-15+0265KMIC V0203305N00215006405MN0160935N5+00335+00115100705ADDAA101000095GA1025+001835999GA2045+004575999GA3085+006405999GD11991+0018359GD22991+0045759GD34991+0064059GE19MSL   +99999+99999GF199999999999001831999999MA1100615097485REMMET11201/22/17 10:53:02 METAR KMIC 221653Z 33004KT 10SM FEW006 SCT015 OVC021 03/01 A2971 RMK AO2 SLP070 T00330011 (FD)
0235726575949602017012217097+45062-093351FM-16+0265KMIC V0203205N00315004275MN0160935N5+00335+00115999999ADDGA1025+002135999GA2085+004275999GD11991+0021359GD24991+0042759GE19MSL   +99999+99999GF199999999999002131999999MA1100615097485REMMET09801/22/17 11:09:02 SPECI KMIC 221709Z 32006KT 10SM FEW007 OVC014 03/01 A2971 RMK AO2 T00330011 (FD)
0235726575949602017012217447+45062-093351FM-16+0265KMIC V0203405N00365002445MN0160935N5+00395+00115999999ADDGA1075+002445999GA2085+003965999GD13991+0024459GD24991+0039659GE19MSL   +99999+99999GF199999999999002441999999MA1100615097485REMMET09801/22/17 11:44:02 SPECI KMIC 221744Z 34007KT 10SM BKN008 OVC013 04/01 A2971 RMK AO2 T00390011 (FD)
0311726575949602017012217537+45062-093351FM-15+0265KMIC V0203105N00315002445MN0160935N5+00335+00115100685ADDAA101000095GA1075+002445999GA2085+003965999GD13991+0024459GD24991+0039659GE19MSL   +99999+99999GF199999999999002441999999KA1060M+00391KA2060N+00111MA1100615097485MD1090099+9999REMMET12301/22/17 11:53:02 METAR KMIC 221753Z 31006KT 10SM BKN008 OVC013 03/01 A2971 RMK AO2 SLP068 T00330011 10039 20011 50009 (FD)
0215726575949602017012218537+45062-093351FM-15+0265KMIC V0202905N00315002445MN0160935N5+00395+00115100665ADDAA101000095GA1085+002445999GD14991+0024459GE19MSL   +99999+99999GF199999999999002441999999MA1100585097455REMMET09801/22/17 12:53:02 METAR KMIC 221853Z 29006KT 10SM OVC008 04/01 A2970 RMK AO2 SLP066 T00390011 (FD)
0235726575949602017012219437+45062-093351FM-16+0265KMIC V0203005N00265003355MN0160935N5+00445+00115999999ADDGA1075+003355999GA2085+009145999GD13991+0033559GD24991+0091459GE19MSL   +99999+99999GF199999999999003351999999MA1100585097455REMMET09801/22/17 13:43:02 SPECI KMIC 221943Z 30005KT 10SM BKN011 OVC030 04/01 A2970 RMK AO2 T00440011 (FD)
0253726575949602017012219537+45062-093351FM-15+0265KMIC V0202905N00315003355MN0160935N5+00445+00115100655ADDAA101000095GA1075+003355999GA2085+005795999GD13991+0033559GD24991+0057959GE19MSL   +99999+99999GF199999999999003351999999MA1100585097455REMMET10501/22/17 13:53:02 METAR KMIC 221953Z 29006KT 10SM BKN011 OVC019 04/01 A2970 RMK AO2 SLP065 T00440011 (FD)
0235726575949602017012220247+45062-093351FM-16+0265KMIC V0203005N00315007625MN0160935N5+00445+00115999999ADDGA1045+003355999GA2085+007625999GD12991+0033559GD24991+0076259GE19MSL   +99999+99999GF199999999999003351999999MA1100615097485REMMET09801/22/17 14:24:02 SPECI KMIC 222024Z 30006KT 10SM SCT011 OVC025 04/01 A2971 RMK AO2 T00440011 (FD)
0273726575949602017012220537+45062-093351FM-15+0265KMIC V0202805N00265003665MN0160935N5+00395+00115100685ADDAA101000095GA1075+003665999GA2085+008535999GD13991+0036659GD24991+0085359GE19MSL   +99999+99999GF199999999999003661999999MA1100615097485MD1590009+9999REMMET11101/22/17 14:53:02 METAR KMIC 222053Z 28005KT 10SM BKN012 OVC028 04/01 A2971 RMK AO2 SLP068 T00390011 55000 (FD)
0214726575949602017012221537+45062-093351FM-15+0265KMIC V0202905N00365003055MN0144845N5+00395+00115100715ADDAA101000095GA1085+003055999GD14991+0030559GE19MSL   +99999+99999GF199999999999003051999999MA1100645097525REMMET09701/22/17 15:53:02 METAR KMIC 222153Z 29007KT 9SM OVC010 04/01 A2972 RMK AO2 SLP071 T00390011 (FD)
0234726575949602017012222417+45062-093351FM-16+0265KMIC V0202805N00415002445MN0112655N5+00335+00115999999ADDGA1075+002445999GA2085+004275999GD13991+0024459GD24991+0042759GE19MSL   +99999+99999GF199999999999002441999999MA1100685097555REMMET09701/22/17 16:41:02 SPECI KMIC 222241Z 28008KT 7SM BKN008 OVC014 03/01 A2973 RMK AO2 T00330011 (FD)
0252726575949602017012222537+45062-093351FM-15+0265KMIC V0202905N00265002445MN0112655N5+00335+00115100755ADDAA101000095GA1075+002445999GA2085+004275999GD13991+0024459GD24991+0042759GE19MSL   +99999+99999GF199999999999002441999999MA1100685097555REMMET10401/22/17 16:53:02 METAR KMIC 222253Z 29005KT 7SM BKN008 OVC014 03/01 A2973 RMK AO2 SLP075 T00330011 (FD)
0292726575949602017012223537+45062-093351FM-15+0265KMIC V0202705N00215001835MN0096565N5+00285+00115100805ADDAA101000095AU100001015AW1105GA1085+001835999GD14991+0018359GE19MSL   +99999+99999GF199999999999001831999999KA1060M+00441KA2060N+00281MA1100715097585MD1390129+9999REMMET11801/22/17 17:53:02 METAR KMIC 222353Z 27004KT 6SM BR OVC006 03/01 A2974 RMK AO2 SLP080 T00280011 10044 20028 53012 (FD)
0209726575949602017012300537+45062-093351FM-15+0265KMIC V0203005N00315001835MN0112655N5+00285+00065100825ADDAA101000095GA1085+001835999GD14991+0018359GE19MSL   +99999+99999GF199999999999001831999999MA1100755097615REMMET09201/22/17 18:53:01 METAR KMIC 230053Z 30006KT 7SM OVC006 03/01 A2975 RMK AO2 SLP082 T00280006
0229726575949602017012301537+45062-093351FM-15+0265KMIC V0202805N00315001525MN0064375N5+00225+00065100855ADDAA101000095AU100001015AW1105GA1085+001525999GD14991+0015259GE19MSL   +99999+99999GF199999999999001521999999MA1100785097655REMMET09501/22/17 19:53:01 METAR KMIC 230153Z 28006KT 4SM BR OVC005 02/01 A2976 RMK AO2 SLP085 T00220006
0219726575949602017012302487+45062-093351FM-16+0265KMIC V0202605N00315003665MN0112655N5+00205+00005999999ADDGA1045+001835999GA2085+003665999GD12991+0018359GD24991+0036659GE19MSL   +99999+99999GF199999999999001831999999MA1100785097655REMMET08201/22/17 20:48:02 SPECI KMIC 230248Z 26006KT 7SM SCT006 OVC012 02/00 A2976 RMK AO2
0267726575949602017012302537+45062-093351FM-15+0265KMIC V0202705N00265003665MN0112655N5+00175+00005100885ADDAA101000095GA1025+001835999GA2085+003665999GD11991+0018359GD24991+0036659GE19MSL   +99999+99999GF199999999999001831999999MA1100815097685MD1190059+9999REMMET10501/22/17 20:53:02 METAR KMIC 230253Z 27005KT 7SM FEW006 OVC012 02/00 A2977 RMK AO2 SLP088 T00170000 51005
0249726575949602017012303337+45062-093351FM-16+0265KMIC V0202505N00415004575MN0080475N5+00175+00005999999ADDAU100001015AW1105GA1045+002135999GA2085+004575999GD12991+0021359GD24991+0045759GE19MSL   +99999+99999GF199999999999002131999999MA1100815097685REMMET09501/22/17 21:33:02 SPECI KMIC 230333Z 25008KT 5SM BR SCT007 OVC015 02/00 A2977 RMK AO2 T00170000
0249726575949602017012303457+45062-093351FM-16+0265KMIC V0202505N00465001525MN0096565N5+00175+00005999999ADDAU100001015AW1105GA1075+001525999GA2085+004575999GD13991+0015259GD24991+0045759GE19MSL   +99999+99999GF199999999999001521999999MA1100815097685REMMET09501/22/17 21:45:02 SPECI KMIC 230345Z 25009KT 6SM BR BKN005 OVC015 02/00 A2977 RMK AO2 T00170000
0230726575949602017012303537+45062-093351FM-15+0265KMIC V0202505N00415001525MN0096565N5+00175-00065100915ADDAA101000095AU100001015AW1105GA1085+001525999GD14991+0015259GE19MSL   +99999+99999GF199999999999001521999999MA1100855097715REMMET09601/22/17 21:53:02 METAR KMIC 230353Z 25008KT 6SM BR OVC005 02/M01 A2978 RMK AO2 SLP091 T00171006
0230726575949602017012304537+45062-093351FM-15+0265KMIC V0202705N00365001525MN0064375N5+00115-00065100935ADDAA101000095AU100001015AW1105GA1085+001525999GD14991+0015259GE19MSL   +99999+99999GF199999999999001521999999MA1100855097715REMMET09601/22/17 22:53:02 METAR KMIC 230453Z 27007KT 4SM BR OVC005 01/M01 A2978 RMK AO2 SLP093 T00111006
0216726575949602017012305457+45062-093351FM-16+0265KMIC V0202705N00265001525MN0040235N5+00115-00065999999ADDAU100001015AW1105GA1085+001525999GD14991+0015259GE19MSL   +99999+99999GF199999999999001521999999MA1100815097685REMMET09301/22/17 23:45:02 SPECI KMIC 230545Z 27005KT 2 1/2SM BR OVC005 01/M01 A2977 RMK AO2 T00111006
0163726575949602017012305516+45062-093351FM-16+0265KMIC V0202705N00415001225MN0040235N5+00105-00105999999ADDAU100001015AW1105GA1085+001225999GD14991+0012259MA1100815097685REMMET08801/22/17 23:51:03 SPECI KMIC 230551Z 27008KT 2 1/2SM BR OVC004 01/M01 A2977 RMK AO2 FIBI
0328726575949602017012305537+45062-093351FM-15+0265KMIC V0202805N00315001225MN0040235N5+00115-00065100895ADDAA101000095AU100001015AW1105GA1085+001225999GD14991+0012259GE19MSL   +99999+99999GF199999999999001221999999KA1060M+00281KA2060N+00111KA3240M+00441KA4240N+00111MA1100815097685MD1890019+9999REMMET12801/22/17 23:53:02 METAR KMIC 230553Z 28006KT 2 1/2SM BR OVC004 01/M01 A2977 RMK AO2 SLP089 T00111006 10028 20011 400440011 58001
0910726575949602017012305596+45062-093351SOD  +0265KMIC V020999999999999999999999999999+99999+99999999999ADDAA124000095AT1AU01FG  5AT2AU13BR  5KA1240M+00445KA2240N+00115MG1097484100104OE11240076029019215OE22240053625022075OE33240026499999995REMSOD73024 HR PRECIPITATION (IN):0.00  24 HR MAX TEMP (F):40 24 HR MAX TEMP TIME (LST):1449 24 HR MIN TEMP (F):34 24 HR MIN TEMP TIME (LST):2359 AVERAGE STATION PRESSURE:28.785 MINIMUM SEA LEVEL PRESSURE:29.56 TIME OF OCCURRENCE:0046 PEAK WIND SPEED (MPH):17  PEAK WIND DIR (DEG):290 PEAK WIND TIME (LST):1921  FASTEST 2MIN SPEED (MPH):12 FASTEST 2MIN DIR (DEG):250 FASTEST 2MIN TIME (LST):2207 AVERAGE WIND SPEED (MPH):5.9  24 HR AVG TEMP (F):37 HEATING DEGREE DAYS:28  COOLING DEGREE DAYS:0   LATEST DAY MAX TEMP (0700-1900 LST):40  LATEST NIGHT MIN TEMP(1900-0800 LST):34 HOURLY INCREMENTAL PRECIPITATION VALUES (IN):.00 0.00 0.00 0.00 0.00 0.00 0.00 0.00 0.00 0.00 0.00 0.00 0.00 0.00 0.00 0.00 0.00 0.00 0.00 0.00 0.00 0.00 0.00 0.00EQDR01     N7GJS072R02     N7GKS075
0212726575949602017012306027+45062-093351FM-16+0265KMIC V0202805N00315001525MN0048285N5+00115-00115999999ADDAU100001015AW1105GA1085+001525999GD14991+0015259GE19MSL   +99999+99999GF199999999999001521999999MA1100815097685REMMET08901/23/17 00:02:02 SPECI KMIC 230602Z 28006KT 3SM BR OVC005 01/M01 A2977 RMK AO2 T00111011
0230726575949602017012306537+45062-093351FM-15+0265KMIC V0202905N00215001525MN0080475N5+00065-00115100895ADDAA101000095AU100001015AW1105GA1085+001525999GD14991+0015259GE19MSL   +99999+99999GF199999999999001521999999MA1100815097685REMMET09601/23/17 00:53:02 METAR KMIC 230653Z 29004KT 5SM BR OVC005 01/M01 A2977 RMK AO2 SLP089 T00061011
0230726575949602017012307537+45062-093351FM-15+0265KMIC V0202705N00155001835MN0080475N5+00115-00065100975ADDAA101000095AU100001015AW1105GA1085+001835999GD14991+0018359GE19MSL   +99999+99999GF199999999999001831999999MA1100885097755REMMET09601/23/17 01:53:02 METAR KMIC 230753Z 27003KT 5SM BR OVC006 01/M01 A2979 RMK AO2 SLP097 T00111006
0250726575949602017012308537+45062-093351FM-15+0265KMIC V0202805N00265001525MN0048285N5+00115-00115101015ADDAA101000095AU100001015AW1105GA1085+001525999GD14991+0015259GE19MSL   +99999+99999GF199999999999001521999999MA1100915097785MD1390119+9999REMMET10201/23/17 02:53:02 METAR KMIC 230853Z 28005KT 3SM BR OVC005 01/M01 A2980 RMK AO2 SLP101 T00111011 53011
0212726575949602017012309337+45062-093351FM-16+0265KMIC V0203005N00265001225MN0048285N5+00065-00065999999ADDAU100001015AW1105GA1085+001225999GD14991+0012259GE19MSL   +99999+99999GF199999999999001221999999MA1100915097785REMMET08901/23/17 03:33:02 SPECI KMIC 230933Z 30005KT 3SM BR OVC004 01/M01 A2980 RMK AO2 T00061006
0202726575949602017012309487+45062-093351FM-16+0265KMIC V0202805N00215001525MN0064375N5+00105-00105999999ADDAU100001015AW1105GA1085+001525999GD14991+0015259GE19MSL   +99999+99999GF199999999999001521999999MA1100915097785REMMET07901/23/17 03:48:02 SPECI KMIC 230948Z 28004KT 4SM BR OVC005 01/M01 A2980 RMK AO2
0230726575949602017012309537+45062-093351FM-15+0265KMIC V0202905N00265001525MN0064375N5+00065-00115100995ADDAA101000095AU100001015AW1105GA1085+001525999GD14991+0015259GE19MSL   +99999+99999GF199999999999001521999999MA1100915097785REMMET09601/23/17 03:53:02 METAR KMIC 230953Z 29005KT 4SM BR OVC005 01/M01 A2980 RMK AO2 SLP099 T00061011
0230726575949602017012310537+45062-093351FM-15+0265KMIC V0202705N00215001525MN0064375N5+00065-00115100975ADDAA101000095AU100001015AW1105GA1085+001525999GD14991+0015259GE19MSL   +99999+99999GF199999999999001521999999MA1100885097755REMMET09601/23/17 04:53:02 METAR KMIC 231053Z 27004KT 4SM BR OVC005 01/M01 A2979 RMK AO2 SLP097 T00061011
0216726575949602017012311147+45062-093351FM-16+0265KMIC V0202805N00215001835MN0040235N5+00065-00115999999ADDAU100001015AW1105GA1085+001835999GD14991+0018359GE19MSL   +99999+99999GF199999999999001831999999MA1100885097755REMMET09301/23/17 05:14:02 SPECI KMIC 231114Z 28004KT 2 1/2SM BR OVC006 01/M01 A2979 RMK AO2 T00061011
0206726575949602017012311517+45062-093351FM-16+0265KMIC V0202605N00215001225MN0040235N5+00105-00105999999ADDAU100001015AW1105GA1085+001225999GD14991+0012259GE19MSL   +99999+99999GF199999999999001221999999MA1100885097755REMMET08301/23/17 05:51:02 SPECI KMIC 231151Z 26004KT 2 1/2SM BR OVC004 01/M01 A2979 RMK AO2
0292726575949602017012311537+45062-093351FM-15+0265KMIC V0202605N00155001225MN0040235N5+00065-00065100985ADDAA101000095AU100001015AW1105GA1085+001225999GD14991+0012259GE19MSL   +99999+99999GF199999999999001221999999KA1060M+00111KA2060N+00061MA1100885097755MD1690029+9999REMMET11801/23/17 05:53:02 METAR KMIC 231153Z 26003KT 2 1/2SM BR OVC004 01/M01 A2979 RMK AO2 SLP098 T00061006 10011 20006 56002
0212726575949602017012312157+45062-093351FM-16+0265KMIC V0202705N00265001225MN0048285N5+00065-00115999999ADDAU100001015AW1105GA1085+001225999GD14991+0012259GE19MSL   +99999+99999GF199999999999001221999999MA1100915097785REMMET08901/23/17 06:15:02 SPECI KMIC 231215Z 27005KT 3SM BR OVC004 01/M01 A2980 RMK AO2 T00061011
0212726575949602017012312347+45062-093351FM-16+0265KMIC V0202705N00265001525MN0048285N5+00065-00115999999ADDAU100001015AW1105GA1085+001525999GD14991+0015259GE19MSL   +99999+99999GF199999999999001521999999MA1100885097755REMMET08901/23/17 06:34:02 SPECI KMIC 231234Z 27005KT 3SM BR OVC005 01/M01 A2979 RMK AO2 T00061011
0230726575949602017012312537+45062-093351FM-15+0265KMIC V0202705N00265001525MN0048285N5+00065-00115100985ADDAA101000095AU100001015AW1105GA1085+001525999GD14991+0015259GE19MSL   +99999+99999GF199999999999001521999999MA1100885097755REMMET09601/23/17 06:53:02 METAR KMIC 231253Z 27005KT 3SM BR OVC005 01/M01 A2979 RMK AO2 SLP098 T00061011
0257726575949602017012313537+45062-093351FM-15+0265KMIC V0202805N00265002745MN0064375N5+00065-00115101015ADDAA101000025AU100001015AW1105GA1085+002745999GD14991+0027451GE19MSL   +99999+99999GF199999999999002741999999MA1100915097785REMMET12301/23/17 07:53:02 METAR KMIC 231353Z 28005KT 4SM BR OVC009 01/M01 A2980 RMK AO2 SNB18E28 CIG 007V012 SLP101 P0000 T00061011
0298726575949602017012314027+45062-093351FM-16+0265KMIC V0202805N00215002745MN0028165N5+00065-00115999999ADDAA101000021AU110030015AU200001015AW1105AW2715GA1075+002745999GA2085+006105999GD13991+0027459GD24991+0061059GE19MSL   +99999+99999GF199999999999002741999999MA1100915097785REMMET11601/23/17 08:02:02 SPECI KMIC 231402Z 28004KT 1 3/4SM -SN BR BKN009 OVC020 01/M01 A2980 RMK AO2 SNB00 P0000 T00061011
0317726575949602017012314537+45062-093351FM-15+0265KMIC V0209999C00005001835MN0028165N5+00065-00115100975ADDAA101000025AA203000021AU100001015AW1105GA1085+001835999GD14991+0018351GE19MSL   +99999+99999GF199999999999001831999999MA1100885097755MD1890009+9999REMMET13901/23/17 08:53:02 METAR KMIC 231453Z 00000KT 1 3/4SM BR OVC006 01/M01 A2979 RMK AO2 SNB00E50 CIG 004V010 SLP097 P0000 60000 T00061011 58000EQDQ01  00008PRCP03
0228726575949602017012315007+45062-093351FM-16+0265KMIC V0202805N00155001835MN0040235N5+00065-00115999999ADDAU100001015AW1105GA1085+001835999GD14991+0018351GE19MSL   +99999+99999GF199999999999001831999999MA1100885097755REMMET10501/23/17 09:00:02 SPECI KMIC 231500Z 28003KT 2 1/2SM BR OVC006 01/M01 A2979 RMK AO2 CIG 004V009 T00061011
0212726575949602017012315127+45062-093351FM-16+0265KMIC V0202805N00215001835MN0048285N5+00065-00175999999ADDAU100001015AW1105GA1085+001835999GD14991+0018359GE19MSL   +99999+99999GF199999999999001831999999MA1100915097785REMMET08901/23/17 09:12:02 SPECI KMIC 231512Z 28004KT 3SM BR OVC006 01/M02 A2980 RMK AO2 T00061017
0230726575949602017012315537+45062-093351FM-15+0265KMIC V0209999C00005002135MN0064375N5+00115-00115101005ADDAA101000095AU100001015AW1105GA1085+002135999GD14991+0021359GE19MSL   +99999+99999GF199999999999002131999999MA1100915097785REMMET09601/23/17 09:53:02 METAR KMIC 231553Z 00000KT 4SM BR OVC007 01/M01 A2980 RMK AO2 SLP100 T00111011
0230726575949602017012316537+45062-093351FM-15+0265KMIC V0202505N00265002445MN0080475N5+00115-00115101105ADDAA101000095AU100001015AW1105GA1085+002445999GD14991+0024459GE19MSL   +99999+99999GF199999999999002441999999MA1101025097885REMMET09601/23/17 10:53:02 METAR KMIC 231653Z 25005KT 5SM BR OVC008 01/M01 A2983 RMK AO2 SLP110 T00111011
0262726575949602017012317027+45062-093351FM-16+0265KMIC V0202605N00265003055MN0080475N5+00115-00115999999ADDAU100001015AW1105GA1075+003055999GA2085+006105999GD13991+0030551GD24991+0061059GE19MSL   +99999+99999GF199999999999003051999999MA1101025097885REMMET10801/23/17 11:02:02 SPECI KMIC 231702Z 26005KT 5SM BR BKN010 OVC020 01/M01 A2983 RMK AO2 CIG 008V013 T00111011
0285726575949602017012317537+45062-093351FM-15+0265KMIC V0202305N00315003965MN0112655N5+00115-00175101075ADDAA101000095AA206000021GA1085+003965999GD14991+0039659GE19MSL   +99999+99999GF199999999999003961999999KA1060M+00111KA2060N+00061MA1100985097855MD1090099+9999REMMET11701/23/17 11:53:02 METAR KMIC 231753Z 23006KT 7SM OVC013 01/M02 A2982 RMK AO2 SLP107 60000 T00111017 10011 20006 50009
0230726575949602017012318127+45062-093351FM-16+0265KMIC V0202305N00365005185MN0112655N5+00115-00175999999ADDGA1045+003355999GA2085+005185999GD12991+0033559GD24991+0051859GE19MSL   +99999+99999GF199999999999003351999999MA1100985097855REMMET09301/23/17 12:12:02 SPECI KMIC 231812Z 23007KT 7SM SCT011 OVC017 01/M02 A2982 RMK AO2 T00111017
0210726575949602017012318537+45062-093351FM-15+0265KMIC V0202305N00265004885MN0144845N5+00115-00225101055ADDAA101000095GA1085+004885999GD14991+0048859GE19MSL   +99999+99999GF199999999999004881999999MA1100955097815REMMET09301/23/17 12:53:02 METAR KMIC 231853Z 23005KT 9SM OVC016 01/M02 A2981 RMK AO2 SLP105 T00111022
0192726575949602017012319097+45062-093351FM-16+0265KMIC V0202305N00315003965MN0144845N5+00115-00225999999ADDGA1085+003965999GD14991+0039659GE19MSL   +99999+99999GF199999999999003961999999MA1100955097815REMMET08601/23/17 13:09:02 SPECI KMIC 231909Z 23006KT 9SM OVC013 01/M02 A2981 RMK AO2 T00111022
0192726575949602017012319217+45062-093351FM-16+0265KMIC V0202505N00315004575MN0144845N5+00115-00225999999ADDGA1085+004575999GD14991+0045759GE19MSL   +99999+99999GF199999999999004571999999MA1100955097815REMMET08601/23/17 13:21:02 SPECI KMIC 231921Z 25006KT 9SM OVC015 01/M02 A2981 RMK AO2 T00111022
0210726575949602017012319537+45062-093351FM-15+0265KMIC V0202305N00215004885MN0144845N5+00115-00225101005ADDAA101000095GA1085+004885999GD14991+0048859GE19MSL   +99999+99999GF199999999999004881999999MA1100915097785REMMET09301/23/17 13:53:02 METAR KMIC 231953Z 23004KT 9SM OVC016 01/M02 A2980 RMK AO2 SLP100 T00111022
0230726575949602017012320117+45062-093351FM-16+0265KMIC V0202405N00155003965MN0112655N5+00115-00225999999ADDGA1075+003965999GA2085+005795999GD13991+0039659GD24991+0057959GE19MSL   +99999+99999GF199999999999003961999999MA1100915097785REMMET09301/23/17 14:11:02 SPECI KMIC 232011Z 24003KT 7SM BKN013 OVC019 01/M02 A2980 RMK AO2 T00111022
0261726575949602017012320537+45062-093351FM-15+0265KMIC V0209999C00005003965MN0096565N5+00115-00175100995ADDAA101000095AU100007015AW1051GA1085+003965999GD14991+0039659GE19MSL   +99999+99999GF199999999999003961999999MA1100915097785MD1690079+9999MW1055REMMET10701/23/17 14:53:02 METAR KMIC 232053Z 00000KT 6SM HZ OVC013 01/M02 A2980 RMK AO2 SLP099 T00111017 56007 (FD)
0235726575949602017012321067+45062-093351FM-16+0265KMIC V0202905N00155002745MN0080475N5+00115-00175999999ADDAU100007015AW1051GA1085+002745999GD14991+0027451GE19MSL   +99999+99999GF199999999999002741999999MA1100915097785MW1055REMMET10601/23/17 15:06:02 SPECI KMIC 232106Z 29003KT 5SM HZ OVC009 01/M02 A2980 RMK AO2 CIG 008V014 T00111017 (FD)
0229726575949602017012321267+45062-093351FM-16+0265KMIC V0202905N00215003055MN0096565N5+00065-00175999999ADDAU100001015AW1105GA1085+003055999GD14991+0030551GE19MSL   +99999+99999GF199999999999003051999999MA1100915097785REMMET10601/23/17 15:26:02 SPECI KMIC 232126Z 29004KT 6SM BR OVC010 01/M02 A2980 RMK AO2 CIG 008V013 T00061017 (FD)
0235726575949602017012321537+45062-093351FM-15+0265KMIC V0203005N00215003055MN0096565N5+00065-00175101045ADDAA101000095AU100001015AW1105GA1085+003055999GD14991+0030559GE19MSL   +99999+99999GF199999999999003051999999MA1100955097815REMMET10101/23/17 15:53:02 METAR KMIC 232153Z 30004KT 6SM BR OVC010 01/M02 A2981 RMK AO2 SLP104 T00061017 (FD)
0241726575949602017012322537+45062-093351FM-15+0265KMIC V0202905N00155004275MN0096565N5+00065-00225101065ADDAA101000095AU100007015AW1051GA1085+004275999GD14991+0042759GE19MSL   +99999+99999GF199999999999004271999999MA1100985097855MW1055REMMET10101/23/17 16:53:02 METAR KMIC 232253Z 29003KT 6SM HZ OVC014 01/M02 A2982 RMK AO2 SLP106 T00061022 (FD)
0235726575949602017012323457+45062-093351FM-16+0265KMIC V0202905N00215005185MN0128755N5+00065-00225999999ADDGA1025+003355999GA2085+005185999GD11991+0033559GD24991+0051859GE19MSL   +99999+99999GF199999999999003351999999MA1101025097885REMMET09801/23/17 17:45:02 SPECI KMIC 232345Z 29004KT 8SM FEW011 OVC017 01/M02 A2983 RMK AO2 T00061022 (FD)
0311726575949602017012323537+45062-093351FM-15+0265KMIC V0202905N00215005185MN0128755N5+00065-00225101095ADDAA101000095GA1025+003355999GA2085+005185999GD11991+0033559GD24991+0051859GE19MSL   +99999+99999GF199999999999003351999999KA1060M+00111KA2060N+00061MA1101025097885MD1190099+9999REMMET12301/23/17 17:53:02 METAR KMIC 232353Z 29004KT 8SM FEW011 OVC017 01/M02 A2983 RMK AO2 SLP109 T00061022 10011 20006 51009 (FD)
0210726575949602017012400537+45062-093351FM-15+0265KMIC V0209999C00005005495MN0128755N5+00065-00225101085ADDAA101000095GA1085+005495999GD14991+0054959GE19MSL   +99999+99999GF199999999999005491999999MA1100985097855REMMET09301/23/17 18:53:01 METAR KMIC 240053Z 00000KT 8SM OVC018 01/M02 A2982 RMK AO2 SLP108 T00061022
0210726575949602017012401537+45062-093351FM-15+0265KMIC V0203005N00155005495MN0112655N5+00065-00225101085ADDAA101000095GA1085+005495999GD14991+0054959GE19MSL   +99999+99999GF199999999999005491999999MA1100985097855REMMET09301/23/17 19:53:01 METAR KMIC 240153Z 30003KT 7SM OVC018 01/M02 A2982 RMK AO2 SLP108 T00061022
0230726575949602017012402537+45062-093351FM-15+0265KMIC V0203005N00265005495MN0144845N5+00065-00335101095ADDAA101000095GA1085+005495999GD14991+0054959GE19MSL   +99999+99999GF199999999999005491999999MA1101025097885MD1390009+9999REMMET09901/23/17 20:53:01 METAR KMIC 240253Z 30005KT 9SM OVC018 01/M03 A2983 RMK AO2 SLP109 T00061033 53000
0192726575949602017012403197+45062-093351FM-16+0265KMIC V0203105N00265004275MN0128755N5+00065-00335999999ADDGA1085+004275999GD14991+0042759GE19MSL   +99999+99999GF199999999999004271999999MA1101025097885REMMET08601/23/17 21:19:02 SPECI KMIC 240319Z 31005KT 8SM OVC014 01/M03 A2983 RMK AO2 T00061033
0210726575949602017012403537+45062-093351FM-15+0265KMIC V0203305N00215003965MN0112655N5+00065-00335101135ADDAA101000095GA1085+003965999GD14991+0039659GE19MSL   +99999+99999GF199999999999003961999999MA1101055097915REMMET09301/23/17 21:53:02 METAR KMIC 240353Z 33004KT 7SM OVC013 01/M03 A2984 RMK AO2 SLP113 T00061033
0210726575949602017012404537+45062-093351FM-15+0265KMIC V0209999C00005004275MN0144845N5+00005-00335101145ADDAA101000095GA1085+004275999GD14991+0042759GE19MSL   +99999+99999GF199999999999004271999999MA1101055097915REMMET09301/23/17 22:53:02 METAR KMIC 240453Z 00000KT 9SM OVC014 00/M03 A2984 RMK AO2 SLP114 T00001033
0304726575949602017012405537+45062-093351FM-15+0265KMIC V0202905N00215004275MN0128755N5+00005-00335101155ADDAA101000095GA1085+004275999GD14991+0042759GE19MSL   +99999+99999GF199999999999004271999999KA1060M+00061KA2060N+00001KA3240M+00111KA4240N+00001MA1101055097915MD1190059+9999REMMET12101/23/17 23:53:02 METAR KMIC 240553Z 29004KT 8SM OVC014 00/M03 A2984 RMK AO2 SLP115 T00001033 10006 20000 400110000 51005
0922726575949602017012405596+45062-093351SOD  +0265KMIC V020999999999999999999999999999+99999+99999999999ADDAA124000025AT1AU18SN  5AT2AU13BR  5AT3AU08HZ  5KA1240M+00115KA2240N+00005MG1097834100884OE11240053628000495OE22240040229020425OE33240017499999995REMSOD73024 HR PRECIPITATION (IN):T     24 HR MAX TEMP (F):34 24 HR MAX TEMP TIME (LST):1507 24 HR MIN TEMP (F):32 24 HR MIN TEMP TIME (LST):2359 AVERAGE STATION PRESSURE:28.890 MINIMUM SEA LEVEL PRESSURE:29.79 TIME OF OCCURRENCE:0058 PEAK WIND SPEED (MPH):12  PEAK WIND DIR (DEG):280 PEAK WIND TIME (LST):0049  FASTEST 2MIN SPEED (MPH):9  FASTEST 2MIN DIR (DEG):290 FASTEST 2MIN TIME (LST):2042 AVERAGE WIND SPEED (MPH):3.9  24 HR AVG TEMP (F):33 HEATING DEGREE DAYS:32  COOLING DEGREE DAYS:0   LATEST DAY MAX TEMP (0700-1900 LST):34  LATEST NIGHT MIN TEMP(1900-0800 LST):33 HOURLY INCREMENTAL PRECIPITATION VALUES (IN):.00 0.00 0.00 0.00 0.00 0.00 0.00 T    T    0.00 0.00 0.00 0.00 0.00 0.00 0.00 0.00 0.00 0.00 0.00 0.00 0.00 0.00 0.00EQDR01     N7GJS072R02     N7GKS075
0210726575949602017012406537+45062-093351FM-15+0265KMIC V0203305N00155004275MN0144845N5+00005-00395101175ADDAA101000095GA1085+004275999GD14991+0042759GE19MSL   +99999+99999GF199999999999004271999999MA1101085097945REMMET09301/24/17 00:53:02 METAR KMIC 240653Z 33003KT 9SM OVC014 00/M04 A2985 RMK AO2 SLP117 T00001039
0210726575949602017012407537+45062-093351FM-15+0265KMIC V0203105N00315003965MN0128755N5+00005-00395101205ADDAA101000095GA1085+003965999GD14991+0039659GE19MSL   +99999+99999GF199999999999003961999999MA1101125097985REMMET09301/24/17 01:53:02 METAR KMIC 240753Z 31006KT 8SM OVC013 00/M04 A2986 RMK AO2 SLP120 T00001039
0230726575949602017012408537+45062-093351FM-15+0265KMIC V0203305N00365004575MN0128755N5+00005-00395101225ADDAA101000095GA1085+004575999GD14991+0045759GE19MSL   +99999+99999GF199999999999004571999999MA1101155098015MD1290079+9999REMMET09901/24/17 02:53:02 METAR KMIC 240853Z 33007KT 8SM OVC015 00/M04 A2987 RMK AO2 SLP122 T00001039 52007
0210726575949602017012409537+45062-093351FM-15+0265KMIC V0203405N00155004885MN0128755N5+00005-00395101215ADDAA101000095GA1085+004885999GD14991+0048859GE19MSL   +99999+99999GF199999999999004881999999MA1101125097985REMMET09301/24/17 03:53:02 METAR KMIC 240953Z 34003KT 8SM OVC016 00/M04 A2986 RMK AO2 SLP121 T00001039
0210726575949602017012410537+45062-093351FM-15+0265KMIC V0203305N00155005185MN0144845N5+00005-00445101215ADDAA101000095GA1085+005185999GD14991+0051859GE19MSL   +99999+99999GF199999999999005181999999MA1101125097985REMMET09301/24/17 04:53:02 METAR KMIC 241053Z 33003KT 9SM OVC017 00/M04 A2986 RMK AO2 SLP121 T00001044
0269726575949602017012411537+45062-093351FM-15+0265KMIC V0200405N00155004885MN0160935N5+00005-00445101245ADDAA101000095GA1085+004885999GD14991+0048859GE19MSL   +99999+99999GF199999999999004881999999KA1060M+00001KA2060N-00061MA1101155098015MD1390019+9999REMMET11201/24/17 05:53:02 METAR KMIC 241153Z 04003KT 10SM OVC016 00/M04 A2987 RMK AO2 SLP124 T00001044 10000 21006 53001
0217726575949602017012412537+45062-093351FM-15+0265KMIC V0200605N00215005185MN0160935N5-00065-00505101305ADDAA101000095GA1085+005185999GD14991+0051859GE19MSL   +99999+99999GF199999999999005181999999MA1101195098045REMMET10001/24/17 06:53:02 METAR KMIC 241253Z 06004KT 10SM OVC017 M01/M05 A2988 RMK AO2 SLP130 T10061050 (FD)
0217726575949602017012413537+45062-093351FM-15+0265KMIC V0209999V00155005185MN0160935N5-00065-00505101305ADDAA101000095GA1085+005185999GD14991+0051859GE19MSL   +99999+99999GF199999999999005181999999MA1101195098045REMMET10001/24/17 07:53:02 METAR KMIC 241353Z VRB03KT 10SM OVC017 M01/M05 A2988 RMK AO2 SLP130 T10061050 (FD)
0237726575949602017012414537+45062-093351FM-15+0265KMIC V0209999C00005005185MN0160935N5-00065-00505101355ADDAA101000095GA1085+005185999GD14991+0051859GE19MSL   +99999+99999GF199999999999005181999999MA1101255098115MD1390109+9999REMMET10601/24/17 08:53:02 METAR KMIC 241453Z 00000KT 10SM OVC017 M01/M05 A2990 RMK AO2 SLP135 T10061050 53010 (FD)
0216726575949602017012415537+45062-093351FM-15+0265KMIC V0200105N00315004885MN0160935N5+00005-00505101255ADDAA101000095GA1085+004885999GD14991+0048859GE19MSL   +99999+99999GF199999999999004881999999MA1101155098015REMMET09901/24/17 09:53:02 METAR KMIC 241553Z 01006KT 10SM OVC016 00/M05 A2987 RMK AO2 SLP125 T00001050 (FD)
0216726575949602017012416537+45062-093351FM-15+0265KMIC V0200105N00415004885MN0160935N5+00005-00505101225ADDAA101000095GA1085+004885999GD14991+0048859GE19MSL   +99999+99999GF199999999999004881999999MA1101125097985REMMET09901/24/17 10:53:02 METAR KMIC 241653Z 01008KT 10SM OVC016 00/M05 A2986 RMK AO2 SLP122 T00001050 (FD)
0274726575949602017012417537+45062-093351FM-15+0265KMIC V0200405N00265004885MN0160935N5+00005-00445101175ADDAA101000095GA1085+004885999GD14991+0048859GE19MSL   +99999+99999GF199999999999004881999999KA1060M+00001KA2060N-00061MA1101085097945MD1690179+9999REMMET11701/24/17 11:53:02 METAR KMIC 241753Z 04005KT 10SM OVC016 00/M04 A2985 RMK AO2 SLP117 T00001044 10000 21006 56017 (FD)
0216726575949602017012418537+45062-093351FM-15+0265KMIC V0201205N00215004885MN0160935N5+00005-00445101125ADDAA101000095GA1085+004885999GD14991+0048859GE19MSL   +99999+99999GF199999999999004881999999MA1101025097885REMMET09901/24/17 12:53:02 METAR KMIC 241853Z 12004KT 10SM OVC016 00/M04 A2983 RMK AO2 SLP112 T00001044 (FD)
0216726575949602017012419537+45062-093351FM-15+0265KMIC V0200405N00365004885MN0160935N5+00005-00395101045ADDAA101000095GA1085+004885999GD14991+0048859GE19MSL   +99999+99999GF199999999999004881999999MA1100955097815REMMET09901/24/17 13:53:02 METAR KMIC 241953Z 04007KT 10SM OVC016 00/M04 A2981 RMK AO2 SLP104 T00001039 (FD)
0236726575949602017012420537+45062-093351FM-15+0265KMIC V0209999V00265004575MN0160935N5+00005-00445101015ADDAA101000095GA1085+004575999GD14991+0045759GE19MSL   +99999+99999GF199999999999004571999999MA1100915097785MD1690169+9999REMMET10501/24/17 14:53:02 METAR KMIC 242053Z VRB05KT 10SM OVC015 00/M04 A2980 RMK AO2 SLP101 T00001044 56016 (FD)
0216726575949602017012421537+45062-093351FM-15+0265KMIC V0200805N00365004575MN0160935N5+00005-00445101025ADDAA101000095GA1085+004575999GD14991+0045759GE19MSL   +99999+99999GF199999999999004571999999MA1100915097785REMMET09901/24/17 15:53:02 METAR KMIC 242153Z 08007KT 10SM OVC015 00/M04 A2980 RMK AO2 SLP102 T00001044 (FD)
0216726575949602017012422537+45062-093351FM-15+0265KMIC V0200605N00315004575MN0160935N5+00005-00445100995ADDAA101000095GA1085+004575999GD14991+0045759GE19MSL   +99999+99999GF199999999999004571999999MA1100885097755REMMET09901/24/17 16:53:02 METAR KMIC 242253Z 06006KT 10SM OVC015 00/M04 A2979 RMK AO2 SLP099 T00001044 (FD)
0274726575949602017012423537+45062-093351FM-15+0265KMIC V0200705N00265004885MN0160935N5+00005-00445100975ADDAA101000095GA1085+004885999GD14991+0048859GE19MSL   +99999+99999GF199999999999004881999999KA1060M+00061KA2060N+00001MA1100885097755MD1890049+9999REMMET11701/24/17 17:53:02 METAR KMIC 242353Z 07005KT 10SM OVC016 00/M04 A2979 RMK AO2 SLP097 T00001044 10006 20000 58004 (FD)
0211726575949602017012500537+45062-093351FM-15+0265KMIC V0200405N00315004885MN0160935N5+00005-00395100965ADDAA101000095GA1085+004885999GD14991+0048859GE19MSL   +99999+99999GF199999999999004881999999MA1100885097755REMMET09401/24/17 18:53:01 METAR KMIC 250053Z 04006KT 10SM OVC016 00/M04 A2979 RMK AO2 SLP096 T00001039
0211726575949602017012501537+45062-093351FM-15+0265KMIC V0200205N00415005185MN0160935N5+00005-00395100965ADDAA101000095GA1085+005185999GD14991+0051859GE19MSL   +99999+99999GF199999999999005181999999MA1100885097755REMMET09401/24/17 19:53:01 METAR KMIC 250153Z 02008KT 10SM OVC017 00/M04 A2979 RMK AO2 SLP096 T00001039
0231726575949602017012502537+45062-093351FM-15+0265KMIC V0200205N00265004885MN0160935N5+00005-00395100985ADDAA101000095GA1085+004885999GD14991+0048859GE19MSL   +99999+99999GF199999999999004881999999MA1100885097755MD1390019+9999REMMET10001/24/17 20:53:02 METAR KMIC 250253Z 02005KT 10SM OVC016 00/M04 A2979 RMK AO2 SLP098 T00001039 53001
0216726575949602017012503537+45062-093351FM-15+0265KMIC V0200205N00315004885MN0160935N5+00005-00395100955ADDAA101000095GA1085+004885999GD14991+0048859GE19MSL   +99999+99999GF199999999999004881999999MA1100855097715REMMET09901/24/17 21:53:02 METAR KMIC 250353Z 02006KT 10SM OVC016 00/M04 A2978 RMK AO2 SLP095 T00001039 TSNO
0216726575949602017012504537+45062-093351FM-15+0265KMIC V0200405N00215005185MN0160935N5+00005-00395100965ADDAA101000095GA1085+005185999GD14991+0051859GE19MSL   +99999+99999GF199999999999005181999999MA1100855097715REMMET09901/24/17 22:53:02 METAR KMIC 250453Z 04004KT 10SM OVC017 00/M04 A2978 RMK AO2 SLP096 T00001039 TSNO
0310726575949602017012505537+45062-093351FM-15+0265KMIC V0200305N00365005185MN0160935N5+00005-00395100895ADDAA101000095GA1085+005185999GD14991+0051859GE19MSL   +99999+99999GF199999999999005181999999KA1060M+00001KA2060N+00001KA3240M+00061KA4240N-00061MA1100785097655MD1890099+9999REMMET12701/24/17 23:53:02 METAR KMIC 250553Z 03007KT 10SM OVC017 00/M04 A2976 RMK AO2 SLP089 T00001039 10000 20000 400061006 58009 TSNO
0886726575949602017012505596+45062-093351SOD  +0265KMIC V020999999999999999999999999999+99999+99999999999ADDAA124000095KA1240M+00065KA2240N-00055MG1097824100884OE11240067106015055OE22240053606015065OE33240025999999995REMSOD73024 HR PRECIPITATION (IN):0.00  24 HR MAX TEMP (F):33 24 HR MAX TEMP TIME (LST):1343 24 HR MIN TEMP (F):31 24 HR MIN TEMP TIME (LST):1044 AVERAGE STATION PRESSURE:28.885 MINIMUM SEA LEVEL PRESSURE:29.79 TIME OF OCCURRENCE:2359 PEAK WIND SPEED (MPH):15  PEAK WIND DIR (DEG):60  PEAK WIND TIME (LST):1505  FASTEST 2MIN SPEED (MPH):12 FASTEST 2MIN DIR (DEG):60  FASTEST 2MIN TIME (LST):1506 AVERAGE WIND SPEED (MPH):5.8  24 HR AVG TEMP (F):32 HEATING DEGREE DAYS:33  COOLING DEGREE DAYS:0   LATEST DAY MAX TEMP (0700-1900 LST):33  LATEST NIGHT MIN TEMP(1900-0800 LST):31 HOURLY INCREMENTAL PRECIPITATION VALUES (IN):.00 0.00 0.00 0.00 0.00 0.00 0.00 0.00 0.00 0.00 0.00 0.00 0.00 0.00 0.00 0.00 0.00 0.00 0.00 0.00 0.00 0.00 0.00 0.00EQDR01     N7GJS072R02     N7GKS075
0217726575949602017012506537+45062-093351FM-15+0265KMIC V0200105N00515004885MN0160935N5-00065-00395100795ADDAA101000095GA1085+004885999GD14991+0048859GE19MSL   +99999+99999GF199999999999004881999999MA1100715097585REMMET10001/25/17 00:53:02 METAR KMIC 250653Z 01010KT 10SM OVC016 M01/M04 A2974 RMK AO2 SLP079 T10061039 TSNO
0189726575949602017012507487+45062-093351FM-16+0265KMIC V0200205N00465004275MN0160935N5-00105-00405999999ADDGA1085+004275999GD14991+0042759GE19MSL   +99999+99999GF199999999999004271999999MA1100645097525REMMET08301/25/17 01:48:02 SPECI KMIC 250748Z 02009KT 10SM OVC014 M01/M04 A2972 RMK AO2 TSNO
0249726575949602017012507537+45062-093351FM-15+0265KMIC V0200205N00515003665MN0144845N5-00065-00395100755ADDAA101000025AU110030015AW1715GA1085+003665999GD14991+0036659GE19MSL   +99999+99999GF199999999999003661999999MA1100645097525REMMET11501/25/17 01:53:02 METAR KMIC 250753Z 02010KT 9SM -SN OVC012 M01/M04 A2972 RMK AO2 SNB52 SLP075 P0000 T10061039 TSNO
0298726575949602017012508267+45062-093351FM-16+0265KMIC V0200105N00465003055MN0040235N5-00115-00335999999ADDAA101000021AU110030015AU200001015AW1105AW2715GA1075+003055999GA2085+005495999GD13991+0030559GD24991+0054959GE19MSL   +99999+99999GF199999999999003051999999MA1100645097525REMMET11601/25/17 02:26:02 SPECI KMIC 250826Z 01009KT 2 1/2SM -SN BR BKN010 OVC018 M01/M03 A2972 RMK AO2 P0000 T10111033 TSNO
0323726575949602017012508537+45062-093351FM-15+0265KMIC V0200105N00465003055MN0028165N5-00115-00335100725ADDAA101000025AA203000021AU110030015AU200001015AW1105AW2715GA1085+003055999GD14991+0030559GE19MSL   +99999+99999GF199999999999003051999999MA1100615097485MD1690079+9999REMMET12801/25/17 02:53:02 METAR KMIC 250853Z 01009KT 1 3/4SM -SN BR OVC010 M01/M03 A2971 RMK AO2 SLP072 P0000 60000 T10111033 56007 TSNOEQDQ01  00008PRCP03
0214726575949602017012509516+45062-093351FM-16+0265KMIC V0200105N00465002745MN0024145N5-00105-00405999999ADDAU110030015AW1715GA1075+002745999GA2085+004885999GD13991+0027459GD24991+0048859MA1100585097455REMMET10801/25/17 03:51:02 SPECI KMIC 250951Z 01009KT 1 1/2SM -SN BKN009 OVC016 M01/M04 A2970 RMK AO2 P0000 TSNO FIBI
0285726575949602017012509537+45062-093351FM-15+0265KMIC V0200105N00465002745MN0024145N5-00115-00395100685ADDAA101000025AU110030015AW1715GA1075+002745999GA2085+004885999GD13991+0027459GD24991+0048859GE19MSL   +99999+99999GF199999999999002741999999MA1100585097455REMMET12001/25/17 03:53:02 METAR KMIC 250953Z 01009KT 1 1/2SM -SN BKN009 OVC016 M01/M04 A2970 RMK AO2 SLP068 P0000 T10111039 TSNO
0309726575949602017012510327+45062-093351FM-16+0265KMIC V0200105N00515002745MN0040235N5-00175-00395999999ADDAA101000021AU110030015AU200001015AW1105AW2715GA1075+002745999GA2085+010975999GD13991+0027459GD24991+0109759GE19MSL   +99999+99999GF199999999999002741999999MA1100545097425OC100885REMMET11901/25/17 04:32:02 SPECI KMIC 251032Z 01010G17KT 2 1/2SM -SN BR BKN009 OVC036 M02/M04 A2969 RMK AO2 P0000 T10171039 TSNO
0286726575949602017012510467+45062-093351FM-16+0265KMIC V0200105N00465003355MN0048285N5-00115-00395999999ADDAA101000021AU110030015AW1715GA1075+003355999GA2085+011895999GD13991+0033551GD24991+0118959GE19MSL   +99999+99999GF199999999999003351999999MA1100585097455REMMET12101/25/17 04:46:02 SPECI KMIC 251046Z 01009KT 3SM -SN BKN011 OVC039 M01/M04 A2970 RMK AO2 CIG 007V012 P0000 T10111039 TSNO
0268726575949602017012510497+45062-093351FM-16+0265KMIC V0200205N00515002745MN0040235N5-00105-00405999999ADDAA101000021AU110030015AW1715GA1075+002745999GA2085+011895999GD13991+0027459GD24991+0118959GE19MSL   +99999+99999GF199999999999002741999999MA1100585097455REMMET10301/25/17 04:49:02 SPECI KMIC 251049Z 02010KT 2 1/2SM -SN BKN009 OVC039 M01/M04 A2970 RMK AO2 P0000 TSNO
0247726575949602017012510537+45062-093351FM-15+0265KMIC V0203605N00465002745MN0040235N5-00115-00395100665ADDAA101000025AU110030015AW1715GA1085+002745999GD14991+0027459GE19MSL   +99999+99999GF199999999999002741999999MA1100585097455REMMET11301/25/17 04:53:02 METAR KMIC 251053Z 36009KT 2 1/2SM -SN OVC009 M01/M04 A2970 RMK AO2 SLP066 P0000 T10111039 TSNO
0240726575949602017012511047+45062-093351FM-16+0265KMIC V0200105N00465003055MN0040235N5-00115-00395999999ADDAA101000021AU110030015AW1715GA1085+003055999GD14991+0030559GE19MSL   +99999+99999GF199999999999003051999999MA1100585097455REMMET10601/25/17 05:04:02 SPECI KMIC 251104Z 01009KT 2 1/2SM -SN OVC010 M01/M04 A2970 RMK AO2 P0000 T10111039 TSNO
0278726575949602017012511447+45062-093351FM-16+0265KMIC V0200105N00465003055MN0024145N5-00115-00395999999ADDAA101000021AU110030015AW1715GA1075+003055999GA2085+008845999GD13991+0030559GD24991+0088459GE19MSL   +99999+99999GF199999999999003051999999MA1100585097455REMMET11301/25/17 05:44:02 SPECI KMIC 251144Z 01009KT 1 1/2SM -SN BKN010 OVC029 M01/M04 A2970 RMK AO2 P0000 T10111039 TSNO
0379726575949602017012511537+45062-093351FM-15+0265KMIC V0200105N00465003055MN0024145N5-00115-00395100665ADDAA101000025AA206000021AU110030015AW1715GA1075+003055999GA2085+005495999GD13991+0030559GD24991+0054959GE19MSL   +99999+99999GF199999999999003051999999KA1060M+00001KA2060N-00171MA1100585097455MD1690069+9999REMMET14401/25/17 05:53:02 METAR KMIC 251153Z 01009KT 1 1/2SM -SN BKN010 OVC018 M01/M04 A2970 RMK AO2 SLP066 P0000 60000 T10111039 10000 21017 56006 TSNOEQDQ01  00008PRCP06
0192726575949602017012512516+45062-093351FM-16+0265KMIC V0200105N00415003355MN0032195N5-00105-00305999999ADDAU110030015AU200001015AW1105AW2715GA1085+003355999GD14991+0033559MA1100585097455REMMET10001/25/17 06:51:02 SPECI KMIC 251251Z 01008KT 2SM -SN BR OVC011 M01/M03 A2970 RMK AO2 P0000 FIBI (FD)
0263726575949602017012512537+45062-093351FM-15+0265KMIC V0203605N00465003355MN0032195N5-00115-00335100665ADDAA101000025AU110030015AU200001015AW1105AW2715GA1085+003355999GD14991+0033559GE19MSL   +99999+99999GF199999999999003351999999MA1100585097455REMMET11201/25/17 06:53:02 METAR KMIC 251253Z 36009KT 2SM -SN BR OVC011 M01/M03 A2970 RMK AO2 SLP066 P0000 T10111033 (FD)
0260726575949602017012513397+45062-093351FM-16+0265KMIC V0200105N00465003355MN0024145N5-00115-00335999999ADDAA101000021AU110030015AU200001015AW1105AW2715GA1085+003355999GD14991+0033559GE19MSL   +99999+99999GF199999999999003351999999MA1100585097455REMMET10901/25/17 07:39:02 SPECI KMIC 251339Z 01009KT 1 1/2SM -SN BR OVC011 M01/M03 A2970 RMK AO2 P0000 T10111033 (FD)
0263726575949602017012513537+45062-093351FM-15+0265KMIC V0203605N00515003355MN0016095N5-00115-00335100655ADDAA101000025AU110030015AU200001015AW1105AW2715GA1085+003355999GD14991+0033559GE19MSL   +99999+99999GF199999999999003351999999MA1100545097425REMMET11201/25/17 07:53:02 METAR KMIC 251353Z 36010KT 1SM -SN BR OVC011 M01/M03 A2969 RMK AO2 SLP065 P0000 T10111033 (FD)
0336726575949602017012514267+45062-093351FM-16+0265KMIC V0203605N00465002745MN0020125N5-00115-00335999999ADDAA101000021AU110030015AU200001015AW1105AW2715GA1075+002745999GA2075+004275999GA3085+005795999GD13991+0027459GD23991+0042759GD34991+0057959GE19MSL   +99999+99999GF199999999999002741999999MA1100585097455REMMET12301/25/17 08:26:02 SPECI KMIC 251426Z 36009KT 1 1/4SM -SN BR BKN009 BKN014 OVC019 M01/M03 A2970 RMK AO2 P0000 T10111033 (FD)
0278726575949602017012514337+45062-093351FM-16+0265KMIC V0203605N00465003355MN0020125N5-00115-00395999999ADDAA101000021AU110030015AW1715GA1075+003355999GA2085+004575999GD13991+0033559GD24991+0045759GE19MSL   +99999+99999GF199999999999003351999999MA1100585097455REMMET11301/25/17 08:33:02 SPECI KMIC 251433Z 36009KT 1 1/4SM -SN BKN011 OVC015 M01/M04 A2970 RMK AO2 P0000 T10111039 (FD)
0252726575949602017012514516+45062-093351FM-16+0265KMIC V0203605N00465003665MN0024145N5-00105-00405999999ADDAU110030015AW1715GA1045+002745999GA2075+003665999GA3085+007925999GD12991+0027459GD23991+0036659GD34991+0079259MA1100585097455REMMET11501/25/17 08:51:02 SPECI KMIC 251451Z 36009KT 1 1/2SM -SN SCT009 BKN012 OVC026 M01/M04 A2970 RMK AO2 P0000 FIBI (FD)
0341726575949602017012514537+45062-093351FM-15+0265KMIC V0200105N00515003665MN0028165N5-00115-00395100665ADDAA101000025AA203000021AU110030015AW1715GA1075+003665999GA2085+008535999GD13991+0036659GD24991+0085359GE19MSL   +99999+99999GF199999999999003661999999MA1100585097455MD1490009+9999REMMET13201/25/17 08:53:02 METAR KMIC 251453Z 01010KT 1 3/4SM -SN BKN012 OVC028 M01/M04 A2970 RMK AO2 SLP066 P0000 60000 T10111039 54000 (FD)EQDQ01  00008PRCP03
0316726575949602017012515007+45062-093351FM-16+0265KMIC V0203605N00575003965MN0020125N5-00115-00395999999ADDAA101000021AU110030015AW1715GA1045+002745999GA2075+003965999GA3085+007925999GD12991+0027459GD23991+0039659GD34991+0079259GE19MSL   +99999+99999GF199999999999002741999999MA1100585097455REMMET12001/25/17 09:00:02 SPECI KMIC 251500Z 36011KT 1 1/4SM -SN SCT009 BKN013 OVC026 M01/M04 A2970 RMK AO2 P0000 T10111039 (FD)
0278726575949602017012515327+45062-093351FM-16+0265KMIC V0203605N00465002745MN0020125N5-00115-00395999999ADDAA101000021AU110030015AW1715GA1075+002745999GA2085+003665999GD13991+0027459GD24991+0036659GE19MSL   +99999+99999GF199999999999002741999999MA1100585097455REMMET11301/25/17 09:32:02 SPECI KMIC 251532Z 36009KT 1 1/4SM -SN BKN009 OVC012 M01/M04 A2970 RMK AO2 P0000 T10111039 (FD)
0319726575949602017012515427+45062-093351FM-16+0265KMIC V0203605N00675003055MN0012075N5-00175-00395999999ADDAA101000021AU110030015AU200001015AW1105AW2715GA1075+003055999GA2085+004275999GD13991+0030551GD24991+0042759GE19MSL   +99999+99999GF199999999999003051999999MA1100585097455OC100935REMMET12901/25/17 09:42:02 SPECI KMIC 251542Z 36013G18KT 3/4SM -SN BR BKN010 OVC014 M02/M04 A2970 RMK AO2 CIG 006V012 P0000 T10171039 (FD)
0250726575949602017012515517+45062-093351FM-16+0265KMIC V0203605N00625003665MN0020125N5-00205-00405999999ADDAA101000021AU110030015AU200001015AW1105AW2715GA1085+003665999GD14991+0036659GE19MSL   +99999+99999GF199999999999003661999999MA1100585097455REMMET09901/25/17 09:51:02 SPECI KMIC 251551Z 36012KT 1 1/4SM -SN BR OVC012 M02/M04 A2970 RMK AO2 P0000 (FD)
0297726575949602017012515537+45062-093351FM-15+0265KMIC V0203605N00625003055MN0020125N5-00115-00445100695ADDAA101000025AU110030015AW1715GA1075+003055999GA2085+004275999GD13991+0030551GD24991+0042759GE19MSL   +99999+99999GF199999999999003051999999MA1100585097455REMMET13201/25/17 09:53:02 METAR KMIC 251553Z 36012KT 1 1/4SM -SN BKN010 OVC014 M01/M04 A2970 RMK AO2 CIG 006V012 SLP069 P0000 T10111044 (FD)
0287726575949602017012516287+45062-093351FM-16+0265KMIC V0203605N00675005185MN0012075N5-00175-00445999999ADDAA101000021AU110030015AW1715GA1045+003355999GA2085+005185999GD12991+0033559GD24991+0051859GE19MSL   +99999+99999GF199999999999003351999999MA1100615097485OC101035REMMET11401/25/17 10:28:02 SPECI KMIC 251628Z 36013G20KT 3/4SM -SN SCT011 OVC017 M02/M04 A2971 RMK AO2 P0000 T10171044 (FD)
0312726575949602017012516337+45062-093351FM-16+0265KMIC V0203605N00575003355MN0016095N5-00175-00445999999ADDAA101000021AU110030015AW1715GA1075+003355999GA2075+005185999GA3085+009145999GD13991+0033559GD23991+0051859GD34991+0091459GE19MSL   +99999+99999GF199999999999003351999999MA1100615097485REMMET11601/25/17 10:33:02 SPECI KMIC 251633Z 36011KT 1SM -SN BKN011 BKN017 OVC030 M02/M04 A2971 RMK AO2 P0000 T10171044 (FD)
0264726575949602017012516497+45062-093351FM-16+0265KMIC V0203605N00625003055MN0048285N5-00205-00405999999ADDAA101000021AU110030015AW1715GA1075+003055999GA2085+004575999GD13991+0030559GD24991+0045759GE19MSL   +99999+99999GF199999999999003051999999MA1100615097485REMMET09901/25/17 10:49:02 SPECI KMIC 251649Z 36012KT 3SM -SN BKN010 OVC015 M02/M04 A2971 RMK AO2 P0000 (FD)
0281726575949602017012516507+45062-093351FM-15+0265KMIC V0203505N00675003055MN0048285N5-00175-00445100715ADDAA101000025AU110030015AW1715GA1075+003055999GA2085+004575999GD13991+0030559GD24991+0045759GE19MSL   +99999+99999GF199999999999003051999999MA1100615097485REMMET11601/25/17 10:50:02 METAR KMIC 251650Z 35013KT 3SM -SN BKN010 OVC015 M02/M04 A2971 RMK AO2 SLP071 P0000 T10171044 (FD)
0346726575949602017012517537+45062-093351FM-15+0265KMIC V0200105N00675003965MN0160935N5-00115-00565100685ADDAA101000025AA206000021GA1085+003965999GD14991+0039659GE19MSL   +99999+99999GF199999999999003961999999KA1060M-00111KA2060N-00171MA1100585097455MD1090009+9999OC101085REMMET15101/25/17 11:53:02 METAR KMIC 251753Z 01013G21KT 10SM OVC013 M01/M06 A2970 RMK AO2 UPB1656E28SNE1656 SLP068 P0000 60000 T10111056 11011 21017 50000 (FD)EQDQ01  00008PRCP06
0217726575949602017012518537+45062-093351FM-15+0265KMIC V0203605N00625003965MN0160935N5-00175-00505100665ADDAA101000095GA1085+003965999GD14991+0039659GE19MSL   +99999+99999GF199999999999003961999999MA1100545097425REMMET10001/25/17 12:53:02 METAR KMIC 251853Z 36012KT 10SM OVC013 M02/M05 A2969 RMK AO2 SLP066 T10171050 (FD)
0217726575949602017012519537+45062-093351FM-15+0265KMIC V0203505N00625003665MN0160935N5-00225-00565100665ADDAA101000095GA1085+003665999GD14991+0036659GE19MSL   +99999+99999GF199999999999003661999999MA1100545097425REMMET10001/25/17 13:53:02 METAR KMIC 251953Z 35012KT 10SM OVC012 M02/M06 A2969 RMK AO2 SLP066 T10221056 (FD)
0237726575949602017012520537+45062-093351FM-15+0265KMIC V0203505N00515003965MN0160935N5-00225-00615100725ADDAA101000095GA1085+003965999GD14991+0039659GE19MSL   +99999+99999GF199999999999003961999999MA1100615097485MD1390039+9999REMMET10601/25/17 14:53:02 METAR KMIC 252053Z 35010KT 10SM OVC013 M02/M06 A2971 RMK AO2 SLP072 T10221061 53003 (FD)
0199726575949602017012521097+45062-093351FM-16+0265KMIC V0203405N00575004575MN0160935N5-00175-00615999999ADDGA1085+004575999GD14991+0045759GE19MSL   +99999+99999GF199999999999004571999999MA1100645097525REMMET09301/25/17 15:09:02 SPECI KMIC 252109Z 34011KT 10SM OVC015 M02/M06 A2972 RMK AO2 T10171061 (FD)
0217726575949602017012521537+45062-093351FM-15+0265KMIC V0203505N00625005495MN0160935N5-00175-00675100795ADDAA101000095GA1085+005495999GD14991+0054959GE19MSL   +99999+99999GF199999999999005491999999MA1100685097555REMMET10001/25/17 15:53:02 METAR KMIC 252153Z 35012KT 10SM OVC018 M02/M07 A2973 RMK AO2 SLP079 T10171067 (FD)
0217726575949602017012522537+45062-093351FM-15+0265KMIC V0203405N00415006715MN0160935N5-00175-00675100855ADDAA101000095GA1085+006715999GD14991+0067159GE19MSL   +99999+99999GF199999999999006711999999MA1100755097615REMMET10001/25/17 16:53:02 METAR KMIC 252253Z 34008KT 10SM OVC022 M02/M07 A2975 RMK AO2 SLP085 T10171067 (FD)
0275726575949602017012523537+45062-093351FM-15+0265KMIC V0203405N00465006715MN0160935N5-00175-00675100905ADDAA101000095GA1085+006715999GD14991+0067159GE19MSL   +99999+99999GF199999999999006711999999KA1060M-00111KA2060N-00221MA1100785097655MD1190179+9999REMMET11801/25/17 17:53:02 METAR KMIC 252353Z 34009KT 10SM OVC022 M02/M07 A2976 RMK AO2 SLP090 T10171067 11011 21022 51017 (FD)
0223726575949602017012600537+45062-093351FM-15+0265KMIC V0203405N00825006405MN0160935N5-00115-00675100945ADDAA101000095GA1085+006405999GD14991+0064059GE19MSL   +99999+99999GF199999999999006401999999MA1100855097715OC101035REMMET09801/25/17 18:53:01 METAR KMIC 260053Z 34016G20KT 10SM OVC021 M01/M07 A2978 RMK AO2 SLP094 T10111067
0223726575949602017012601537+45062-093351FM-15+0265KMIC V0203405N00775005795MN0160935N5-00175-00675100995ADDAA101000095GA1085+005795999GD14991+0057959GE19MSL   +99999+99999GF199999999999005791999999MA1100885097755OC101085REMMET09801/25/17 19:53:01 METAR KMIC 260153Z 34015G21KT 10SM OVC019 M02/M07 A2979 RMK AO2 SLP099 T10171067
0194726575949602017012602417+45062-093351FM-16+0265KMIC V0203305N00415009755MN0160935N5-00175-00675999999ADDGA1085+009755999GD14991+0097559GE19MSL   +99999+99999GF199999999999009751999999MA1100885097755REMMET08801/25/17 20:41:01 SPECI KMIC 260241Z 33008KT 10SM OVC032 M02/M07 A2979 RMK AO2 T10171067
0237726575949602017012602537+45062-093351FM-15+0265KMIC V0203205N00465009755MN0160935N5-00175-00675100995ADDAA101000095GA1085+009755999GD14991+0097559GE19MSL   +99999+99999GF199999999999009751999999MA1100885097755MD1190089+9999REMMET10601/25/17 20:53:02 METAR KMIC 260253Z 32009KT 10SM OVC032 M02/M07 A2979 RMK AO2 SLP099 T10171067 51008 TSNO
0255726575949602017012603537+45062-093351FM-15+0265KMIC V0203205N00465011585MN0160935N5-00175-00675101005ADDAA101000095GA1025+007625999GA2085+011585999GD11991+0076259GD24991+0115859GE19MSL   +99999+99999GF199999999999007621999999MA1100885097755REMMET10701/25/17 21:53:02 METAR KMIC 260353Z 32009KT 10SM FEW025 OVC038 M02/M07 A2979 RMK AO2 SLP100 T10171067 TSNO
0255726575949602017012604537+45062-093351FM-15+0265KMIC V0203105N00575014635MN0160935N5-00175-00615101035ADDAA101000095GA1025+010975999GA2085+014635999GD11991+0109759GD24991+0146359GE19MSL   +99999+99999GF199999999999010971999999MA1100915097785REMMET10701/25/17 22:53:02 METAR KMIC 260453Z 31011KT 10SM FEW036 OVC048 M02/M06 A2980 RMK AO2 SLP103 T10171061 TSNO
0237726575949602017012605267+45062-093351FM-16+0265KMIC V0203105N00465007015MN0160935N5-00175-00615999999ADDGA1075+007015999GA2085+015245999GD13991+0070159GD24991+0152459GE19MSL   +99999+99999GF199999999999007011999999MA1100955097815REMMET10001/25/17 23:26:02 SPECI KMIC 260526Z 31009KT 10SM BKN023 OVC050 M02/M06 A2981 RMK AO2 T10171061 TSNO
0311726575949602017012605537+45062-093351FM-15+0265KMIC V0203205N00625006405MN0160935N5-00175-00615101055ADDAA101000095GA1085+006405999GD14991+0064059GE19MSL   +99999+99999GF199999999999006401999999KA1060M-00111KA2060N-00171KA3240M+00001KA4240N-00221MA1100955097815MD1190069+9999REMMET12801/25/17 23:53:02 METAR KMIC 260553Z 32012KT 10SM OVC021 M02/M06 A2981 RMK AO2 SLP105 T10171061 11011 21017 400001022 51006 TSNO
0910726575949602017012605596+45062-093351SOD  +0265KMIC V020999999999999999999999999999+99999+99999999999ADDAA124000025AT1AU18SN  5AT2AU13BR  5KA1240M+00005KA2240N-00215MG1097584100644OE11240116233019345OE22240098333019335OE33240055499999995REMSOD73024 HR PRECIPITATION (IN):T     24 HR MAX TEMP (F):32 24 HR MAX TEMP TIME (LST):0036 24 HR MIN TEMP (F):28 24 HR MIN TEMP TIME (LST):1459 AVERAGE STATION PRESSURE:28.815 MINIMUM SEA LEVEL PRESSURE:29.72 TIME OF OCCURRENCE:1356 PEAK WIND SPEED (MPH):26  PEAK WIND DIR (DEG):330 PEAK WIND TIME (LST):1934  FASTEST 2MIN SPEED (MPH):22 FASTEST 2MIN DIR (DEG):330 FASTEST 2MIN TIME (LST):1933 AVERAGE WIND SPEED (MPH):12.4 24 HR AVG TEMP (F):30 HEATING DEGREE DAYS:35  COOLING DEGREE DAYS:0   LATEST DAY MAX TEMP (0700-1900 LST):30  LATEST NIGHT MIN TEMP(1900-0800 LST):29 HOURLY INCREMENTAL PRECIPITATION VALUES (IN):.00 T    T    T    T    T    T    T    T    T    T    T    0.00 0.00 0.00 0.00 0.00 0.00 0.00 0.00 0.00 0.00 0.00 0.00EQDR01     N7GJS072R02     N7GKS075
0228726575949602017012606537+45062-093351FM-15+0265KMIC V0203205N00575006405MN0160935N5-00175-00615101055ADDAA101000095GA1085+006405999GD14991+0064059GE19MSL   +99999+99999GF199999999999006401999999MA1100955097815OC100985REMMET10301/26/17 00:53:02 METAR KMIC 260653Z 32011G19KT 10SM OVC021 M02/M06 A2981 RMK AO2 SLP105 T10171061 TSNO
0255726575949602017012607537+45062-093351FM-15+0265KMIC V0203305N00515006405MN0160935N5-00175-00615101075ADDAA101000095GA1075+006405999GA2085+016765999GD13991+0064059GD24991+0167659GE19MSL   +99999+99999GF199999999999006401999999MA1100985097855REMMET10701/26/17 01:53:02 METAR KMIC 260753Z 33010KT 10SM BKN021 OVC055 M02/M06 A2982 RMK AO2 SLP107 T10171061 TSNO
0248726575949602017012608007+45062-093351FM-16+0265KMIC V0203205N00515016765MN0160935N5-00175-00615999999ADDGA1045+006405999GA2085+016765999GD12991+0064059GD24991+0167659GE19MSL   +99999+99999GF199999999999006401999999MA1100985097855OC100885REMMET10301/26/17 02:00:02 SPECI KMIC 260800Z 32010G17KT 10SM SCT021 OVC055 M02/M06 A2982 RMK AO2 T10171061 TSNO
0237726575949602017012608437+45062-093351FM-16+0265KMIC V0203205N00625005795MN0160935N5-00175-00615999999ADDGA1075+005795999GA2085+015245999GD13991+0057959GD24991+0152459GE19MSL   +99999+99999GF199999999999005791999999MA1101025097885REMMET10001/26/17 02:43:02 SPECI KMIC 260843Z 32012KT 10SM BKN019 OVC050 M02/M06 A2983 RMK AO2 T10171061 TSNO
0286726575949602017012608537+45062-093351FM-15+0265KMIC V0203205N00575005795MN0160935N5-00175-00615101125ADDAA101000095GA1075+005795999GA2085+015245999GD13991+0057959GD24991+0152459GE19MSL   +99999+99999GF199999999999005791999999MA1101025097885MD1390079+9999OC100935REMMET11601/26/17 02:53:02 METAR KMIC 260853Z 32011G18KT 10SM BKN019 OVC050 M02/M06 A2983 RMK AO2 SLP112 T10171061 53007 TSNO
0237726575949602017012609167+45062-093351FM-16+0265KMIC V0203205N00575015245MN0160935N5-00175-00615999999ADDGA1045+006105999GA2085+015245999GD12991+0061059GD24991+0152459GE19MSL   +99999+99999GF199999999999006101999999MA1101025097885REMMET10001/26/17 03:16:02 SPECI KMIC 260916Z 32011KT 10SM SCT020 OVC050 M02/M06 A2983 RMK AO2 T10171061 TSNO
0293726575949602017012609537+45062-093351FM-15+0265KMIC V0203105N00575011895MN0160935N5-00225-00615101145ADDAA101000095GA1025+005795999GA2075+011895999GA3085+014335999GD11991+0057959GD23991+0118959GD34991+0143359GE19MSL   +99999+99999GF199999999999005791999999MA1101055097915REMMET11401/26/17 03:53:02 METAR KMIC 260953Z 31011KT 10SM FEW019 BKN039 OVC047 M02/M06 A2984 RMK AO2 SLP114 T10221061 TSNO
0255726575949602017012610537+45062-093351FM-15+0265KMIC V0203205N00515011585MN0160935N5-00225-00675101205ADDAA101000095GA1025+005795999GA2085+011585999GD11991+0057959GD24991+0115859GE19MSL   +99999+99999GF199999999999005791999999MA1101085097945REMMET10701/26/17 04:53:02 METAR KMIC 261053Z 32010KT 10SM FEW019 OVC038 M02/M07 A2985 RMK AO2 SLP120 T10221067 TSNO
0237726575949602017012611087+45062-093351FM-16+0265KMIC V0203205N00465005795MN0160935N5-00225-00615999999ADDGA1075+005795999GA2085+011585999GD13991+0057959GD24991+0115859GE19MSL   +99999+99999GF199999999999005791999999MA1101085097945REMMET10001/26/17 05:08:02 SPECI KMIC 261108Z 32009KT 10SM BKN019 OVC038 M02/M06 A2985 RMK AO2 T10221061 TSNO
0351726575949602017012611537+45062-093351FM-15+0265KMIC V0203205N00575007325MN0160935N5-00225-00615101245ADDAA101000095GA1045+005185999GA2075+007325999GA3085+009145999GD12991+0051859GD23991+0073259GD34991+0091459GE19MSL   +99999+99999GF199999999999005181999999KA1060M-00171KA2060N-00221MA1101125097985MD1390129+9999REMMET13201/26/17 05:53:02 METAR KMIC 261153Z 32011KT 10SM SCT017 BKN024 OVC030 M02/M06 A2986 RMK AO2 SLP124 T10221061 11017 21022 53012 TSNO
0217726575949602017012612537+45062-093351FM-15+0265KMIC V0203205N00625008845MN0160935N5-00225-00725101325ADDAA101000095GA1085+008845999GD14991+0088459GE19MSL   +99999+99999GF199999999999008841999999MA1101225098085REMMET10001/26/17 06:53:02 METAR KMIC 261253Z 32012KT 10SM OVC029 M02/M07 A2989 RMK AO2 SLP132 T10221072 (FD)
0237726575949602017012613137+45062-093351FM-16+0265KMIC V0203305N00515009145MN0160935N5-00285-00725999999ADDGA1025+006105999GA2085+009145999GD11991+0061059GD24991+0091459GE19MSL   +99999+99999GF199999999999006101999999MA1101225098085REMMET10001/26/17 07:13:02 SPECI KMIC 261313Z 33010KT 10SM FEW020 OVC030 M03/M07 A2989 RMK AO2 T10281072 (FD)
0275726575949602017012613277+45062-093351FM-16+0265KMIC V0203105N00515005495MN0160935N5-00285-00725999999ADDGA1075+005495999GA2075+007925999GA3085+009455999GD13991+0054959GD23991+0079259GD34991+0094559GE19MSL   +99999+99999GF199999999999005491999999MA1101255098115REMMET10701/26/17 07:27:02 SPECI KMIC 261327Z 31010KT 10SM BKN018 BKN026 OVC031 M03/M07 A2990 RMK AO2 T10281072 (FD)
0184726575949602017012613516+45062-093351FM-16+0265KMIC V0202905N00415012195MN0160935N5-00305-00705999999ADDGA1045+005495999GA2085+012195999GD12991+0054959GD24991+0121959MA1101255098115REMMET09501/26/17 07:51:02 SPECI KMIC 261351Z 29008KT 10SM SCT018 OVC040 M03/M07 A2990 RMK AO2 FIBI (FD)
0255726575949602017012613537+45062-093351FM-15+0265KMIC V0203005N00415012195MN0160935N5-00335-00725101385ADDAA101000095GA1045+005185999GA2085+012195999GD12991+0051859GD24991+0121959GE19MSL   +99999+99999GF199999999999005181999999MA1101255098115REMMET10701/26/17 07:53:02 METAR KMIC 261353Z 30008KT 10SM SCT017 OVC040 M03/M07 A2990 RMK AO2 SLP138 T10331072 (FD)
0313726575949602017012614537+45062-093351FM-15+0265KMIC V0203005N00675014945MN0160935N5-00335-00785101455ADDAA101000095GA1025+010675999GA2025+012805999GA3085+014945999GD11991+0106759GD21991+0128059GD34991+0149459GE19MSL   +99999+99999GF199999999999010671999999MA1101355098215MD1190219+9999REMMET12001/26/17 08:53:02 METAR KMIC 261453Z 30013KT 10SM FEW035 FEW042 OVC049 M03/M08 A2993 RMK AO2 SLP145 T10331078 51021 (FD)
0237726575949602017012615407+45062-093351FM-16+0265KMIC V0203005N00575004575MN0160935N5-00335-00785999999ADDGA1075+004575999GA2085+015245999GD13991+0045759GD24991+0152459GE19MSL   +99999+99999GF199999999999004571999999MA1101355098215REMMET10001/26/17 09:40:02 SPECI KMIC 261540Z 30011KT 10SM BKN015 OVC050 M03/M08 A2993 RMK AO2 T10331078 (FD)
0255726575949602017012615537+45062-093351FM-15+0265KMIC V0203005N00675004575MN0160935N5-00335-00785101475ADDAA101000095GA1075+004575999GA2085+015245999GD13991+0045759GD24991+0152459GE19MSL   +99999+99999GF199999999999004571999999MA1101355098215REMMET10701/26/17 09:53:02 METAR KMIC 261553Z 30013KT 10SM BKN015 OVC050 M03/M08 A2993 RMK AO2 SLP147 T10331078 (FD)
0237726575949602017012616087+45062-093351FM-16+0265KMIC V0203105N00575004275MN0160935N5-00335-00785999999ADDGA1075+004275999GA2085+016765999GD13991+0042759GD24991+0167659GE19MSL   +99999+99999GF199999999999004271999999MA1101395098245REMMET10001/26/17 10:08:02 SPECI KMIC 261608Z 31011KT 10SM BKN014 OVC055 M03/M08 A2994 RMK AO2 T10331078 (FD)
0199726575949602017012616417+45062-093351FM-16+0265KMIC V0203005N00625004575MN0160935N5-00335-00725999999ADDGA1085+004575999GD14991+0045759GE19MSL   +99999+99999GF199999999999004571999999MA1101395098245REMMET09301/26/17 10:41:02 SPECI KMIC 261641Z 30012KT 10SM OVC015 M03/M07 A2994 RMK AO2 T10331072 (FD)
0217726575949602017012616537+45062-093351FM-15+0265KMIC V0202905N00675004575MN0160935N5-00285-00725101515ADDAA101000095GA1085+004575999GD14991+0045759GE19MSL   +99999+99999GF199999999999004571999999MA1101395098245REMMET10001/26/17 10:53:02 METAR KMIC 261653Z 29013KT 10SM OVC015 M03/M07 A2994 RMK AO2 SLP151 T10281072 (FD)
0184726575949602017012617516+45062-093351FM-16+0265KMIC V0202905N00625016765MN0160935N5-00305-00805999999ADDGA1045+005495999GA2085+016765999GD12991+0054959GD24991+0167659MA1101395098245REMMET09501/26/17 11:51:02 SPECI KMIC 261751Z 29012KT 10SM SCT018 OVC055 M03/M08 A2994 RMK AO2 FIBI (FD)
0313726575949602017012617537+45062-093351FM-15+0265KMIC V0203005N00625016765MN0160935N5-00285-00835101485ADDAA101000095GA1045+005495999GA2085+016765999GD12991+0054959GD24991+0167659GE19MSL   +99999+99999GF199999999999005491999999KA1060M-00221KA2060N-00331MA1101355098215MD1190019+9999REMMET12501/26/17 11:53:02 METAR KMIC 261753Z 30012KT 10SM SCT018 OVC055 M03/M08 A2993 RMK AO2 SLP148 T10281083 11022 21033 51001 (FD)
0217726575949602017012618537+45062-093351FM-15+0265KMIC V0202805N00625018295MN0160935N5-00285-00785101435ADDAA101000095GA1085+018295999GD14991+0182959GE19MSL   +99999+99999GF199999999999018291999999MA1101325098185REMMET10001/26/17 12:53:02 METAR KMIC 261853Z 28012KT 10SM OVC060 M03/M08 A2992 RMK AO2 SLP143 T10281078 (FD)
0217726575949602017012619537+45062-093351FM-15+0265KMIC V0203005N00675018295MN0160935N5-00225-00835101425ADDAA101000095GA1085+018295999GD14991+0182959GE19MSL   +99999+99999GF199999999999018291999999MA1101325098185REMMET10001/26/17 13:53:02 METAR KMIC 261953Z 30013KT 10SM OVC060 M02/M08 A2992 RMK AO2 SLP142 T10221083 (FD)
0275726575949602017012620537+45062-093351FM-15+0265KMIC V0202805N00575018295MN0160935N5-00225-00785101435ADDAA101000095GA1025+007015999GA2085+018295999GD11991+0070159GD24991+0182959GE19MSL   +99999+99999GF199999999999007011999999MA1101325098185MD1590059+9999REMMET11301/26/17 14:53:02 METAR KMIC 262053Z 28011KT 10SM FEW023 OVC060 M02/M08 A2992 RMK AO2 SLP143 T10221078 55005 (FD)
0237726575949602017012621157+45062-093351FM-16+0265KMIC V0202705N00515007015MN0160935N5-00225-00725999999ADDGA1075+007015999GA2085+018295999GD13991+0070159GD24991+0182959GE19MSL   +99999+99999GF199999999999007011999999MA1101325098185REMMET10001/26/17 15:15:02 SPECI KMIC 262115Z 27010KT 10SM BKN023 OVC060 M02/M07 A2992 RMK AO2 T10221072 (FD)
0255726575949602017012621537+45062-093351FM-15+0265KMIC V0202905N00575007015MN0160935N5-00225-00785101475ADDAA101000095GA1075+007015999GA2085+018295999GD13991+0070159GD24991+0182959GE19MSL   +99999+99999GF199999999999007011999999MA1101355098215REMMET10701/26/17 15:53:02 METAR KMIC 262153Z 29011KT 10SM BKN023 OVC060 M02/M08 A2993 RMK AO2 SLP147 T10221078 TSNO
0255726575949602017012622537+45062-093351FM-15+0265KMIC V0202705N00415007015MN0160935N5-00335-00895101525ADDAA101000095GA1075+007015999GA2085+016765999GD13991+0070159GD24991+0167659GE19MSL   +99999+99999GF199999999999007011999999MA1101395098245REMMET10701/26/17 16:53:02 METAR KMIC 262253Z 27008KT 10SM BKN023 OVC055 M03/M09 A2994 RMK AO2 SLP152 T10331089 (FD)
0237726575949602017012623097+45062-093351FM-16+0265KMIC V0202805N00675016765MN0160935N5-00335-00895999999ADDGA1045+006715999GA2085+016765999GD12991+0067159GD24991+0167659GE19MSL   +99999+99999GF199999999999006711999999MA1101425098275REMMET10001/26/17 17:09:02 SPECI KMIC 262309Z 28013KT 10SM SCT022 OVC055 M03/M09 A2995 RMK AO2 T10331089 (FD)
0201726575949602017012623536+45062-093351FM-15+0265KMIC V0202805N00515015245MN0160935N5-00445-00945101555ADDAA101000095GA1085+015245999GD14991+0152459MA1101425098275MD1190129+9999REMMET11801/26/17 17:53:02 METAR KMIC 262353Z 28010KT 10SM OVC050 M04/M09 A2995 RMK AO2 SLP155 T10441094 11017 21044 51012 (FD)
0250726575949602017012700537+45062-093351FM-15+0265KMIC V0202805N00465015245MN0160935N5-00445-00945101565ADDAA101000095GA1025+007625999GA2085+015245999GD11991+0076259GD24991+0152459GE19MSL   +99999+99999GF199999999999007621999999MA1101465098315REMMET10201/26/17 18:53:01 METAR KMIC 270053Z 28009KT 10SM FEW025 OVC050 M04/M09 A2996 RMK AO2 SLP156 T10441094
0232726575949602017012701057+45062-093351FM-16+0265KMIC V0202705N00465007625MN0160935N5-00445-00895999999ADDGA1075+007625999GA2085+015245999GD13991+0076259GD24991+0152459GE19MSL   +99999+99999GF199999999999007621999999MA1101425098275REMMET09501/26/17 19:05:01 SPECI KMIC 270105Z 27009KT 10SM BKN025 OVC050 M04/M09 A2995 RMK AO2 T10441089
0212726575949602017012701537+45062-093351FM-15+0265KMIC V0202805N00315006715MN0160935N5-00445-00895101575ADDAA101000095GA1085+006715999GD14991+0067159GE19MSL   +99999+99999GF199999999999006711999999MA1101425098275REMMET09501/26/17 19:53:01 METAR KMIC 270153Z 28006KT 10SM OVC022 M04/M09 A2995 RMK AO2 SLP157 T10441089
0237726575949602017012702537+45062-093351FM-15+0265KMIC V0202905N00575005795MN0160935N5-00445-00895101555ADDAA101000095GA1085+005795999GD14991+0057959GE19MSL   +99999+99999GF199999999999005791999999MA1101425098275MD1890019+9999REMMET10601/26/17 20:53:02 METAR KMIC 270253Z 29011KT 10SM OVC019 M04/M09 A2995 RMK AO2 SLP155 T10441089 58001 TSNO
0237726575949602017012703327+45062-093351FM-16+0265KMIC V0203105N00365013115MN0160935N5-00445-00895999999ADDGA1045+006105999GA2085+013115999GD12991+0061059GD24991+0131159GE19MSL   +99999+99999GF199999999999006101999999MA1101425098275REMMET10001/26/17 21:32:02 SPECI KMIC 270332Z 31007KT 10SM SCT020 OVC043 M04/M09 A2995 RMK AO2 T10441089 TSNO
0207726575949602017012703536+45062-093351FM-15+0265KMIC V0203005N00515012805MN0160935N5-00445-01005101555ADDAA101000095GA1025+006105999GA2085+012805999GD11991+0061059GD24991+0128059MA1101425098275REMMET10701/26/17 21:53:02 METAR KMIC 270353Z 30010KT 10SM FEW020 OVC042 M04/M10 A2995 RMK AO2 SLP155 T10441100 TSNO
0189726575949602017012704256+45062-093351FM-16+0265KMIC V0203105N00515007325MN0160935N5-00505-01005999999ADDGA1075+007325999GA2085+012505999GD13991+0073259GD24991+0125059MA1101425098275REMMET10001/26/17 22:25:02 SPECI KMIC 270425Z 31010KT 10SM BKN024 OVC041 M05/M10 A2995 RMK AO2 T10501100 TSNO
0207726575949602017012704536+45062-093351FM-15+0265KMIC V0203205N00415006405MN0160935N5-00505-01005101555ADDAA101000095GA1075+006405999GA2085+011585999GD13991+0064059GD24991+0115859MA1101425098275REMMET10701/26/17 22:53:02 METAR KMIC 270453Z 32008KT 10SM BKN021 OVC038 M05/M10 A2995 RMK AO2 SLP155 T10501100 TSNO
0189726575949602017012705196+45062-093351FM-16+0265KMIC V0203105N00465010975MN0160935N5-00565-01065999999ADDGA1045+006405999GA2085+010975999GD12991+0064059GD24991+0109759MA1101425098275REMMET10001/26/17 23:19:02 SPECI KMIC 270519Z 31009KT 10SM SCT021 OVC036 M06/M11 A2995 RMK AO2 T10561106 TSNO
0249726575949602017012705536+45062-093351FM-15+0265KMIC V0203105N00465010365MN0160935N5-00615-01065101545ADDAA101000095GA1045+006715999GA2085+010365999GD12991+0067159GD24991+0103659MA1101425098275MD1890019+9999REMMET13501/26/17 23:53:02 METAR KMIC 270553Z 31009KT 10SM SCT022 OVC034 M06/M11 A2995 RMK AO2 SLP154 T10611106 11044 21061 410171061 58001 TSNO
0886726575949602017012705596+45062-093351SOD  +0265KMIC V020999999999999999999999999999+99999+99999999999ADDAA124000095KA1240M-00165KA2240N-00605MG1098174101054OE11240102833001215OE22240080528017245OE33240054199999995REMSOD73024 HR PRECIPITATION (IN):0.00  24 HR MAX TEMP (F):29 24 HR MAX TEMP TIME (LST):1451 24 HR MIN TEMP (F):21 24 HR MIN TEMP TIME (LST):2359 AVERAGE STATION PRESSURE:28.990 MINIMUM SEA LEVEL PRESSURE:29.84 TIME OF OCCURRENCE:0137 PEAK WIND SPEED (MPH):23  PEAK WIND DIR (DEG):330 PEAK WIND TIME (LST):0121  FASTEST 2MIN SPEED (MPH):18 FASTEST 2MIN DIR (DEG):280 FASTEST 2MIN TIME (LST):1724 AVERAGE WIND SPEED (MPH):12.1 24 HR AVG TEMP (F):25 HEATING DEGREE DAYS:40  COOLING DEGREE DAYS:0   LATEST DAY MAX TEMP (0700-1900 LST):29  LATEST NIGHT MIN TEMP(1900-0800 LST):26 HOURLY INCREMENTAL PRECIPITATION VALUES (IN):.00 0.00 0.00 0.00 0.00 0.00 0.00 0.00 0.00 0.00 0.00 0.00 0.00 0.00 0.00 0.00 0.00 0.00 0.00 0.00 0.00 0.00 0.00 0.00EQDR01     N7GJS072R02     N7GKS075
0189726575949602017012706006+45062-093351FM-16+0265KMIC V0203105N00315006715MN0160935N5-00615-01065999999ADDGA1075+006715999GA2085+010365999GD13991+0067159GD24991+0103659MA1101425098275REMMET10001/27/17 00:00:02 SPECI KMIC 270600Z 31006KT 10SM BKN022 OVC034 M06/M11 A2995 RMK AO2 T10611106 TSNO
0169726575949602017012706536+45062-093351FM-15+0265KMIC V0202905N00365007925MN0160935N5-00565-01065101505ADDAA101000095GA1085+007925999GD14991+0079259MA1101355098215REMMET10001/27/17 00:53:02 METAR KMIC 270653Z 29007KT 10SM OVC026 M06/M11 A2993 RMK AO2 SLP150 T10561106 TSNO
0169726575949602017012707536+45062-093351FM-15+0265KMIC V0202805N00575008845MN0160935N5-00565-01005101485ADDAA101000095GA1085+008845999GD14991+0088459MA1101355098215REMMET10001/27/17 01:53:02 METAR KMIC 270753Z 28011KT 10SM OVC029 M06/M10 A2993 RMK AO2 SLP148 T10561100 TSNO
0151726575949602017012708066+45062-093351FM-16+0265KMIC V0202805N00365009145MN0160935N5-00565-01005999999ADDGA1085+009145999GD14991+0091459MA1101355098215REMMET09301/27/17 02:06:02 SPECI KMIC 270806Z 28007KT 10SM OVC030 M06/M10 A2993 RMK AO2 T10561100 TSNO
0199726575949602017012708317+45062-093351FM-16+0265KMIC V0202905N00515008845MN0160935N5-00565-01005999999ADDGA1085+008845999GD14991+0088459GE19MSL   +99999+99999GF199999999999008841999999MA1101355098215REMMET09301/27/17 02:31:02 SPECI KMIC 270831Z 29010KT 10SM OVC029 M06/M10 A2993 RMK AO2 T10561100 TSNO
0237726575949602017012708537+45062-093351FM-15+0265KMIC V0202805N00465008535MN0160935N5-00565-01005101465ADDAA101000095GA1085+008535999GD14991+0085359GE19MSL   +99999+99999GF199999999999008531999999MA1101325098185MD1690089+9999REMMET10601/27/17 02:53:02 METAR KMIC 270853Z 28009KT 10SM OVC028 M06/M10 A2992 RMK AO2 SLP146 T10561100 56008 TSNO
0217726575949602017012709537+45062-093351FM-15+0265KMIC V0202705N00365008235MN0160935N5-00565-01005101425ADDAA101000095GA1085+008235999GD14991+0082359GE19MSL   +99999+99999GF199999999999008231999999MA1101295098145REMMET10001/27/17 03:53:02 METAR KMIC 270953Z 27007KT 10SM OVC027 M06/M10 A2991 RMK AO2 SLP142 T10561100 TSNO
0217726575949602017012710537+45062-093351FM-15+0265KMIC V0202805N00415005795MN0160935N5-00615-01005101405ADDAA101000095GA1085+005795999GD14991+0057959GE19MSL   +99999+99999GF199999999999005791999999MA1101295098145REMMET10001/27/17 04:53:02 METAR KMIC 271053Z 28008KT 10SM OVC019 M06/M10 A2991 RMK AO2 SLP140 T10611100 TSNO
0275726575949602017012711537+45062-093351FM-15+0265KMIC V0202505N00515004575MN0160935N5-00615-01005101395ADDAA101000095GA1085+004575999GD14991+0045759GE19MSL   +99999+99999GF199999999999004571999999KA1060M-00561KA2060N-00611MA1101255098115MD1690079+9999REMMET11801/27/17 05:53:02 METAR KMIC 271153Z 25010KT 10SM OVC015 M06/M10 A2990 RMK AO2 SLP139 T10611100 11056 21061 56007 TSNO
0199726575949602017012712087+45062-093351FM-16+0265KMIC V0202605N00415004275MN0160935N5-00675-01005999999ADDGA1085+004275999GD14991+0042759GE19MSL   +99999+99999GF199999999999004271999999MA1101255098115REMMET09301/27/17 06:08:02 SPECI KMIC 271208Z 26008KT 10SM OVC014 M07/M10 A2990 RMK AO2 T10671100 TSNO
0212726575949602017012712537+45062-093351FM-15+0265KMIC V0202405N00515003665MN0160935N5-00725-01065101375ADDAA101000095GA1085+003665999GD14991+0036659GE19MSL   +99999+99999GF199999999999003661999999MA1101225098085REMMET09501/27/17 06:53:02 METAR KMIC 271253Z 24010KT 10SM OVC012 M07/M11 A2989 RMK AO2 SLP137 T10721106
0218726575949602017012713537+45062-093351FM-15+0265KMIC V0202505N00315003665MN0160935N5-00785-01115101335ADDAA101000095GA1085+003665999GD14991+0036659GE19MSL   +99999+99999GF199999999999003661999999MA1101195098045REMMET10101/27/17 07:53:02 METAR KMIC 271353Z 25006KT 10SM OVC012 M08/M11 A2988 RMK AO2 SLP133 T10781111 PNO $
0219726575949602017012714207+45062-093351FM-16+0265KMIC V0202305N004152200059N0160935N5-00835-01175999999ADDGA1045+003665999GD12991+0036659GE19AGL   +99999+99999GF104995999999003661999999MA1101195098045REMMET09401/27/17 08:20:02 SPECI KMIC 271420Z 23008KT 10SM SCT012 M08/M12 A2988 RMK AO2 T10831117 PNO $EQDD01      0ADE726
0244726575949602017012714537+45062-093351FM-15+0265KMIC V0202405N00415033535MN0160935N5-00835-01225101285ADDAA101000095GA1075+033535999GD13991+0335359GE19MSL   +99999+99999GF199999999999033531999999MA1101155098015MD1890119+9999REMMET11301/27/17 08:53:02 METAR KMIC 271453Z 24008KT 10SM BKN110 M08/M12 A2987 RMK AO2 SLP128 6//// T10831122 58011 PNO $
0231726575949602017012715537+45062-093351FM-15+0265KMIC V0202705N00315030485MN0160935N5-00725-01175101285ADDAA101000095GA1085+030485999GD14991+0304859GE19MSL   +99999+99999GF199999999999030481999999MA1101155098015REMMET11401/27/17 09:53:02 METAR KMIC 271553Z 27006KT 10SM OVC100 M07/M12 A2987 RMK AO2 SLP128 T10721117 PWINO FZRANO PNO $
0193726575949602017012716537+45062-093351FM-15+0265KMIC V0209999N999992200059N0160935N5-00565-01115101255ADDAA101000095GA1005+999999999GD10991+9999999GF100991999999999999999999MA1101125097985REMMET09801/27/17 10:53:02 METAR KMIC 271653Z      KT 10SM CLR M06/M11 A2986 RMK AO2 SLP125 T10561111 PNO $
0295726575949602017012717537+45062-093351FM-15+0265KMIC V0203005N003152200059N0160935N5-00445-01005101195ADDAA101000095GA1025+036585999GD11991+0365859GE19AGL   +99999+99999GF102995999999036581999999KA1060M-00441KA2060N-00831MA1101055097915MD1890089+9999REMMET11901/27/17 11:53:02 METAR KMIC 271753Z 30006KT 10SM FEW120 M04/M10 A2984 RMK AO2 SLP119 6//// T10441100 11044 21083 58008EQDD01      0ADE726
0212726575949602017012718537+45062-093351FM-15+0265KMIC V0202805N00365033535MN0160935N5-00335-00945101095ADDAA101000095GA1085+033535999GD14991+0335359GE19MSL   +99999+99999GF199999999999033531999999MA1100955097815REMMET09501/27/17 12:53:02 METAR KMIC 271853Z 28007KT 10SM OVC110 M03/M09 A2981 RMK AO2 SLP109 T10331094
0231726575949602017012719537+45062-093351FM-15+0265KMIC V0202705N006252200059N0160935N5-00225-00895101045ADDAA101000095GA1045+007015999GD12991+0070159GE19AGL   +99999+99999GF104995999999007011999999MA1100915097785REMMET09501/27/17 13:53:02 METAR KMIC 271953Z 27012KT 10SM SCT023 M02/M09 A2980 RMK AO2 SLP104 T10221089EQDD01      0ADE726
0194726575949602017012720077+45062-093351FM-16+0265KMIC V0202605N00415007015MN0160935N5-00225-00895999999ADDGA1075+007015999GD13991+0070159GE19MSL   +99999+99999GF199999999999007011999999MA1100915097785REMMET08801/27/17 14:07:02 SPECI KMIC 272007Z 26008KT 10SM BKN023 M02/M09 A2980 RMK AO2 T10221089
0213726575949602017012720237+45062-093351FM-16+0265KMIC V0202705N005152200059N0160935N5-00175-00835999999ADDGA1045+006715999GD12991+0067159GE19AGL   +99999+99999GF104995999999006711999999MA1100885097755REMMET08801/27/17 14:23:02 SPECI KMIC 272023Z 27010KT 10SM SCT022 M02/M08 A2979 RMK AO2 T10171083EQDD01      0ADE726
0207726575949602017012720537+45062-093351FM-15+0265KMIC V0202705N005152200059N0160935N5-00115-00785101005ADDAA101000095GA1005+999999999GD10991+9999999GF100991999999999999999999MA1100885097755MD1690179+9999REMMET09801/27/17 14:53:02 METAR KMIC 272053Z 27010KT 10SM CLR M01/M08 A2979 RMK AO2 SLP100 T10111078 56017
0187726575949602017012721537+45062-093351FM-15+0265KMIC V0202705N005152200059N0160935N5-00065-00675100985ADDAA101000095GA1005+999999999GD10991+9999999GF100991999999999999999999MA1100885097755REMMET09201/27/17 15:53:02 METAR KMIC 272153Z 27010KT 10SM CLR M01/M07 A2979 RMK AO2 SLP098 T10061067
0187726575949602017012722537+45062-093351FM-15+0265KMIC V0202805N004152200059N0160935N5-00115-00675101005ADDAA101000095GA1005+999999999GD10991+9999999GF100991999999999999999999MA1100885097755REMMET09201/27/17 16:53:02 METAR KMIC 272253Z 28008KT 10SM CLR M01/M07 A2979 RMK AO2 SLP100 T10111067
0245726575949602017012723537+45062-093351FM-15+0265KMIC V0202805N005152200059N0160935N5-00175-00675101065ADDAA101000095GA1005+999999999GD10991+9999999GF100991999999999999999999KA1060M-00061KA2060N-00441MA1100955097815MD1390049+9999REMMET11001/27/17 17:53:02 METAR KMIC 272353Z 28010KT 10SM CLR M02/M07 A2981 RMK AO2 SLP106 T10171067 11006 21044 53004
0187726575949602017012800537+45062-093351FM-15+0265KMIC V0202905N004152200059N0160935N5-00225-00675101055ADDAA101000095GA1005+999999999GD10991+9999999GF100991999999999999999999MA1100915097785REMMET09201/27/17 18:53:01 METAR KMIC 280053Z 29008KT 10SM CLR M02/M07 A2980 RMK AO2 SLP105 T10221067
0187726575949602017012801537+45062-093351FM-15+0265KMIC V0202905N004652200059N0160935N5-00225-00725101045ADDAA101000095GA1005+999999999GD10991+9999999GF100991999999999999999999MA1100915097785REMMET09201/27/17 19:53:01 METAR KMIC 280153Z 29009KT 10SM CLR M02/M07 A2980 RMK AO2 SLP104 T10221072
0212726575949602017012802537+45062-093351FM-15+0265KMIC V0202905N005152200059N0160935N5-00285-00725101035ADDAA101000095GA1005+999999999GD10991+9999999GF100991999999999999999999MA1100885097755MD1790049+9999REMMET10301/27/17 20:53:02 METAR KMIC 280253Z 29010KT 10SM CLR M03/M07 A2979 RMK AO2 SLP103 T10281072 57004 TSNO
0192726575949602017012803537+45062-093351FM-15+0265KMIC V0202805N004652200059N0160935N5-00335-00725101035ADDAA101000095GA1005+999999999GD10991+9999999GF100991999999999999999999MA1100885097755REMMET09701/27/17 21:53:02 METAR KMIC 280353Z 28009KT 10SM CLR M03/M07 A2979 RMK AO2 SLP103 T10331072 TSNO
0191726575949602017012804537+45062-093351FM-15+0265KMIC V0202905N005152200059N0144845N5-00335-00725101015ADDAA101000095GA1005+999999999GD10991+9999999GF100991999999999999999999MA1100885097755REMMET09601/27/17 22:53:02 METAR KMIC 280453Z 29010KT 9SM CLR M03/M07 A2979 RMK AO2 SLP101 T10331072 TSNO
0285726575949602017012805537+45062-093351FM-15+0265KMIC V0203005N005752200059N0144845N5-00395-00785101025ADDAA101000095GA1005+999999999GD10991+9999999GF100991999999999999999999KA1060M-00171KA2060N-00391KA3240M-00061KA4240N-00831MA1100885097755MD1590019+9999REMMET12401/27/17 23:53:02 METAR KMIC 280553Z 30011KT 9SM CLR M04/M08 A2979 RMK AO2 SLP102 T10391078 11017 21039 410061083 55001 TSNO
0886726575949602017012805596+45062-093351SOD  +0265KMIC V020999999999999999999999999999+99999+99999999999ADDAA124000095KA1240M-00055KA2240N-00825MG1097884100984OE11240089427016305OE22240067127015425OE33240045299999995REMSOD73024 HR PRECIPITATION (IN):0.00  24 HR MAX TEMP (F):31 24 HR MAX TEMP TIME (LST):1637 24 HR MIN TEMP (F):17 24 HR MIN TEMP TIME (LST):0915 AVERAGE STATION PRESSURE:28.905 MINIMUM SEA LEVEL PRESSURE:29.82 TIME OF OCCURRENCE:2237 PEAK WIND SPEED (MPH):20  PEAK WIND DIR (DEG):270 PEAK WIND TIME (LST):1630  FASTEST 2MIN SPEED (MPH):15 FASTEST 2MIN DIR (DEG):270 FASTEST 2MIN TIME (LST):1542 AVERAGE WIND SPEED (MPH):10.1 24 HR AVG TEMP (F):24 HEATING DEGREE DAYS:41  COOLING DEGREE DAYS:0   LATEST DAY MAX TEMP (0700-1900 LST):31  LATEST NIGHT MIN TEMP(1900-0800 LST):18 HOURLY INCREMENTAL PRECIPITATION VALUES (IN):.00 0.00 0.00 0.00 0.00 0.00 0.00 0.00 0.00 0.00 0.00 0.00 0.00 0.00 0.00 0.00 0.00 0.00 0.00 0.00 0.00 0.00 0.00 0.00EQDR01     N7GJS072R02     N7GKS075
0192726575949602017012806537+45062-093351FM-15+0265KMIC V0203005N005152200059N0160935N5-00395-00785100995ADDAA101000095GA1005+999999999GD10991+9999999GF100991999999999999999999MA1100885097755REMMET09701/28/17 00:53:02 METAR KMIC 280653Z 30010KT 10SM CLR M04/M08 A2979 RMK AO2 SLP099 T10391078 TSNO
0192726575949602017012807537+45062-093351FM-15+0265KMIC V0202905N004652200059N0160935N5-00445-00835100975ADDAA101000095GA1005+999999999GD10991+9999999GF100991999999999999999999MA1100855097715REMMET09701/28/17 01:53:02 METAR KMIC 280753Z 29009KT 10SM CLR M04/M08 A2978 RMK AO2 SLP097 T10441083 TSNO
0212726575949602017012808537+45062-093351FM-15+0265KMIC V0202905N005152200059N0160935N5-00445-00835100965ADDAA101000095GA1005+999999999GD10991+9999999GF100991999999999999999999MA1100855097715MD1790059+9999REMMET10301/28/17 02:53:02 METAR KMIC 280853Z 29010KT 10SM CLR M04/M08 A2978 RMK AO2 SLP096 T10441083 57005 TSNO
0192726575949602017012809537+45062-093351FM-15+0265KMIC V0203005N004652200059N0160935N5-00445-00835100995ADDAA101000095GA1005+999999999GD10991+9999999GF100991999999999999999999MA1100885097755REMMET09701/28/17 03:53:02 METAR KMIC 280953Z 30009KT 10SM CLR M04/M08 A2979 RMK AO2 SLP099 T10441083 TSNO
0199726575949602017012810167+45062-093351FM-16+0265KMIC V0203205N00675005185MN0160935N5-00395-00835999999ADDGA1075+005185999GD13991+0051859GE19MSL   +99999+99999GF199999999999005181999999MA1100885097755REMMET09301/28/17 04:16:02 SPECI KMIC 281016Z 32013KT 10SM BKN017 M04/M08 A2979 RMK AO2 T10391083 TSNO
0228726575949602017012810537+45062-093351FM-15+0265KMIC V0203205N00675004885MN0160935N5-00395-00785101005ADDAA101000095GA1085+004885999GD14991+0048859GE19MSL   +99999+99999GF199999999999004881999999MA1100915097785OC101085REMMET10301/28/17 04:53:02 METAR KMIC 281053Z 32013G21KT 10SM OVC016 M04/M08 A2980 RMK AO2 SLP100 T10391078 TSNO
0281726575949602017012811537+45062-093351FM-15+0265KMIC V0203405N00675004885MN0160935N5-00395-00835101035ADDAA101000095GA1085+004885999GD14991+0048859GE19MSL   +99999+99999GF199999999999004881999999KA1060M-00331KA2060N-00441MA1100915097785MD1190079+9999REMMET12401/28/17 05:53:02 METAR KMIC 281153Z 34013KT 10SM OVC016 M04/M08 A2980 RMK AO2 SLP103 7//// T10391083 11033 21044 51007 TSNO
0212726575949602017012812537+45062-093351FM-15+0265KMIC V0203305N00625004885MN0160935N5-00395-00835101065ADDAA101000095GA1085+004885999GD14991+0048859GE19MSL   +99999+99999GF199999999999004881999999MA1100955097815REMMET09501/28/17 06:53:02 METAR KMIC 281253Z 33012KT 10SM OVC016 M04/M08 A2981 RMK AO2 SLP106 T10391083
0212726575949602017012813537+45062-093351FM-15+0265KMIC V0203305N00515005185MN0160935N5-00395-00835101105ADDAA101000095GA1085+005185999GD14991+0051859GE19MSL   +99999+99999GF199999999999005181999999MA1100985097855REMMET09501/28/17 07:53:02 METAR KMIC 281353Z 33010KT 10SM OVC017 M04/M08 A2982 RMK AO2 SLP110 T10391083
0232726575949602017012814537+45062-093351FM-15+0265KMIC V0203205N00415005185MN0160935N5-00335-00785101135ADDAA101000095GA1085+005185999GD14991+0051859GE19MSL   +99999+99999GF199999999999005181999999MA1101025097885MD1190099+9999REMMET10101/28/17 08:53:02 METAR KMIC 281453Z 32008KT 10SM OVC017 M03/M08 A2983 RMK AO2 SLP113 T10331078 51009
0212726575949602017012815537+45062-093351FM-15+0265KMIC V0203205N00415005795MN0160935N5-00335-00785101195ADDAA101000095GA1085+005795999GD14991+0057959GE19MSL   +99999+99999GF199999999999005791999999MA1101085097945REMMET09501/28/17 09:53:02 METAR KMIC 281553Z 32008KT 10SM OVC019 M03/M08 A2985 RMK AO2 SLP119 T10331078
0212726575949602017012816537+45062-093351FM-15+0265KMIC V0203305N00515005795MN0160935N5-00285-00785101155ADDAA101000095GA1085+005795999GD14991+0057959GE19MSL   +99999+99999GF199999999999005791999999MA1101025097885REMMET09501/28/17 10:53:02 METAR KMIC 281653Z 33010KT 10SM OVC019 M03/M08 A2983 RMK AO2 SLP115 T10281078
0270726575949602017012817537+45062-093351FM-15+0265KMIC V0203205N00515006105MN0160935N5-00285-00835101145ADDAA101000095GA1085+006105999GD14991+0061059GE19MSL   +99999+99999GF199999999999006101999999KA1060M-00281KA2060N-00391MA1101025097885MD1090019+9999REMMET11301/28/17 11:53:02 METAR KMIC 281753Z 32010KT 10SM OVC020 M03/M08 A2983 RMK AO2 SLP114 T10281083 11028 21039 50001
0212726575949602017012818537+45062-093351FM-15+0265KMIC V0203005N00575006405MN0160935N5-00285-00835101105ADDAA101000095GA1085+006405999GD14991+0064059GE19MSL   +99999+99999GF199999999999006401999999MA1100985097855REMMET09501/28/17 12:53:02 METAR KMIC 281853Z 30011KT 10SM OVC021 M03/M08 A2982 RMK AO2 SLP110 T10281083
0212726575949602017012819537+45062-093351FM-15+0265KMIC V0203005N00515006715MN0160935N5-00285-00835101045ADDAA101000095GA1085+006715999GD14991+0067159GE19MSL   +99999+99999GF199999999999006711999999MA1100915097785REMMET09501/28/17 13:53:02 METAR KMIC 281953Z 30010KT 10SM OVC022 M03/M08 A2980 RMK AO2 SLP104 T10281083
0232726575949602017012820537+45062-093351FM-15+0265KMIC V0203005N00515006105MN0160935N5-00285-00835101075ADDAA101000095GA1085+006105999GD14991+0061059GE19MSL   +99999+99999GF199999999999006101999999MA1100955097815MD1590079+9999REMMET10101/28/17 14:53:02 METAR KMIC 282053Z 30010KT 10SM OVC020 M03/M08 A2981 RMK AO2 SLP107 T10281083 55007
0212726575949602017012821537+45062-093351FM-15+0265KMIC V0203205N00575006715MN0160935N5-00335-00835101125ADDAA101000095GA1085+006715999GD14991+0067159GE19MSL   +99999+99999GF199999999999006711999999MA1100985097855REMMET09501/28/17 15:53:02 METAR KMIC 282153Z 32011KT 10SM OVC022 M03/M08 A2982 RMK AO2 SLP112 T10331083
0212726575949602017012822537+45062-093351FM-15+0265KMIC V0203105N00515006105MN0160935N5-00335-00895101115ADDAA101000095GA1085+006105999GD14991+0061059GE19MSL   +99999+99999GF199999999999006101999999MA1100985097855REMMET09501/28/17 16:53:02 METAR KMIC 282253Z 31010KT 10SM OVC020 M03/M09 A2982 RMK AO2 SLP111 T10331089
0270726575949602017012823537+45062-093351FM-15+0265KMIC V0203005N00675006405MN0160935N5-00335-00895101155ADDAA101000095GA1085+006405999GD14991+0064059GE19MSL   +99999+99999GF199999999999006401999999KA1060M-00281KA2060N-00391MA1101025097885MD1190079+9999REMMET11301/28/17 17:53:02 METAR KMIC 282353Z 30013KT 10SM OVC021 M03/M09 A2983 RMK AO2 SLP115 T10331089 11028 21039 51007
0212726575949602017012900537+45062-093351FM-15+0265KMIC V0203105N00415006715MN0160935N5-00395-00895101175ADDAA101000095GA1085+006715999GD14991+0067159GE19MSL   +99999+99999GF199999999999006711999999MA1101055097915REMMET09501/28/17 18:53:01 METAR KMIC 290053Z 31008KT 10SM OVC022 M04/M09 A2984 RMK AO2 SLP117 T10391089
0223726575949602017012901537+45062-093351FM-15+0265KMIC V0203105N00725006715MN0160935N5-00395-00945101185ADDAA101000095GA1085+006715999GD14991+0067159GE19MSL   +99999+99999GF199999999999006711999999MA1101055097915OC100935REMMET09801/28/17 19:53:01 METAR KMIC 290153Z 31014G18KT 10SM OVC022 M04/M09 A2984 RMK AO2 SLP118 T10391094
0237726575949602017012902537+45062-093351FM-15+0265KMIC V0203105N00415007015MN0160935N5-00395-00945101165ADDAA101000095GA1085+007015999GD14991+0070159GE19MSL   +99999+99999GF199999999999007011999999MA1101055097915MD1090019+9999REMMET10601/28/17 20:53:02 METAR KMIC 290253Z 31008KT 10SM OVC023 M04/M09 A2984 RMK AO2 SLP116 T10391094 50001 TSNO
0217726575949602017012903537+45062-093351FM-15+0265KMIC V0203305N00415007015MN0160935N5-00395-00945101185ADDAA101000095GA1085+007015999GD14991+0070159GE19MSL   +99999+99999GF199999999999007011999999MA1101055097915REMMET10001/28/17 21:53:02 METAR KMIC 290353Z 33008KT 10SM OVC023 M04/M09 A2984 RMK AO2 SLP118 T10391094 TSNO
0217726575949602017012904537+45062-093351FM-15+0265KMIC V0203205N00365007015MN0160935N5-00445-01005101155ADDAA101000095GA1085+007015999GD14991+0070159GE19MSL   +99999+99999GF199999999999007011999999MA1101055097915REMMET10001/28/17 22:53:02 METAR KMIC 290453Z 32007KT 10SM OVC023 M04/M10 A2984 RMK AO2 SLP115 T10441100 TSNO
0311726575949602017012905537+45062-093351FM-15+0265KMIC V0203205N00625007015MN0160935N5-00445-01005101205ADDAA101000095GA1085+007015999GD14991+0070159GE19MSL   +99999+99999GF199999999999007011999999KA1060M-00331KA2060N-00441KA3240M-00281KA4240N-00441MA1101085097945MD1390049+9999REMMET12801/28/17 23:53:02 METAR KMIC 290553Z 32012KT 10SM OVC023 M04/M10 A2985 RMK AO2 SLP120 T10441100 11033 21044 410281044 53004 TSNO
0886726575949602017012905596+45062-093351SOD  +0265KMIC V020999999999999999999999999999+99999+99999999999ADDAA124000095KA1240M-00275KA2240N-00435MG1097874100954OE11240111833004545OE22240089432005265OE33240052399999995REMSOD73024 HR PRECIPITATION (IN):0.00  24 HR MAX TEMP (F):27 24 HR MAX TEMP TIME (LST):1538 24 HR MIN TEMP (F):24 24 HR MIN TEMP TIME (LST):2359 AVERAGE STATION PRESSURE:28.900 MINIMUM SEA LEVEL PRESSURE:29.81 TIME OF OCCURRENCE:0333 PEAK WIND SPEED (MPH):25  PEAK WIND DIR (DEG):330 PEAK WIND TIME (LST):0454  FASTEST 2MIN SPEED (MPH):20 FASTEST 2MIN DIR (DEG):320 FASTEST 2MIN TIME (LST):0526 AVERAGE WIND SPEED (MPH):11.7 24 HR AVG TEMP (F):26 HEATING DEGREE DAYS:39  COOLING DEGREE DAYS:0   LATEST DAY MAX TEMP (0700-1900 LST):27  LATEST NIGHT MIN TEMP(1900-0800 LST):24 HOURLY INCREMENTAL PRECIPITATION VALUES (IN):.00 0.00 0.00 0.00 0.00 0.00 0.00 0.00 0.00 0.00 0.00 0.00 0.00 0.00 0.00 0.00 0.00 0.00 0.00 0.00 0.00 0.00 0.00 0.00EQDR01     N7GJS072R02     N7GKS075
0217726575949602017012906537+45062-093351FM-15+0265KMIC V0203405N00365007325MN0160935N5-00445-01005101165ADDAA101000095GA1085+007325999GD14991+0073259GE19MSL   +99999+99999GF199999999999007321999999MA1101055097915REMMET10001/29/17 00:53:02 METAR KMIC 290653Z 34007KT 10SM OVC024 M04/M10 A2984 RMK AO2 SLP116 T10441100 TSNO
0217726575949602017012907537+45062-093351FM-15+0265KMIC V0209999C00005008235MN0160935N5-00445-01005101155ADDAA101000095GA1085+008235999GD14991+0082359GE19MSL   +99999+99999GF199999999999008231999999MA1101055097915REMMET10001/29/17 01:53:02 METAR KMIC 290753Z 00000KT 10SM OVC027 M04/M10 A2984 RMK AO2 SLP115 T10441100 TSNO
0237726575949602017012908537+45062-093351FM-15+0265KMIC V0203405N00155006715MN0160935N5-00445-00945101165ADDAA101000095GA1085+006715999GD14991+0067159GE19MSL   +99999+99999GF199999999999006711999999MA1101055097915MD1590049+9999REMMET10601/29/17 02:53:02 METAR KMIC 290853Z 34003KT 10SM OVC022 M04/M09 A2984 RMK AO2 SLP116 T10441094 55004 TSNO
0217726575949602017012909537+45062-093351FM-15+0265KMIC V0203005N00155006405MN0160935N5-00445-00945101145ADDAA101000095GA1085+006405999GD14991+0064059GE19MSL   +99999+99999GF199999999999006401999999MA1101025097885REMMET10001/29/17 03:53:02 METAR KMIC 290953Z 30003KT 10SM OVC021 M04/M09 A2983 RMK AO2 SLP114 T10441094 TSNO
0217726575949602017012910537+45062-093351FM-15+0265KMIC V0209999C00005006715MN0160935N5-00395-00895101125ADDAA101000095GA1085+006715999GD14991+0067159GE19MSL   +99999+99999GF199999999999006711999999MA1100985097855REMMET10001/29/17 04:53:02 METAR KMIC 291053Z 00000KT 10SM OVC022 M04/M09 A2982 RMK AO2 SLP112 T10391089 TSNO
0275726575949602017012911537+45062-093351FM-15+0265KMIC V0203305N00465006105MN0160935N5-00335-00835101135ADDAA101000095GA1085+006105999GD14991+0061059GE19MSL   +99999+99999GF199999999999006101999999KA1060M-00331KA2060N-00441MA1101025097885MD1590029+9999REMMET11801/29/17 05:53:02 METAR KMIC 291153Z 33009KT 10SM OVC020 M03/M08 A2983 RMK AO2 SLP113 T10331083 11033 21044 55002 TSNO
0217726575949602017012912537+45062-093351FM-15+0265KMIC V0203205N00625006715MN0160935N5-00335-00835101195ADDAA101000095GA1085+006715999GD14991+0067159GE19MSL   +99999+99999GF199999999999006711999999MA1101085097945REMMET10001/29/17 06:53:02 METAR KMIC 291253Z 32012KT 10SM OVC022 M03/M08 A2985 RMK AO2 SLP119 T10331083 (FD)
0217726575949602017012913537+45062-093351FM-15+0265KMIC V0203305N00675006715MN0160935N5-00395-00895101235ADDAA101000095GA1085+006715999GD14991+0067159GE19MSL   +99999+99999GF199999999999006711999999MA1101085097945REMMET10001/29/17 07:53:02 METAR KMIC 291353Z 33013KT 10SM OVC022 M04/M09 A2985 RMK AO2 SLP123 T10391089 (FD)
0237726575949602017012914537+45062-093351FM-15+0265KMIC V0203205N00725007925MN0160935N5-00505-01115101365ADDAA101000095GA1085+007925999GD14991+0079259GE19MSL   +99999+99999GF199999999999007921999999MA1101225098085MD1390219+9999REMMET10601/29/17 08:53:02 METAR KMIC 291453Z 32014KT 10SM OVC026 M05/M11 A2989 RMK AO2 SLP136 T10501111 53021 (FD)
0217726575949602017012915537+45062-093351FM-15+0265KMIC V0203205N00625007625MN0160935N5-00505-01115101425ADDAA101000095GA1085+007625999GD14991+0076259GE19MSL   +99999+99999GF199999999999007621999999MA1101295098145REMMET10001/29/17 09:53:02 METAR KMIC 291553Z 32012KT 10SM OVC025 M05/M11 A2991 RMK AO2 SLP142 T10501111 (FD)
0236726575949602017012916537+45062-093351FM-15+0265KMIC V0203205N006752200059N0160935N5-00445-01175101445ADDAA101000095GA1025+007625999GD11991+0076259GE19AGL   +99999+99999GF102995999999007621999999MA1101325098185REMMET10001/29/17 10:53:02 METAR KMIC 291653Z 32013KT 10SM FEW025 M04/M12 A2992 RMK AO2 SLP144 T10441117 (FD)EQDD01      0ADE726
0250726575949602017012917537+45062-093351FM-15+0265KMIC V0203105N007252200059N0160935N5-00395-01225101495ADDAA101000095GA1005+999999999GD10991+9999999GF100991999999999999999999KA1060M-00331KA2060N-00501MA1101355098215MD1190139+9999REMMET11501/29/17 11:53:02 METAR KMIC 291753Z 31014KT 10SM CLR M04/M12 A2993 RMK AO2 SLP149 T10391122 11033 21050 51013 (FD)
0192726575949602017012918537+45062-093351FM-15+0265KMIC V0203205N006752200059N0160935N5-00285-01285101455ADDAA101000095GA1005+999999999GD10991+9999999GF100991999999999999999999MA1101325098185REMMET09701/29/17 12:53:02 METAR KMIC 291853Z 32013KT 10SM CLR M03/M13 A2992 RMK AO2 SLP145 T10281128 (FD)
0192726575949602017012919537+45062-093351FM-15+0265KMIC V0203105N006252200059N0160935N5-00225-01225101445ADDAA101000095GA1005+999999999GD10991+9999999GF100991999999999999999999MA1101325098185REMMET09701/29/17 13:53:02 METAR KMIC 291953Z 31012KT 10SM CLR M02/M12 A2992 RMK AO2 SLP144 T10221122 (FD)
0212726575949602017012920537+45062-093351FM-15+0265KMIC V0203305N006752200059N0160935N5-00225-01285101485ADDAA101000095GA1005+999999999GD10991+9999999GF100991999999999999999999MA1101355098215MD1590009+9999REMMET10301/29/17 14:53:02 METAR KMIC 292053Z 33013KT 10SM CLR M02/M13 A2993 RMK AO2 SLP148 T10221128 55000 (FD)
0192726575949602017012921537+45062-093351FM-15+0265KMIC V0203205N006252200059N0160935N5-00225-01445101535ADDAA101000095GA1005+999999999GD10991+9999999GF100991999999999999999999MA1101425098275REMMET09701/29/17 15:53:02 METAR KMIC 292153Z 32012KT 10SM CLR M02/M14 A2995 RMK AO2 SLP153 T10221144 (FD)
0192726575949602017012922537+45062-093351FM-15+0265KMIC V0203405N005752200059N0160935N5-00285-01565101575ADDAA101000095GA1005+999999999GD10991+9999999GF100991999999999999999999MA1101465098315REMMET09701/29/17 16:53:02 METAR KMIC 292253Z 34011KT 10SM CLR M03/M16 A2996 RMK AO2 SLP157 T10281156 (FD)
0250726575949602017012923537+45062-093351FM-15+0265KMIC V0203405N002652200059N0160935N5-00445-01565101615ADDAA101000095GA1005+999999999GD10991+9999999GF100991999999999999999999KA1060M-00171KA2060N-00441MA1101495098345MD1190129+9999REMMET11501/29/17 17:53:02 METAR KMIC 292353Z 34005KT 10SM CLR M04/M16 A2997 RMK AO2 SLP161 T10441156 11017 21044 51012 (FD)
0187726575949602017013000537+45062-093351FM-15+0265KMIC V0203505N001552200059N0160935N5-00505-01615101655ADDAA101000095GA1005+999999999GD10991+9999999GF100991999999999999999999MA1101525098375REMMET09201/29/17 18:53:01 METAR KMIC 300053Z 35003KT 10SM CLR M05/M16 A2998 RMK AO2 SLP165 T10501161
0187726575949602017013001537+45062-093351FM-15+0265KMIC V0209999C000052200059N0160935N5-00785-01565101655ADDAA101000095GA1005+999999999GD10991+9999999GF100991999999999999999999MA1101525098375REMMET09201/29/17 19:53:01 METAR KMIC 300153Z 00000KT 10SM CLR M08/M16 A2998 RMK AO2 SLP165 T10781156
0207726575949602017013002537+45062-093351FM-15+0265KMIC V0209999C000052200059N0160935N5-00835-01445101635ADDAA101000095GA1005+999999999GD10991+9999999GF100991999999999999999999MA1101495098345MD1090009+9999REMMET09801/29/17 20:53:02 METAR KMIC 300253Z 00000KT 10SM CLR M08/M14 A2997 RMK AO2 SLP163 T10831144 50000
0192726575949602017013003537+45062-093351FM-15+0265KMIC V0209999C000052200059N0160935N5-00945-01505101555ADDAA101000095GA1005+999999999GD10991+9999999GF100991999999999999999999MA1101395098245REMMET09701/29/17 21:53:02 METAR KMIC 300353Z 00000KT 10SM CLR M09/M15 A2994 RMK AO2 SLP155 T10941150 TSNO
0192726575949602017013004537+45062-093351FM-15+0265KMIC V0209999C000052200059N0160935N5-01065-01505101565ADDAA101000095GA1005+999999999GD10991+9999999GF100991999999999999999999MA1101425098275REMMET09701/29/17 22:53:02 METAR KMIC 300453Z 00000KT 10SM CLR M11/M15 A2995 RMK AO2 SLP156 T11061150 TSNO
0330726575949602017013005537+45062-093351FM-15+0265KMIC V0201805N001552200059N0160935N5-01005-01445101485ADDAA101000095GA1045+022865999GD12991+0228659GE19AGL   +99999+99999GF104995999999022861999999KA1060M-00441KA2060N-01061KA3240M-00171KA4240N-01061MA1101325098185MD1790149+9999REMMET12801/29/17 23:53:02 METAR KMIC 300553Z 18003KT 10SM SCT075 M10/M14 A2992 RMK AO2 SLP148 T11001144 11044 21106 410171106 57014 TSNOEQDD01      0ADE726
0886726575949602017013005596+45062-093351SOD  +0265KMIC V020999999999999999999999999999+99999+99999999999ADDAA124000095KA1240M-00165KA2240N-01055MG1098144101084OE11240116232008035OE22240089431008045OE33240037199999995REMSOD73024 HR PRECIPITATION (IN):0.00  24 HR MAX TEMP (F):29 24 HR MAX TEMP TIME (LST):1543 24 HR MIN TEMP (F):13 24 HR MIN TEMP TIME (LST):2357 AVERAGE STATION PRESSURE:28.980 MINIMUM SEA LEVEL PRESSURE:29.85 TIME OF OCCURRENCE:0540 PEAK WIND SPEED (MPH):26  PEAK WIND DIR (DEG):320 PEAK WIND TIME (LST):0803  FASTEST 2MIN SPEED (MPH):20 FASTEST 2MIN DIR (DEG):310 FASTEST 2MIN TIME (LST):0804 AVERAGE WIND SPEED (MPH):8.3  24 HR AVG TEMP (F):21 HEATING DEGREE DAYS:44  COOLING DEGREE DAYS:0   LATEST DAY MAX TEMP (0700-1900 LST):29  LATEST NIGHT MIN TEMP(1900-0800 LST):24 HOURLY INCREMENTAL PRECIPITATION VALUES (IN):.00 0.00 0.00 0.00 0.00 0.00 0.00 0.00 0.00 0.00 0.00 0.00 0.00 0.00 0.00 0.00 0.00 0.00 0.00 0.00 0.00 0.00 0.00 0.00EQDR01     N7GJS072R02     N7GKS075
0192726575949602017013006537+45062-093351FM-15+0265KMIC V0201805N002152200059N0160935N5-00945-01505101425ADDAA101000095GA1005+999999999GD10991+9999999GF100991999999999999999999MA1101295098145REMMET09701/30/17 00:53:02 METAR KMIC 300653Z 18004KT 10SM CLR M09/M15 A2991 RMK AO2 SLP142 T10941150 TSNO
0192726575949602017013007537+45062-093351FM-15+0265KMIC V0201205N001552200059N0160935N5-00945-01505101415ADDAA101000095GA1005+999999999GD10991+9999999GF100991999999999999999999MA1101255098115REMMET09701/30/17 01:53:02 METAR KMIC 300753Z 12003KT 10SM CLR M09/M15 A2990 RMK AO2 SLP141 T10941150 TSNO
0212726575949602017013008537+45062-093351FM-15+0265KMIC V0209999C000052200059N0160935N5-00945-01445101355ADDAA101000095GA1005+999999999GD10991+9999999GF100991999999999999999999MA1101225098085MD1890129+9999REMMET10301/30/17 02:53:02 METAR KMIC 300853Z 00000KT 10SM CLR M09/M14 A2989 RMK AO2 SLP135 T10941144 58012 TSNO
0255726575949602017013009537+45062-093351FM-15+0265KMIC V0201705N00265024385MN0160935N5-00725-01285101225ADDAA101000095GA1025+006405999GA2075+024385999GD11991+0064059GD23991+0243859GE19MSL   +99999+99999GF199999999999006401999999MA1101085097945REMMET10701/30/17 03:53:02 METAR KMIC 300953Z 17005KT 10SM FEW021 BKN080 M07/M13 A2985 RMK AO2 SLP122 T10721128 TSNO
0237726575949602017013010107+45062-093351FM-16+0265KMIC V0201705N00265006405MN0160935N5-00725-01225999999ADDGA1075+006405999GA2075+024385999GD13991+0064059GD23991+0243859GE19MSL   +99999+99999GF199999999999006401999999MA1101085097945REMMET10001/30/17 04:10:02 SPECI KMIC 301010Z 17005KT 10SM BKN021 BKN080 M07/M12 A2985 RMK AO2 T10721122 TSNO
0217726575949602017013010537+45062-093351FM-15+0265KMIC V0201605N00315006405MN0160935N5-00675-01175101095ADDAA101000095GA1085+006405999GD14991+0064059GE19MSL   +99999+99999GF199999999999006401999999MA1100955097815REMMET10001/30/17 04:53:02 METAR KMIC 301053Z 16006KT 10SM OVC021 M07/M12 A2981 RMK AO2 SLP109 T10671117 TSNO
0275726575949602017013011537+45062-093351FM-15+0265KMIC V0201505N00365005185MN0160935N5-00615-01065101005ADDAA101000095GA1085+005185999GD14991+0051859GE19MSL   +99999+99999GF199999999999005181999999KA1060M-00611KA2060N-01061MA1100885097755MD1690349+9999REMMET11801/30/17 05:53:02 METAR KMIC 301153Z 15007KT 10SM OVC017 M06/M11 A2979 RMK AO2 SLP100 T10611106 11061 21106 56034 TSNO
0249726575949602017013012537+45062-093351FM-15+0265KMIC V0201805N00365004885MN0128755N5-00565-01005100955ADDAA101000025AU110030015AW1715GA1085+004885999GD14991+0048859GE19MSL   +99999+99999GF199999999999004881999999MA1100815097685REMMET11501/30/17 06:53:02 METAR KMIC 301253Z 18007KT 8SM -SN OVC016 M06/M10 A2977 RMK AO2 SNB48 SLP095 P0000 T10561100 (FD)
0236726575949602017013013157+45062-093351FM-16+0265KMIC V0201605N00415003665MN0064375N5-00565-00945999999ADDAA101000021AU110030015AW1715GA1085+003665999GD14991+0036659GE19MSL   +99999+99999GF199999999999003661999999MA1100755097615REMMET10201/30/17 07:15:02 SPECI KMIC 301315Z 16008KT 4SM -SN OVC012 M06/M09 A2975 RMK AO2 P0000 T10561094 (FD)
0274726575949602017013013277+45062-093351FM-16+0265KMIC V0201605N00365004275MN0032195N5-00565-00895999999ADDAA101000021AU110030015AW1715GA1025+002745999GA2085+004275999GD11991+0027459GD24991+0042759GE19MSL   +99999+99999GF199999999999002741999999MA1100755097615REMMET10901/30/17 07:27:02 SPECI KMIC 301327Z 16007KT 2SM -SN FEW009 OVC014 M06/M09 A2975 RMK AO2 P0000 T10561089 (FD)
0278726575949602017013013337+45062-093351FM-16+0265KMIC V0201705N00365004885MN0024145N5-00565-00895999999ADDAA101000021AU110030015AW1715GA1025+002745999GA2085+004885999GD11991+0027459GD24991+0048859GE19MSL   +99999+99999GF199999999999002741999999MA1100715097585REMMET11301/30/17 07:33:02 SPECI KMIC 301333Z 17007KT 1 1/2SM -SN FEW009 OVC016 M06/M09 A2974 RMK AO2 P0000 T10561089 (FD)
0292726575949602017013013537+45062-093351FM-15+0265KMIC V0201505N00365005495MN0024145N5-00565-00835100795ADDAA101000395AU110030015AW1715GA1075+005495999GA2085+007925999GD13991+0054959GD24991+0079259GE19MSL   +99999+99999GF199999999999005491999999MA1100645097525REMMET12701/30/17 07:53:02 METAR KMIC 301353Z 15007KT 1 1/2SM -SN BKN018 OVC026 M06/M08 A2972 RMK AO2 PRESFR SLP079 P0000 T10561083 (FD)
0264726575949602017013014127+45062-093351FM-16+0265KMIC V0201405N00575006105WN0012075N5-00565-00785999999ADDAA101000231AU110030015AU200001015AW1105AW2715GA1095+006105999GD15991+0061059GE19MSL   +99999+99999GF109991999999006101999999MA1100475097355REMMET11301/30/17 08:12:02 SPECI KMIC 301412Z 14011KT 3/4SM -SN BR VV020 M06/M08 A2967 RMK AO2 PRESFR P0001 T10561078 (FD)
0316726575949602017013014367+45062-093351FM-16+0265KMIC V0201505N00415003965MN0020125N5-00445-00725999999ADDAA101000231AU110030015AW1715GA1045+003055999GA2075+003965999GA3085+006105999GD12991+0030559GD23991+0039659GD34991+0061059GE19MSL   +99999+99999GF199999999999003051999999MA1100445097325REMMET12001/30/17 08:36:02 SPECI KMIC 301436Z 15008KT 1 1/4SM -SN SCT010 BKN013 OVC020 M04/M07 A2966 RMK AO2 P0001 T10441072 (FD)
0274726575949602017013014457+45062-093351FM-16+0265KMIC V0201605N00415003055MN0048285N5-00445-00725999999ADDAA101000231AU110030015AW1715GA1075+003055999GA2085+006105999GD13991+0030559GD24991+0061059GE19MSL   +99999+99999GF199999999999003051999999MA1100415097285REMMET10901/30/17 08:45:02 SPECI KMIC 301445Z 16008KT 3SM -SN BKN010 OVC020 M04/M07 A2965 RMK AO2 P0001 T10441072 (FD)
0310726575949602017013014537+45062-093351FM-15+0265KMIC V0201605N00515003055MN0096565N5-00445-00725100555ADDAA101000025AA203000391AU100007015AW1051GA1085+003055999GD14991+0030559GE19MSL   +99999+99999GF199999999999003051999999MA1100415097285MD1890449+9999MW1055REMMET12601/30/17 08:53:02 METAR KMIC 301453Z 16010KT 6SM HZ OVC010 M04/M07 A2965 RMK AO2 SNE51 SLP055 P0001 60001 T10441072 58044 (FD)EQDQ01  00028PRCP03
0198726575949602017013015027+45062-093351FM-16+0265KMIC V0201605N00415002445MN0128755N5-00445-00675999999ADDGA1085+002445999GD14991+0024459GE19MSL   +99999+99999GF199999999999002441999999MA1100415097285REMMET09201/30/17 09:02:02 SPECI KMIC 301502Z 16008KT 8SM OVC008 M04/M07 A2965 RMK AO2 T10441067 (FD)
0216726575949602017013015537+45062-093351FM-15+0265KMIC V0201605N00415002135MN0112655N5-00335-00565100415ADDAA101000095GA1085+002135999GD14991+0021359GE19MSL   +99999+99999GF199999999999002131999999MA1100275097155REMMET09901/30/17 09:53:02 METAR KMIC 301553Z 16008KT 7SM OVC007 M03/M06 A2961 RMK AO2 SLP041 T10331056 (FD)
0242726575949602017013016537+45062-093351FM-15+0265KMIC V0201705N00625002445MN0096565N5-00065-00335100225ADDAA101000095AU100007015AW1051GA1085+002445999GD14991+0024459GE19MSL   +99999+99999GF199999999999002441999999MA1100105096995MW1055REMMET10201/30/17 10:53:02 METAR KMIC 301653Z 17012KT 6SM HZ OVC008 M01/M03 A2956 RMK AO2 SLP022 T10061033 (FD)
0162726575949602017013017516+45062-093351FM-16+0265KMIC V0201805N00515003055MN0128755N5+00105-00305999999ADDGA1085+003055999GD14991+0030559MA1099905096795OC100885REMMET09601/30/17 11:51:02 SPECI KMIC 301751Z 18010G17KT 8SM OVC010 01/M03 A2950 RMK AO2 PRESFR FIBI (FD)
0308726575949602017013017537+45062-093351FM-15+0265KMIC V0201905N00725003055MN0128755N5+00065-00285100005ADDAA101000095AA206000391GA1085+003055999GD14991+0030559GE19MSL   +99999+99999GF199999999999003051999999KA1060M+00061KA2060N-00611MA1099905096795MD1690399+9999OC101085REMMET13201/30/17 11:53:02 METAR KMIC 301753Z 19014G21KT 8SM OVC010 01/M03 A2950 RMK AO2 PRESFR SLP000 60001 T00061028 10006 21061 56039 (FD)
0242726575949602017013018347+45062-093351FM-16+0265KMIC V0201805N00465004885MN0144845N5+00175-00225999999ADDGA1075+004885999GA2085+006405999GD13991+0048859GD24991+0064059GE19MSL   +99999+99999GF199999999999004881999999MA1099735096625REMMET10501/30/17 12:34:02 SPECI KMIC 301834Z 18009KT 9SM BKN016 OVC021 02/M02 A2945 RMK AO2 PRESFR T00171022 (FD)
0216726575949602017013018537+45062-093351FM-15+0265KMIC V0202105N00365005495MN0160935N5+00225-00225099815ADDAA101000095GA1075+005495999GD13991+0054959GE19MSL   +99999+99999GF199999999999005491999999MA1099705096595REMMET09901/30/17 12:53:02 METAR KMIC 301853Z 21007KT 10SM BKN018 02/M02 A2944 RMK AO2 SLP981 T00221022 (FD)
0217726575949602017013019097+45062-093351FM-16+0265KMIC V0201905N004652200059N0160935N5+00335-00175999999ADDGA1045+005185999GD12991+0051859GE19AGL   +99999+99999GF104995999999005181999999MA1099665096565REMMET09201/30/17 13:09:02 SPECI KMIC 301909Z 19009KT 10SM SCT017 03/M02 A2943 RMK AO2 T00331017 (FD)EQDD01      0ADE726
0246726575949602017013019537+45062-093351FM-15+0265KMIC V0202305N004652200059N0160935N5+00505-00175099655ADDAA101000095GA1045+009455999GD12991+0094559GE19AGL   +99999+99999GF104995999999009451999999MA1099565096465OC100935REMMET10201/30/17 13:53:02 METAR KMIC 301953Z 23009G18KT 10SM SCT031 05/M02 A2940 RMK AO2 SLP965 T00501017 (FD)EQDD01      0ADE726
0312726575949602017013020537+45062-093351FM-15+0265KMIC V0202605N00415021345MN0160935N5+00505-00225099605ADDAA101000095GA1025+013115999GA2025+016765999GA3075+021345999GD11991+0131159GD21991+0167659GD33991+0213459GE19MSL   +99999+99999GF199999999999013111999999MA1099495096395MD1690379+9999REMMET11901/30/17 14:53:02 METAR KMIC 302053Z 26008KT 10SM FEW043 FEW055 BKN070 05/M02 A2938 RMK AO2 SLP960 T00501022 56037 (FD)
0265726575949602017013021537+45062-093351FM-15+0265KMIC V0202705N00575010365MN0160935N5+00505-00175099645ADDAA101000095GA1075+010365999GA2085+024385999GD13991+0103659GD24991+0243859GE19MSL   +99999+99999GF199999999999010361999999MA1099535096435OC100825REMMET10901/30/17 15:53:02 METAR KMIC 302153Z 27011G16KT 10SM BKN034 OVC080 05/M02 A2939 RMK AO2 SLP964 T00501017 (FD)
0216726575949602017013022537+45062-093351FM-15+0265KMIC V0202905N00575009755MN0160935N5+00445-00175099695ADDAA101000095GA1085+009755999GD14991+0097559GE19MSL   +99999+99999GF199999999999009751999999MA1099595096495REMMET09901/30/17 16:53:02 METAR KMIC 302253Z 29011KT 10SM OVC032 04/M02 A2941 RMK AO2 SLP969 T00441017 (FD)
0274726575949602017013023537+45062-093351FM-15+0265KMIC V0202805N00415009455MN0160935N5+00395-00175099815ADDAA101000095GA1085+009455999GD14991+0094559GE19MSL   +99999+99999GF199999999999009451999999KA1060M+00561KA2060N+00061MA1099735096625MD1390219+9999REMMET11701/30/17 17:53:02 METAR KMIC 302353Z 28008KT 10SM OVC031 04/M02 A2945 RMK AO2 SLP981 T00391017 10056 20006 53021 (FD)
0209726575949602017013100327+45062-093351FM-16+0265KMIC V0203205N00675008535MN0160935N5+00335-00225999999ADDGA1085+008535999GD14991+0085359GE19MSL   +99999+99999GF199999999999008531999999MA1099805096695OC100885REMMET09501/30/17 18:32:03 SPECI KMIC 310032Z 32013G17KT 10SM OVC028 03/M02 A2947 RMK AO2 T00331022 (FD)
0209726575949602017013100417+45062-093351FM-16+0265KMIC V0203205N00515009145MN0160935N5+00335-00225999999ADDGA1085+009145999GD14991+0091459GE19MSL   +99999+99999GF199999999999009141999999MA1099835096725OC101035REMMET09501/30/17 18:41:03 SPECI KMIC 310041Z 32010G20KT 10SM OVC030 03/M02 A2948 RMK AO2 T00331022 (FD)
0225726575949602017013100516+45062-093351FM-16+0265KMIC V0203205N00625007625MN0144845N5+00305-00205999999ADDAU120090015AW1415GA1075+007625999GA2085+009145999GD13991+0076259GD24991+0091459MA1099835096725OC101035REMMET11101/30/17 18:51:03 SPECI KMIC 310051Z 32012G20KT 9SM UP BKN025 OVC030 03/M02 A2948 RMK AO2 UPB49 P0000 FIBI (FD)
0296726575949602017013100537+45062-093351FM-15+0265KMIC V0203205N00775007625MN0128755N5+00285-00225099955ADDAA101000025AU120090015AW1415GA1075+007625999GA2085+009145999GD13991+0076259GD24991+0091459GE19MSL   +99999+99999GF199999999999007621999999MA1099865096765OC101185REMMET12301/30/17 18:53:03 METAR KMIC 310053Z 32015G23KT 8SM UP BKN025 OVC030 03/M02 A2949 RMK AO2 UPB49 SLP995 P0000 T00281022 (FD)
0284726575949602017013101247+45062-093351FM-16+0265KMIC V0203205N00575008535MN0032195N5+00115-00225999999ADDAA101000021AU110030015AW1715GA1025+003355999GA2085+008535999GD11991+0033559GD24991+0085359GE19MSL   +99999+99999GF199999999999003351999999MA1099905096795REMMET11901/30/17 19:24:03 SPECI KMIC 310124Z 32011KT 2SM -SN FEW011 OVC028 01/M02 A2950 RMK AO2 UPE00SNB00 P0000 T00111022 (FD)
0333726575949602017013101537+45062-093351FM-15+0265KMIC V0203205N00465006105MN0024145N5+00065-00225100015ADDAA101000025AU110030015AW1715GA1025+002745999GA2075+006105999GA3085+011285999GD11991+0027459GD23991+0061059GD34991+0112859GE19MSL   +99999+99999GF199999999999002741999999MA1099905096795REMMET13701/30/17 19:53:03 METAR KMIC 310153Z 32009KT 1 1/2SM -SN FEW009 BKN020 OVC037 01/M02 A2950 RMK AO2 UPE00SNB00 SLP001 P0000 T00061022 (FD)
0297726575949602017013102037+45062-093351FM-16+0265KMIC V0203205N00365008235MN0040235N5+00005-00225999999ADDAA101000021AU110030015AU200001015AW1105AW2715GA1025+002445999GA2085+008235999GD11991+0024459GD24991+0082359GE19MSL   +99999+99999GF199999999999002441999999MA1099935096825REMMET11501/30/17 20:03:03 SPECI KMIC 310203Z 32007KT 2 1/2SM -SN BR FEW008 OVC027 00/M02 A2951 RMK AO2 P0000 T00001022 (FD)
0305726575949602017013102337+45062-093351FM-16+0265KMIC V0202905N00265002445MN0048285N5+00065-00175999999ADDAA101000021AU110030015AU200001015AW1105AW2715GA1075+002445999GA2085+006105999GD13991+0024451GD24991+0061059GE19MSL   +99999+99999GF199999999999002441999999MA1099935096825REMMET12301/30/17 20:33:03 SPECI KMIC 310233Z 29005KT 3SM -SN BR BKN008 OVC020 01/M02 A2951 RMK AO2 CIG 007V012 P0000 T00061017 (FD)
0257726575949602017013102517+45062-093351FM-16+0265KMIC V0202905N00265002745MN0032195N5+00105-00205999999ADDAA101000021AU110030015AU200001015AW1105AW2715GA1085+002745999GD14991+0027451GE19MSL   +99999+99999GF199999999999002741999999MA1099935096825REMMET10601/30/17 20:51:03 SPECI KMIC 310251Z 29005KT 2SM -SN BR OVC009 01/M02 A2951 RMK AO2 CIG 007V012 P0000 (FD)
0325726575949602017013102537+45062-093351FM-15+0265KMIC V0202805N00265002745MN0032195N5+00065-00175100045ADDAA101000396AA203000022AU110030015AU200001015AW1105AW2715GA1085+002745999GD14991+0027451GE19MSL   +99999+99999GF199999999999002741999999MA1099935096825MD1190099+9999REMMET13001/30/17 20:53:03 METAR KMIC 310253Z 28005KT 2SM -SN BR OVC009 01/M02 A2951 RMK AO2 CIG 007V012 SLP004 P0000 60000 T00061017 51009EQDQ01  00008PRCP03
0266726575949602017013103057+45062-093351FM-16+0265KMIC V0202805N00215002445MN0024145N5+00065-00175999999ADDAA101000231AU110030015AU200001015AW1105AW2715GA1085+002445999GD14991+0024451GE19MSL   +99999+99999GF199999999999002441999999MA1099935096825REMMET11501/30/17 21:05:03 SPECI KMIC 310305Z 28004KT 1 1/2SM -SN BR OVC008 01/M02 A2951 RMK AO2 CIG 006V012 P0001 T00061017
0300726575949602017013103277+45062-093351FM-16+0265KMIC V0202805N00265002445MN0048285N5+00065-00115999999ADDAA101000231AU110030015AU200001015AW1105AW2715GA1075+002445999GA2085+003355999GD13991+0024451GD24991+0033559GE19MSL   +99999+99999GF199999999999002441999999MA1099935096825REMMET11801/30/17 21:27:03 SPECI KMIC 310327Z 28005KT 3SM -SN BR BKN008 OVC011 01/M01 A2951 RMK AO2 CIG 006V010 P0001 T00061011
0307726575949602017013103537+45062-093351FM-15+0265KMIC V0202805N00365002445MN0048285N5+00115-00115100045ADDAA101000025AU110030015AU200001015AW1105AW2715GA1075+002445999GA2085+004275999GD13991+0024451GD24991+0042759GE19MSL   +99999+99999GF199999999999002441999999MA1099935096825REMMET12501/30/17 21:53:03 METAR KMIC 310353Z 28007KT 3SM -SN BR BKN008 OVC014 01/M01 A2951 RMK AO2 CIG 006V010 SLP004 P0001 T00111011
0304726575949602017013104317+45062-093351FM-16+0265KMIC V0202705N00415003055MN0080475N5+00115-00115999999ADDAA101000231AU120090015AU200001015AW1105AW2401AW3415GA1075+003055999GA2085+005795999GD13991+0030559GD24991+0057959GE19MSL   +99999+99999GF199999999999003051999999MA1099975096865REMMET11601/30/17 22:31:03 SPECI KMIC 310431Z 27008KT 5SM UP BR BKN010 OVC019 01/M01 A2952 RMK AO2 UPB31SNE31 P0001 T00111011
0247726575949602017013104537+45062-093351FM-15+0265KMIC V0202905N00365003355MN0112655N5+00115-00115100055ADDAA101000395AU120090015AW1415GA1085+003355999GD14991+0033559GE19MSL   +99999+99999GF199999999999003351999999MA1099975096865REMMET11301/30/17 22:53:03 METAR KMIC 310453Z 29007KT 7SM UP OVC011 01/M01 A2952 RMK AO2 UPB31SNE31 SLP005 P0001 T00111011
0399726575949602017013105537+45062-093351FM-15+0265KMIC V0202905N00575004275MN0160935N5+00175-00115100085ADDAA101000025AA206000591GA1075+004275999GA2085+006405999GD13991+0042759GD24991+0064059GE19MSL   +99999+99999GF199999999999004271999999KA1060M+00221KA2060N+00001KA3240M+00561KA4240N-01061MA1100005096895MD1390069+9999REMMET15501/30/17 23:53:03 METAR KMIC 310553Z 29011KT 10SM BKN014 OVC021 02/M01 A2953 RMK AO2 UPE40RAB40E47 SLP008 P0000 60002 T00171011 10022 20000 400561106 53006EQDQ01  00058PRCP06
0931726575949602017013105596+45062-093351SOD  +0265KMIC V020999999999999999999999999999+99999+99999999999ADDAA124000895AT1AU18SN  5AT2AU13BR  5AT3AU19UP  5AT4AU08HZ  5KA1240M+00565KA2240N-01055MG1096994099594OE11240116231018525OE22240080533018485OE33240042099999995REMSOD72724 HR PRECIPITATION (IN):0.03  24 HR MAX TEMP (F):42 24 HR MAX TEMP TIME (LST):1511 24 HR MIN TEMP (F):13 24 HR MIN TEMP TIME (LST):0209 AVERAGE STATION PRESSURE:28.640 MINIMUM SEA LEVEL PRESSURE:29.41 TIME OF OCCURRENCE:1507 PEAK WIND SPEED (MPH):26  PEAK WIND DIR (DEG):310 PEAK WIND TIME (LST):1852  FASTEST 2MIN SPEED (MPH):18 FASTEST 2MIN DIR (DEG):330 FASTEST 2MIN TIME (LST):1848 AVERAGE WIND SPEED (MPH):9.4  24 HR AVG TEMP (F):28 HEATING DEGREE DAYS:37  COOLING DEGREE DAYS:0   LATEST DAY MAX TEMP (0700-1900 LST):42  LATEST NIGHT MIN TEMP(1900-0800 LST):13 HOURLY INCREMENTAL PRECIPITATION VALUES (IN):.00 0.00 0.00 0.00 0.00 0.00 T    0.01 T    0.00 0.00 0.00 0.00 0.00 0.00 0.00 0.00 0.00 T    T    0.01 T    0.01 TEQDR01     N7GJS072R02     N7GKS075
0269726575949602017013106037+45062-093351FM-16+0265KMIC V0202905N00725005495MN0160935N5+00175-00115999999ADDGA1025+003965999GA2075+005495999GA3085+010365999GD11991+0039659GD23991+0054959GD34991+0103659GE19MSL   +99999+99999GF199999999999003961999999MA1100005096895REMMET10101/31/17 00:03:02 SPECI KMIC 310603Z 29014KT 10SM FEW013 BKN018 OVC034 02/M01 A2953 RMK AO2 T00171011
0254726575949602017013106537+45062-093351FM-15+0265KMIC V0203005N00725005495MN0160935N5+00225-00115100095ADDAA101000025AU120090015AW1415GA1085+005495999GD14991+0054959GE19MSL   +99999+99999GF199999999999005491999999MA1100005096895OC101135REMMET11201/31/17 00:53:02 METAR KMIC 310653Z 30014G22KT 10SM UP OVC018 02/M01 A2953 RMK AO2 UPB06 SLP009 P0000 T00221011
0268726575949602017013107407+45062-093351FM-16+0265KMIC V0203005N00465004275MN0160935N5+00175-00065999999ADDAA101000021AU120090015AW1415GA1075+004275999GA2085+005795999GD13991+0042759GD24991+0057959GE19MSL   +99999+99999GF199999999999004271999999MA1100075096955REMMET10301/31/17 01:40:02 SPECI KMIC 310740Z 30009KT 10SM UP BKN014 OVC019 02/M01 A2955 RMK AO2 P0000 T00171006
0236726575949602017013107537+45062-093351FM-15+0265KMIC V0203005N00775003965MN0144845N5+00175-00065100155ADDAA101000025AU120090015AW1415GA1085+003965999GD14991+0039659GE19MSL   +99999+99999GF199999999999003961999999MA1100105096995REMMET10201/31/17 01:53:02 METAR KMIC 310753Z 30015KT 9SM UP OVC013 02/M01 A2956 RMK AO2 SLP015 P0000 T00171006
0290726575949602017013108117+45062-093351FM-16+0265KMIC V0203105N00825004575MN0160935N5+00175-00115999999ADDAA101000021AU120090015AW1415GA1075+004575999GA2085+005795999GD13991+0045759GD24991+0057959GE19MSL   +99999+99999GF199999999999004571999999MA1100145097025OC101185REMMET11701/31/17 02:11:02 SPECI KMIC 310811Z 31016G23KT 10SM UP BKN015 OVC019 02/M01 A2957 RMK AO2 RAB0759E03 P0000 T00171011
0353726575949602017013108537+45062-093351FM-15+0265KMIC V0203105N00625004275MN0160935N5+00175-00115100285ADDAA101000025AA203000021AU120090015AW1415GA1075+004275999GA2085+005795999GD13991+0042759GD24991+0057959GE19MSL   +99999+99999GF199999999999004271999999MA1100245097125MD1390219+9999OC101135REMMET13601/31/17 02:53:02 METAR KMIC 310853Z 31012G22KT 10SM UP BKN014 OVC019 02/M01 A2960 RMK AO2 RAB0759E03 SLP028 P0000 60000 T00171011 53021EQDQ01  00008PRCP03
0311726575949602017013109377+45062-093351FM-16+0265KMIC V0203105N00415002445MN0048285N5+00115-00115999999ADDAA101000231AU110030015AU200001015AW1105AW2715GA1075+002445999GA2085+003665999GD13991+0024451GD24991+0036659GE19MSL   +99999+99999GF199999999999002441999999MA1100305097195REMMET12901/31/17 03:37:02 SPECI KMIC 310937Z 31008KT 3SM -SN BR BKN008 OVC012 01/M01 A2962 RMK AO2 UPE04SNB04 CIG 006V011 P0001 T00111011
0280726575949602017013109537+45062-093351FM-15+0265KMIC V0203005N00415002445MN0048285N5+00065-00115100405ADDAA101000395AU110030015AU200001015AW1105AW2715GA1085+002445999GD14991+0024451GE19MSL   +99999+99999GF199999999999002441999999MA1100345097225REMMET12901/31/17 03:53:02 METAR KMIC 310953Z 30008KT 3SM -SN BR OVC008 01/M01 A2963 RMK AO2 UPE04SNB04 CIG 005V010 SLP040 P0001 T00061011
0300726575949602017013110167+45062-093351FM-16+0265KMIC V0203105N00515003055MN0096565N5+00115-00115999999ADDAA101000231AU110030015AU200001015AW1105AW2715GA1075+003055999GA2085+004575999GD13991+0030551GD24991+0045759GE19MSL   +99999+99999GF199999999999003051999999MA1100375097255REMMET11801/31/17 04:16:02 SPECI KMIC 311016Z 31010KT 6SM -SN BR BKN010 OVC015 01/M01 A2964 RMK AO2 CIG 006V012 P0001 T00111011
0291726575949602017013110217+45062-093351FM-16+0265KMIC V0203105N00415003965MN0144845N5+00115-00115999999ADDAA101000231GA1025+002135999GA2075+003965999GA3085+005795999GD11991+0021359GD23991+0039659GD34991+0057959GE19MSL   +99999+99999GF199999999999002131999999MA1100375097255REMMET11201/31/17 04:21:02 SPECI KMIC 311021Z 31008KT 9SM FEW007 BKN013 OVC019 01/M01 A2964 RMK AO2 SNE21 P0001 T00111011
0265726575949602017013110297+45062-093351FM-16+0265KMIC V0203005N00725005185MN0160935N5+00115-00175999999ADDAA101000231GA1025+002445999GA2085+005185999GD11991+0024459GD24991+0051859GE19MSL   +99999+99999GF199999999999002441999999MA1100375097255OC101135REMMET10901/31/17 04:29:02 SPECI KMIC 311029Z 30014G22KT 10SM FEW008 OVC017 01/M02 A2964 RMK AO2 SNE21 P0001 T00111017
0272726575949602017013110537+45062-093351FM-15+0265KMIC V0203105N00775007325MN0160935N5+00175-00225100475ADDAA101000395GA1075+007325999GA2085+009145999GD13991+0073259GD24991+0091459GE19MSL   +99999+99999GF199999999999007321999999MA1100415097285OC101085REMMET11601/31/17 04:53:02 METAR KMIC 311053Z 31015G21KT 10SM BKN024 OVC030 02/M02 A2965 RMK AO2 SNE21 SLP047 P0001 T00171022
0322726575949602017013111537+45062-093351FM-15+0265KMIC V0203105N00625007325MN0160935N5+00115-00335100585ADDAA101000095AA206000591AA324001391GA1085+007325999GD14991+0073259GE19MSL   +99999+99999GF199999999999007321999999KA1060M+00221KA2060N+00061MA1100515097385MD1190289+9999REMMET12401/31/17 05:53:02 METAR KMIC 311153Z 31012KT 10SM OVC024 01/M03 A2968 RMK AO2 SLP058 60002 70005 T00111033 10022 20006 51028EQDQ01  00128PRCP24
0212726575949602017013112287+45062-093351FM-16+0265KMIC V0202905N005152200059N0160935N5+00115-00335999999ADDGA1025+007325999GD11991+0073259GE19AGL   +99999+99999GF102995999999007321999999MA1100545097425REMMET08701/31/17 06:28:02 SPECI KMIC 311228Z 29010KT 10SM FEW024 01/M03 A2969 RMK AO2 T00111033EQDD01      0ADE726
0191726575949602017013112537+45062-093351FM-15+0265KMIC V0202905N004152200059N0160935N5+00065-00335100655ADDAA101000095GA1005+999999999GD10991+9999999GF100991999999999999999999MA1100585097455REMMET09601/31/17 06:53:02 METAR KMIC 311253Z 29008KT 10SM CLR 01/M03 A2970 RMK AO2 SLP065 T00061033 (FD)
0236726575949602017013113457+45062-093351FM-16+0265KMIC V0202905N00315008845MN0160935N5+00115-00335999999ADDGA1075+008845999GA2075+013415999GD13991+0088459GD23991+0134159GE19MSL   +99999+99999GF199999999999008841999999MA1100615097485REMMET09901/31/17 07:45:02 SPECI KMIC 311345Z 29006KT 10SM BKN029 BKN044 01/M03 A2971 RMK AO2 T00111033 (FD)
0254726575949602017013113537+45062-093351FM-15+0265KMIC V0202805N00365008845MN0160935N5+00115-00335100715ADDAA101000095GA1075+008845999GA2075+013415999GD13991+0088459GD23991+0134159GE19MSL   +99999+99999GF199999999999008841999999MA1100615097485REMMET10601/31/17 07:53:02 METAR KMIC 311353Z 28007KT 10SM BKN029 BKN044 01/M03 A2971 RMK AO2 SLP071 T00111033 (FD)
0198726575949602017013114107+45062-093351FM-16+0265KMIC V0202705N00215009455MN0160935N5+00115-00285999999ADDGA1075+009455999GD13991+0094559GE19MSL   +99999+99999GF199999999999009451999999MA1100645097525REMMET09201/31/17 08:10:02 SPECI KMIC 311410Z 27004KT 10SM BKN031 01/M03 A2972 RMK AO2 T00111028 (FD)
0236726575949602017013114537+45062-093351FM-15+0265KMIC V0202805N00415010365MN0160935N5+00115-00285100745ADDAA101000095GA1085+010365999GD14991+0103659GE19MSL   +99999+99999GF199999999999010361999999MA1100645097525MD1190159+9999REMMET10501/31/17 08:53:02 METAR KMIC 311453Z 28008KT 10SM OVC034 01/M03 A2972 RMK AO2 SLP074 T00111028 51015 (FD)
0292726575949602017013115537+45062-093351FM-15+0265KMIC V0202905N00515011895MN0160935N5+00225-00225100785ADDAA101000095GA1025+006105999GA2075+011895999GA3085+016765999GD11991+0061059GD23991+0118959GD34991+0167659GE19MSL   +99999+99999GF199999999999006101999999MA1100685097555REMMET11301/31/17 09:53:02 METAR KMIC 311553Z 29010KT 10SM FEW020 BKN039 OVC055 02/M02 A2973 RMK AO2 SLP078 T00221022 (FD)
0254726575949602017013116537+45062-093351FM-15+0265KMIC V0202805N00725009755MN0160935N5+00285-00285100845ADDAA101000095GA1075+009755999GA2085+014335999GD13991+0097559GD24991+0143359GE19MSL   +99999+99999GF199999999999009751999999MA1100785097655REMMET10601/31/17 10:53:02 METAR KMIC 311653Z 28014KT 10SM BKN032 OVC047 03/M03 A2976 RMK AO2 SLP084 T00281028 (FD)
0236726575949602017013117067+45062-093351FM-16+0265KMIC V0202805N00515008535MN0160935N5+00285-00285999999ADDGA1075+008535999GA2085+010065999GD13991+0085359GD24991+0100659GE19MSL   +99999+99999GF199999999999008531999999MA1100785097655REMMET09901/31/17 11:06:02 SPECI KMIC 311706Z 28010KT 10SM BKN028 OVC033 03/M03 A2976 RMK AO2 T00281028 (FD)
0274726575949602017013117537+45062-093351FM-15+0265KMIC V0202905N00575008535MN0160935N5+00285-00285100835ADDAA101000095GA1085+008535999GD14991+0085359GE19MSL   +99999+99999GF199999999999008531999999KA1060M+00281KA2060N+00061MA1100755097615MD1090099+9999REMMET11701/31/17 11:53:02 METAR KMIC 311753Z 29011KT 10SM OVC028 03/M03 A2975 RMK AO2 SLP083 T00281028 10028 20006 50009 (FD)
0198726575949602017013118297+45062-093351FM-16+0265KMIC V0202905N00675009145MN0160935N5+00285-00285999999ADDGA1085+009145999GD14991+0091459GE19MSL   +99999+99999GF199999999999009141999999MA1100715097585REMMET09201/31/17 12:29:02 SPECI KMIC 311829Z 29013KT 10SM OVC030 03/M03 A2974 RMK AO2 T00281028 (FD)
0236726575949602017013118397+45062-093351FM-16+0265KMIC V0202805N00575008535MN0160935N5+00335-00285999999ADDGA1075+008535999GA2085+010675999GD13991+0085359GD24991+0106759GE19MSL   +99999+99999GF199999999999008531999999MA1100755097615REMMET09901/31/17 12:39:02 SPECI KMIC 311839Z 28011KT 10SM BKN028 OVC035 03/M03 A2975 RMK AO2 T00331028 (FD)
0237726575949602017013118487+45062-093351FM-16+0265KMIC V0202705N00575009145MN0160935N5+00305-00305999999ADDGA1075+009145999GA2085+010675999GD13991+0091459GD24991+0106759GE19MSL   +99999+99999GF199999999999009141999999MA1100715097585OC101035REMMET09201/31/17 12:48:02 SPECI KMIC 311848Z 27011G20KT 10SM BKN030 OVC035 03/M03 A2974 RMK AO2 (FD)
0265726575949602017013118537+45062-093351FM-15+0265KMIC V0202805N00825008845MN0160935N5+00335-00335100815ADDAA101000095GA1075+008845999GA2085+010675999GD13991+0088459GD24991+0106759GE19MSL   +99999+99999GF199999999999008841999999MA1100755097615OC101135REMMET10901/31/17 12:53:02 METAR KMIC 311853Z 28016G22KT 10SM BKN029 OVC035 03/M03 A2975 RMK AO2 SLP081 T00331033 (FD)
0247726575949602017013119087+45062-093351FM-16+0265KMIC V0202805N00775011285MN0160935N5+00285-00335999999ADDGA1045+008845999GA2085+011285999GD12991+0088459GD24991+0112859GE19MSL   +99999+99999GF199999999999008841999999MA1100755097615OC101245REMMET10201/31/17 13:08:02 SPECI KMIC 311908Z 28015G24KT 10SM SCT029 OVC037 03/M03 A2975 RMK AO2 T00281033 (FD)
0246726575949602017013119537+45062-093351FM-15+0265KMIC V0202905N007252200059N0160935N5+00285-00335100805ADDAA101000095GA1045+007625999GD12991+0076259GE19AGL   +99999+99999GF104995999999007621999999MA1100715097585OC101135REMMET10201/31/17 13:53:02 METAR KMIC 311953Z 29014G22KT 10SM SCT025 03/M03 A2974 RMK AO2 SLP080 T00281033 (FD)EQDD01      0ADE726
0247726575949602017013120017+45062-093351FM-16+0265KMIC V0202805N00885008235MN0160935N5+00285-00335999999ADDGA1075+008235999GA2075+009755999GD13991+0082359GD23991+0097559GE19MSL   +99999+99999GF199999999999008231999999MA1100755097615OC101245REMMET10201/31/17 14:01:02 SPECI KMIC 312001Z 28017G24KT 10SM BKN027 BKN032 03/M03 A2975 RMK AO2 T00281033 (FD)
0247726575949602017013120437+45062-093351FM-16+0265KMIC V0202905N00675010065MN0160935N5+00225-00395999999ADDGA1045+008235999GA2085+010065999GD12991+0082359GD24991+0100659GE19MSL   +99999+99999GF199999999999008231999999MA1100755097615OC100985REMMET10201/31/17 14:43:02 SPECI KMIC 312043Z 29013G19KT 10SM SCT027 OVC033 02/M04 A2975 RMK AO2 T00221039 (FD)
0274726575949602017013120537+45062-093351FM-15+0265KMIC V0202805N00675010675MN0160935N5+00225-00395100835ADDAA101000095GA1045+008235999GA2085+010675999GD12991+0082359GD24991+0106759GE19MSL   +99999+99999GF199999999999008231999999MA1100755097615MD1390039+9999REMMET11201/31/17 14:53:02 METAR KMIC 312053Z 28013KT 10SM SCT027 OVC035 02/M04 A2975 RMK AO2 SLP083 T00221039 53003 (FD)
0265726575949602017013121537+45062-093351FM-15+0265KMIC V0202905N00465012805MN0160935N5+00225-00445100895ADDAA101000095GA1025+009755999GA2075+012805999GD11991+0097559GD23991+0128059GE19MSL   +99999+99999GF199999999999009751999999MA1100815097685OC100885REMMET10901/31/17 15:53:02 METAR KMIC 312153Z 29009G17KT 10SM FEW032 BKN042 02/M04 A2977 RMK AO2 SLP089 T00221044 (FD)
0227726575949602017013122537+45062-093351FM-15+0265KMIC V0202905N00575018295MN0160935N5+00175-00445100965ADDAA101000095GA1085+018295999GD14991+0182959GE19MSL   +99999+99999GF199999999999018291999999MA1100885097755OC100935REMMET10201/31/17 16:53:02 METAR KMIC 312253Z 29011G18KT 10SM OVC060 02/M04 A2979 RMK AO2 SLP096 T00171044 (FD)
0312726575949602017013123537+45062-093351FM-15+0265KMIC V0202805N00415016765MN0160935N5+00175-00445101055ADDAA101000095GA1025+010065999GA2085+016765999GD11991+0100659GD24991+0167659GE19MSL   +99999+99999GF199999999999010061999999KA1060M+00331KA2060N+00171MA1100955097815MD1390209+9999REMMET12401/31/17 17:53:02 METAR KMIC 312353Z 28008KT 10SM FEW033 OVC055 02/M04 A2981 RMK AO2 SLP105 T00171044 10033 20017 53020 (FD)
0292726575949602017020100537+45062-093351FM-15+0265KMIC V0202905N00315009755MN0160935N5+00115-00395101145ADDAA101000095GA1075+009755999GA2075+011895999GA3085+016765999GD13991+0097559GD23991+0118959GD34991+0167659GE19MSL   +99999+99999GF199999999999009751999999MA1101055097915REMMET11301/31/17 18:53:03 METAR KMIC 010053Z 29006KT 10SM BKN032 BKN039 OVC055 01/M04 A2984 RMK AO2 SLP114 T00111039 (FD)
0216726575949602017020101537+45062-093351FM-15+0265KMIC V0203005N00415015245MN0160935N5+00115-00395101185ADDAA101000095GA1085+015245999GD14991+0152459GE19MSL   +99999+99999GF199999999999015241999999MA1101085097945REMMET09901/31/17 19:53:03 METAR KMIC 010153Z 30008KT 10SM OVC050 01/M04 A2985 RMK AO2 SLP118 T00111039 (FD)
0274726575949602017020102537+45062-093351FM-15+0265KMIC V0203105N00365014335MN0160935N5+00115-00565101255ADDAA101000095GA1025+009755999GA2085+014335999GD11991+0097559GD24991+0143359GE19MSL   +99999+99999GF199999999999009751999999MA1101155098015MD1190209+9999REMMET11201/31/17 20:53:03 METAR KMIC 010253Z 31007KT 10SM FEW032 OVC047 01/M06 A2987 RMK AO2 SLP125 T00111056 51020 TSNO
0235726575949602017020103537+45062-093351FM-15+0265KMIC V0203105N004152200059N0160935N5+00005-00725101305ADDAA101000095GA1045+033535999GD12991+0335359GE19AGL   +99999+99999GF104995999999033531999999MA1101225098085REMMET09901/31/17 21:53:03 METAR KMIC 010353Z 31008KT 10SM SCT110 00/M07 A2989 RMK AO2 SLP130 T00001072 TSNOEQDD01      0ADE726
0217726575949602017020104537+45062-093351FM-15+0265KMIC V0202705N00315011585MN0160935N5-00065-00675101385ADDAA101000095GA1085+011585999GD14991+0115859GE19MSL   +99999+99999GF199999999999011581999999MA1101295098145REMMET10001/31/17 22:53:03 METAR KMIC 010453Z 27006KT 10SM OVC038 M01/M07 A2991 RMK AO2 SLP138 T10061067 TSNO
0368726575949602017020105537+45062-093351FM-15+0265KMIC V0202605N004152200059N0160935N5-00115-00505101455ADDAA101000095GA1045+012195999GA2045+024385999GD12991+0121959GD22991+0243859GE19AGL   +99999+99999GF104995999999012191999999KA1060M+00171KA2060N-00111KA3240M+00331KA4240N-00111MA1101355098215MD1390199+9999REMMET13501/31/17 23:53:03 METAR KMIC 010553Z 26008KT 10SM SCT040 SCT080 M01/M05 A2993 RMK AO2 SLP145 T10111050 10017 21011 400331011 53019 TSNOEQDD01      0ADE726
0922726575949602017020105596+45062-093351SOD  +0265KMIC V020999999999999999999999999999+99999+99999999999ADDAA124000595AT1AU18SN  5AT2AU13BR  5AT3AU19UP  5KA1240M+00335KA2240N-00165MG1097754100074OE11240125229002185OE22240102828013585OE33240051999999995REMSOD73024 HR PRECIPITATION (IN):0.02  24 HR MAX TEMP (F):38 24 HR MAX TEMP TIME (LST):1352 24 HR MIN TEMP (F):29 24 HR MIN TEMP TIME (LST):2356 AVERAGE STATION PRESSURE:28.865 MINIMUM SEA LEVEL PRESSURE:29.55 TIME OF OCCURRENCE:0051 PEAK WIND SPEED (MPH):28  PEAK WIND DIR (DEG):290 PEAK WIND TIME (LST):0218  FASTEST 2MIN SPEED (MPH):23 FASTEST 2MIN DIR (DEG):280 FASTEST 2MIN TIME (LST):1358 AVERAGE WIND SPEED (MPH):11.6 24 HR AVG TEMP (F):34 HEATING DEGREE DAYS:31  COOLING DEGREE DAYS:0   LATEST DAY MAX TEMP (0700-1900 LST):38  LATEST NIGHT MIN TEMP(1900-0800 LST):32 HOURLY INCREMENTAL PRECIPITATION VALUES (IN):    T    T    0.01 0.01 0.00 0.00 0.00 0.00 0.00 0.00 0.00 0.00 0.00 0.00 0.00 0.00 0.00 0.00 0.00 0.00 0.00 0.00 0.00EQDR01     N7GJS072R02     N7GKS075
1258726575949602017020105596+45062-093351SOM  +0265KMIC V020999999999999999999999999999+99999+99999999999ADDAB10009996AD10004691011999999996AE1085015005005AH1005000393104035AH2010000592002205AH3015000592002205AH4020000891005575AH5030000891102265AH6045001091102265AI1060001391007025AI2080001891007025AI3100002091007545AI4120002391008145AI5150002891008145AI6180003091008425KB1744N-10285KB2744M-03005KB3744A-06615KC1N9-02380699995KC2M9+00553099995KD1744H13865KD2744C00005KE1205005285085MH1098344101634MK1104641308295099461011345REMSOM794PCP MTOT:0.39 PCP GT 24HRS:0.18 DATE(S):10-11 DAYS W/PCP >=.01:8  DAYS W/PCP >=.10:1  DAYS W/ PCP >=.50:0 DAYS W/PCP >=1.00:0 MSDP AMTS W/DATE-TIME TAGS:MIN:5 0.01  31/0403 MIN:10 0.02  20/0220 MIN:15 0.02  20/0220 MIN:20 0.03  10/0557 MIN:30 0.03  11/0226 MIN:45 0.04  11/0226 MIN:60 0.05  10/0702 MIN:80 0.07  10/0702 MIN:100 0.08  10/0754 MIN:120 0.09  10/0814 MIN:150 0.11  10/0814 MIN:180 0.12  10/0842 AVG DLY MIN:13.5  AVG DLY MAX:26.6  AVG MLY TMP:20.1  MIN TMP:-11DATE(S):06 MAX TMP:42  DATE(S):30 DAYS MAX <=32:2 DAYS MAX >=90:0  DAYS MIN <=32:28 DAYS MIN  <=0:8  AVG STP:29.040 LWST SLP:29.37 DATE/TIME:101134 HGST SLP:30.90 DATE/TIME:130829 HDD MTH TOT:1386 DEP NORM:-2553 SEASON(JUL 1-JUN 30):3936 DEP NORM:-25536 CDD MTH TOT:0 DEP NORM:-2553 SEASON(JAN 1-DEC 31):0 DEP NORM:-25536EQDR01  0.397ABP070R02  0.187ADP081
0255726575949602017020106537+45062-093351FM-15+0265KMIC V0202705N00575016765MN0160935N5-00175-00565101505ADDAA101000095GA1025+010365999GA2085+016765999GD11991+0103659GD24991+0167659GE19MSL   +99999+99999GF199999999999010361999999MA1101425098275REMMET10702/01/17 00:53:02 METAR KMIC 010653Z 27011KT 10SM FEW034 OVC055 M02/M06 A2995 RMK AO2 SLP150 T10171056 TSNO
0287726575949602017020107537+45062-093351FM-15+0265KMIC V0202805N00515016765MN0112655N5-00115-00565101565ADDAA101000025AU110030015AW1715GA1045+011895999GA2085+016765999GD12991+0118959GD24991+0167659GE19MSL   +99999+99999GF199999999999011891999999MA1101465098315REMMET12202/01/17 01:53:02 METAR KMIC 010753Z 28010KT 7SM -SN SCT039 OVC055 M01/M06 A2996 RMK AO2 SNB46 SLP156 P0000 T10111056 TSNO
0323726575949602017020108187+45062-093351FM-16+0265KMIC V0202905N00775010975MN0032195N5-00175-00505999999ADDAA101000021AU110030015AW1715GA1025+004275999GA2075+010975999GA3085+019815999GD11991+0042759GD23991+0109759GD34991+0198159GE19MSL   +99999+99999GF199999999999004271999999MA1101495098345OC101245REMMET11902/01/17 02:18:02 SPECI KMIC 010818Z 29015G24KT 2SM -SN FEW014 BKN036 OVC065 M02/M05 A2997 RMK AO2 P0000 T10171050 TSNO
0312726575949602017020108277+45062-093351FM-16+0265KMIC V0203005N00575010365MN0096565N5-00175-00565999999ADDAA101000021AU110030015AW1715GA1025+004275999GA2075+010365999GA3085+013415999GD11991+0042759GD23991+0103659GD34991+0134159GE19MSL   +99999+99999GF199999999999004271999999MA1101495098345REMMET11602/01/17 02:27:02 SPECI KMIC 010827Z 30011KT 6SM -SN FEW014 BKN034 OVC044 M02/M06 A2997 RMK AO2 P0000 T10171056 TSNO
0372726575949602017020108537+45062-093351FM-15+0265KMIC V0203105N00935021345MN0160935N5-00225-00895101645ADDAA101000025AA203000021GA1025+013115999GA2045+015245999GA3075+021345999GD11991+0131159GD22991+0152459GD33991+0213459GE19MSL   +99999+99999GF199999999999013111999999MA1101525098375MD1390189+9999OC101245REMMET14102/01/17 02:53:02 METAR KMIC 010853Z 31018G24KT 10SM FEW043 SCT050 BKN070 M02/M09 A2998 RMK AO2 SNE32 SLP164 P0000 60000 T10221089 53018 TSNOEQDQ01  00008PRCP03
0203726575949602017020109537+45062-093351FM-15+0265KMIC V0203105N007752200059N0160935N5-00505-01115101755ADDAA101000095GA1005+999999999GD10991+9999999GF100991999999999999999999MA1101635098475OC101135REMMET10002/01/17 03:53:02 METAR KMIC 010953Z 31015G22KT 10SM CLR M05/M11 A3001 RMK AO2 SLP175 T10501111 TSNO
0203726575949602017020110537+45062-093351FM-15+0265KMIC V0203105N007752200059N0160935N5-00675-01335101865ADDAA101000095GA1005+999999999GD10991+9999999GF100991999999999999999999MA1101765098605OC101135REMMET10002/01/17 04:53:02 METAR KMIC 011053Z 31015G22KT 10SM CLR M07/M13 A3005 RMK AO2 SLP186 T10671133 TSNO
0267726575949602017020111537+45062-093351FM-15+0265KMIC V0203105N008252200059N0160935N5-00895-01445101995ADDAA101000095AA206000021GA1005+999999999GD10991+9999999GF100991999999999999999999KA1060M-00111KA2060N-00891MA1101865098705MD1390329+9999REMMET12102/01/17 05:53:02 METAR KMIC 011153Z 31016KT 10SM CLR M09/M14 A3008 RMK AO2 SLP199 60000 T10891144 11011 21089 53032 TSNO
0236726575949602017020112537+45062-093351FM-15+0265KMIC V0203205N007752200059N0160935N5-01005-01565102115ADDAA101000095GA1025+004885999GD11991+0048859GE19AGL   +99999+99999GF102995999999004881999999MA1101965098805REMMET10002/01/17 06:53:02 METAR KMIC 011253Z 32015KT 10SM FEW016 M10/M16 A3011 RMK AO2 SLP211 T11001156 (FD)EQDD01      0ADE726
0247726575949602017020113537+45062-093351FM-15+0265KMIC V0203305N006252200059N0160935N5-01175-01675102265ADDAA101000095GA1025+006105999GD11991+0061059GE19AGL   +99999+99999GF102995999999006101999999MA1102105098935OC100985REMMET10302/01/17 07:53:02 METAR KMIC 011353Z 33012G19KT 10SM FEW020 M12/M17 A3015 RMK AO2 SLP226 T11171167 (FD)EQDD01      0ADE726
0212726575949602017020114537+45062-093351FM-15+0265KMIC V0203105N007752200059N0160935N5-01225-01785102375ADDAA101000095GA1005+999999999GD10991+9999999GF100991999999999999999999MA1102245099075MD1290359+9999REMMET10302/01/17 08:53:02 METAR KMIC 011453Z 31015KT 10SM CLR M12/M18 A3019 RMK AO2 SLP237 T11221178 52035 (FD)
0192726575949602017020115537+45062-093351FM-15+0265KMIC V0203005N006752200059N0160935N5-01225-01835102445ADDAA101000095GA1005+999999999GD10991+9999999GF100991999999999999999999MA1102305099135REMMET09702/01/17 09:53:02 METAR KMIC 011553Z 30013KT 10SM CLR M12/M18 A3021 RMK AO2 SLP244 T11221183 (FD)
0192726575949602017020116537+45062-093351FM-15+0265KMIC V0203005N005752200059N0160935N5-01065-01835102495ADDAA101000095GA1005+999999999GD10991+9999999GF100991999999999999999999MA1102345099175REMMET09702/01/17 10:53:02 METAR KMIC 011653Z 30011KT 10SM CLR M11/M18 A3022 RMK AO2 SLP249 T11061183 (FD)
0250726575949602017020117537+45062-093351FM-15+0265KMIC V0203205N006252200059N0160935N5-01005-01945102505ADDAA101000095GA1005+999999999GD10991+9999999GF100991999999999999999999KA1060M-00891KA2060N-01221MA1102375099205MD1190139+9999REMMET11502/01/17 11:53:02 METAR KMIC 011753Z 32012KT 10SM CLR M10/M19 A3023 RMK AO2 SLP250 T11001194 11089 21122 51013 (FD)
0203726575949602017020118537+45062-093351FM-15+0265KMIC V0203005N006252200059N0160935N5-00945-01945102525ADDAA101000095GA1005+999999999GD10991+9999999GF100991999999999999999999MA1102375099205OC101085REMMET10002/01/17 12:53:02 METAR KMIC 011853Z 30012G21KT 10SM CLR M09/M19 A3023 RMK AO2 SLP252 T10941194 (FD)
0192726575949602017020119537+45062-093351FM-15+0265KMIC V0202905N005752200059N0160935N5-00895-01945102455ADDAA101000095GA1005+999999999GD10991+9999999GF100991999999999999999999MA1102305099135REMMET09702/01/17 13:53:02 METAR KMIC 011953Z 29011KT 10SM CLR M09/M19 A3021 RMK AO2 SLP245 T10891194 (FD)
0212726575949602017020120537+45062-093351FM-15+0265KMIC V0202905N006252200059N0160935N5-00835-02005102485ADDAA101000095GA1005+999999999GD10991+9999999GF100991999999999999999999MA1102345099175MD1590029+9999REMMET10302/01/17 14:53:02 METAR KMIC 012053Z 29012KT 10SM CLR M08/M20 A3022 RMK AO2 SLP248 T10831200 55002 (FD)
0203726575949602017020121537+45062-093351FM-15+0265KMIC V0202705N007252200059N0160935N5-00835-01895102515ADDAA101000095GA1005+999999999GD10991+9999999GF100991999999999999999999MA1102375099205OC100985REMMET10002/01/17 15:53:02 METAR KMIC 012153Z 27014G19KT 10SM CLR M08/M19 A3023 RMK AO2 SLP251 T10831189 TSNO
0203726575949602017020122537+45062-093351FM-15+0265KMIC V0202705N007252200059N0160935N5-00945-01785102585ADDAA101000095GA1005+999999999GD10991+9999999GF100991999999999999999999MA1102405099235OC101035REMMET10002/01/17 16:53:02 METAR KMIC 012253Z 27014G20KT 10SM CLR M09/M18 A3024 RMK AO2 SLP258 T10941178 TSNO
0250726575949602017020123537+45062-093351FM-15+0265KMIC V0202905N005752200059N0160935N5-01005-01785102645ADDAA101000095GA1005+999999999GD10991+9999999GF100991999999999999999999KA1060M-00831KA2060N-01001MA1102475099305MD1390139+9999REMMET11502/01/17 17:53:02 METAR KMIC 012353Z 29011KT 10SM CLR M10/M18 A3026 RMK AO2 SLP264 T11001178 11083 21100 53013 TSNO
0192726575949602017020200537+45062-093351FM-15+0265KMIC V0202705N004652200059N0160935N5-01005-01675102665ADDAA101000095GA1005+999999999GD10991+9999999GF100991999999999999999999MA1102475099305REMMET09702/01/17 18:53:03 METAR KMIC 020053Z 27009KT 10SM CLR M10/M17 A3026 RMK AO2 SLP266 T11001167 TSNO
0192726575949602017020201537+45062-093351FM-15+0265KMIC V0202805N006252200059N0160935N5-01065-01675102705ADDAA101000095GA1005+999999999GD10991+9999999GF100991999999999999999999MA1102515099335REMMET09702/01/17 19:53:03 METAR KMIC 020153Z 28012KT 10SM CLR M11/M17 A3027 RMK AO2 SLP270 T11061167 (FD)
0212726575949602017020202537+45062-093351FM-15+0265KMIC V0202905N006752200059N0160935N5-01065-01835102755ADDAA101000095GA1005+999999999GD10991+9999999GF100991999999999999999999MA1102575099405MD1390099+9999REMMET10302/01/17 20:53:03 METAR KMIC 020253Z 29013KT 10SM CLR M11/M18 A3029 RMK AO2 SLP275 T11061183 53009 TSNO
0203726575949602017020203537+45062-093351FM-15+0265KMIC V0202905N006752200059N0160935N5-01115-01835102805ADDAA101000095GA1005+999999999GD10991+9999999GF100991999999999999999999MA1102615099435OC100985REMMET10002/01/17 21:53:03 METAR KMIC 020353Z 29013G19KT 10SM CLR M11/M18 A3030 RMK AO2 SLP280 T11111183 TSNO
0203726575949602017020204537+45062-093351FM-15+0265KMIC V0202805N007752200059N0160935N5-01115-01835102795ADDAA101000095GA1005+999999999GD10991+9999999GF100991999999999999999999MA1102615099435OC100985REMMET10002/01/17 22:53:03 METAR KMIC 020453Z 28015G19KT 10SM CLR M11/M18 A3030 RMK AO2 SLP279 T11111183 TSNO
0341726575949602017020205537+45062-093351FM-15+0265KMIC V0203005N007252200059N0160935N5-01115-01835102845ADDAA101000095GA1045+009145999GD12991+0091459GE19AGL   +99999+99999GF104995999999009141999999KA1060M-01001KA2060N-01171KA3240M-00111KA4240N-01221MA1102645099465MD1390089+9999OC101245REMMET13102/01/17 23:53:03 METAR KMIC 020553Z 30014G24KT 10SM SCT030 M11/M18 A3031 RMK AO2 SLP284 T11111183 11100 21117 410111122 53008 TSNOEQDD01      0ADE726
0898726575949602017020205596+45062-093351SOD  +0265KMIC V020999999999999999999999999999+99999+99999999999ADDAA124000025AT1AU18SN  5KA1240M-00105KA2240N-01215MG1099154101464OE11240125229023255OE22240093929023175OE33240067199999995REMSOD73024 HR PRECIPITATION (IN):T     24 HR MAX TEMP (F):30 24 HR MAX TEMP TIME (LST):0225 24 HR MIN TEMP (F):10 24 HR MIN TEMP TIME (LST):0953 AVERAGE STATION PRESSURE:29.280 MINIMUM SEA LEVEL PRESSURE:29.96 TIME OF OCCURRENCE:0022 PEAK WIND SPEED (MPH):28  PEAK WIND DIR (DEG):290 PEAK WIND TIME (LST):2325  FASTEST 2MIN SPEED (MPH):21 FASTEST 2MIN DIR (DEG):290 FASTEST 2MIN TIME (LST):2317 AVERAGE WIND SPEED (MPH):15.0 24 HR AVG TEMP (F):20 HEATING DEGREE DAYS:45  COOLING DEGREE DAYS:0   LATEST DAY MAX TEMP (0700-1900 LST):17  LATEST NIGHT MIN TEMP(1900-0800 LST):11 HOURLY INCREMENTAL PRECIPITATION VALUES (IN):.00 T    T    0.00 0.00 0.00 0.00 0.00 0.00 0.00 0.00 0.00 0.00 0.00 0.00 0.00 0.00 0.00 0.00 0.00 0.00 0.00 0.00 0.00EQDR01     N7GJS072R02     N7GKS075
0146726575949602017020206516+45062-093351FM-16+0265KMIC V0202905N00575008845MN0160935N5-01205-01805999999ADDGA1075+008845999GD13991+0088459MA1102715099535REMMET08802/02/17 00:51:02 SPECI KMIC 020651Z 29011KT 10SM BKN029 M12/M18 A3033 RMK AO2 TSNO FIBI
0217726575949602017020206537+45062-093351FM-15+0265KMIC V0202905N00575008845MN0160935N5-01175-01785102895ADDAA101000095GA1075+008845999GD13991+0088459GE19MSL   +99999+99999GF199999999999008841999999MA1102715099535REMMET10002/02/17 00:53:02 METAR KMIC 020653Z 29011KT 10SM BKN029 M12/M18 A3033 RMK AO2 SLP289 T11171178 TSNO
0229726575949602017020207177+45062-093351FM-16+0265KMIC V0202805N006752200059N0160935N5-01175-01785999999ADDGA1045+008535999GD12991+0085359GE19AGL   +99999+99999GF104995999999008531999999MA1102745099565OC100935REMMET09602/02/17 01:17:02 SPECI KMIC 020717Z 28013G18KT 10SM SCT028 M12/M18 A3034 RMK AO2 T11171178 TSNOEQDD01      0ADE726
0199726575949602017020207467+45062-093351FM-16+0265KMIC V0203105N00415008235MN0160935N5-01225-01835999999ADDGA1075+008235999GD13991+0082359GE19MSL   +99999+99999GF199999999999008231999999MA1102785099605REMMET09302/02/17 01:46:02 SPECI KMIC 020746Z 31008KT 10SM BKN027 M12/M18 A3035 RMK AO2 T11221183 TSNO
0157726575949602017020207516+45062-093351FM-16+0265KMIC V0203005N006752200059N0160935N5-01205-01905999999ADDGA1045+008235999GD12991+0082359MA1102785099605OC100825REMMET09102/02/17 01:51:02 SPECI KMIC 020751Z 30013G16KT 10SM SCT027 M12/M19 A3035 RMK AO2 TSNO FIBI
0228726575949602017020207537+45062-093351FM-15+0265KMIC V0203005N006252200059N0160935N5-01225-01895102965ADDAA101000095GA1045+008235999GD12991+0082359GE19MSL   +99999+99999GF199999999999008231999999MA1102785099605OC100825REMMET10302/02/17 01:53:02 METAR KMIC 020753Z 30012G16KT 10SM SCT027 M12/M19 A3035 RMK AO2 SLP296 T11221189 TSNO
0212726575949602017020208537+45062-093351FM-15+0265KMIC V0202905N006252200059N0160935N5-01335-01945103015ADDAA101000095GA1005+999999999GD10991+9999999GF100991999999999999999999MA1102815099635MD1290169+9999REMMET10302/02/17 02:53:02 METAR KMIC 020853Z 29012KT 10SM CLR M13/M19 A3036 RMK AO2 SLP301 T11331194 52016 TSNO
0192726575949602017020209537+45062-093351FM-15+0265KMIC V0202805N004152200059N0160935N5-01335-01945103045ADDAA101000095GA1005+999999999GD10991+9999999GF100991999999999999999999MA1102845099665REMMET09702/02/17 03:53:02 METAR KMIC 020953Z 28008KT 10SM CLR M13/M19 A3037 RMK AO2 SLP304 T11331194 TSNO
0192726575949602017020210537+45062-093351FM-15+0265KMIC V0202605N004652200059N0160935N5-01395-01945103095ADDAA101000095GA1005+999999999GD10991+9999999GF100991999999999999999999MA1102885099695REMMET09702/02/17 04:53:02 METAR KMIC 021053Z 26009KT 10SM CLR M14/M19 A3038 RMK AO2 SLP309 T11391194 TSNO
0250726575949602017020211537+45062-093351FM-15+0265KMIC V0202705N004652200059N0160935N5-01395-01895103095ADDAA101000095GA1005+999999999GD10991+9999999GF100991999999999999999999KA1060M-01111KA2060N-01391MA1102885099695MD1090079+9999REMMET11502/02/17 05:53:02 METAR KMIC 021153Z 27009KT 10SM CLR M14/M19 A3038 RMK AO2 SLP309 T11391189 11111 21139 50007 TSNO
0192726575949602017020212537+45062-093351FM-15+0265KMIC V0202705N005152200059N0160935N5-01335-01895103105ADDAA101000095GA1005+999999999GD10991+9999999GF100991999999999999999999MA1102915099735REMMET09702/02/17 06:53:02 METAR KMIC 021253Z 27010KT 10SM CLR M13/M19 A3039 RMK AO2 SLP310 T11331189 (FD)
0192726575949602017020213537+45062-093351FM-15+0265KMIC V0202805N005752200059N0160935N5-01335-01895103095ADDAA101000095GA1005+999999999GD10991+9999999GF100991999999999999999999MA1102885099695REMMET09702/02/17 07:53:02 METAR KMIC 021353Z 28011KT 10SM CLR M13/M19 A3038 RMK AO2 SLP309 T11331189 (FD)
0237726575949602017020214537+45062-093351FM-15+0265KMIC V0202905N005152200059N0160935N5-01225-01835103105ADDAA101000095GA1025+009145999GD11991+0091459GE19MSL   +99999+99999GF199999999999009141999999MA1102915099735MD1390029+9999REMMET10602/02/17 08:53:02 METAR KMIC 021453Z 29010KT 10SM FEW030 M12/M18 A3039 RMK AO2 SLP310 T11221183 53002 (FD)
0228726575949602017020215537+45062-093351FM-15+0265KMIC V0202905N005752200059N0160935N5-01115-01895103115ADDAA101000095GA1025+009145999GD11991+0091459GE19MSL   +99999+99999GF199999999999009141999999MA1102915099735OC101135REMMET10302/02/17 09:53:02 METAR KMIC 021553Z 29011G22KT 10SM FEW030 M11/M19 A3039 RMK AO2 SLP311 T11111189 (FD)
0228726575949602017020216537+45062-093351FM-15+0265KMIC V0203005N007752200059N0160935N5-01065-01945103105ADDAA101000095GA1045+009145999GD12991+0091459GE19MSL   +99999+99999GF199999999999009141999999MA1102915099735OC101085REMMET10302/02/17 10:53:02 METAR KMIC 021653Z 30015G21KT 10SM SCT030 M11/M19 A3039 RMK AO2 SLP310 T11061194 (FD)
0286726575949602017020217537+45062-093351FM-15+0265KMIC V0202605N00775009755MN0160935N5-00895-01785103075ADDAA101000095GA1075+009755999GD13991+0097559GE19MSL   +99999+99999GF199999999999009751999999KA1060M-00891KA2060N-01391MA1102885099695MD1890029+9999OC101185REMMET12102/02/17 11:53:02 METAR KMIC 021753Z 26015G23KT 10SM BKN032 M09/M18 A3038 RMK AO2 SLP307 T10891178 11089 21139 58002 (FD)
0217726575949602017020218537+45062-093351FM-15+0265KMIC V0202705N007252200059N0160935N5-00895-01785103055ADDAA101000095GA1045+010365999GD12991+0103659GE19MSL   +99999+99999GF199999999999010361999999MA1102885099695REMMET10002/02/17 12:53:02 METAR KMIC 021853Z 27014KT 10SM SCT034 M09/M18 A3038 RMK AO2 SLP305 T10891178 (FD)
0228726575949602017020219537+45062-093351FM-15+0265KMIC V0202705N006752200059N0160935N5-00895-01835103005ADDAA101000095GA1025+010975999GD11991+0109759GE19MSL   +99999+99999GF199999999999010971999999MA1102815099635OC101085REMMET10302/02/17 13:53:02 METAR KMIC 021953Z 27013G21KT 10SM FEW036 M09/M18 A3036 RMK AO2 SLP300 T10891183 (FD)
0223726575949602017020220537+45062-093351FM-15+0265KMIC V0202805N007752200059N0160935N5-00835-01895102965ADDAA101000095GA1005+999999999GD10991+9999999GF100991999999999999999999MA1102785099605MD1890129+9999OC101035REMMET10602/02/17 14:53:02 METAR KMIC 022053Z 28015G20KT 10SM CLR M08/M19 A3035 RMK AO2 SLP296 T10831189 58012 (FD)
0203726575949602017020221537+45062-093351FM-15+0265KMIC V0202805N007752200059N0160935N5-00895-02005102985ADDAA101000095GA1005+999999999GD10991+9999999GF100991999999999999999999MA1102785099605OC101085REMMET10002/02/17 15:53:02 METAR KMIC 022153Z 28015G21KT 10SM CLR M09/M20 A3035 RMK AO2 SLP298 T10891200 TSNO
0192726575949602017020222537+45062-093351FM-15+0265KMIC V0202805N006252200059N0160935N5-00945-01945103015ADDAA101000095GA1005+999999999GD10991+9999999GF100991999999999999999999MA1102815099635REMMET09702/02/17 16:53:02 METAR KMIC 022253Z 28012KT 10SM CLR M09/M19 A3036 RMK AO2 SLP301 T10941194 TSNO
0250726575949602017020223537+45062-093351FM-15+0265KMIC V0202905N005752200059N0160935N5-01065-01945103055ADDAA101000095GA1005+999999999GD10991+9999999GF100991999999999999999999KA1060M-00831KA2060N-01061MA1102845099665MD1390079+9999REMMET11502/02/17 17:53:02 METAR KMIC 022353Z 29011KT 10SM CLR M11/M19 A3037 RMK AO2 SLP305 T11061194 11083 21106 53007 TSNO
0192726575949602017020300537+45062-093351FM-15+0265KMIC V0202805N002652200059N0160935N5-01115-01835103045ADDAA101000095GA1005+999999999GD10991+9999999GF100991999999999999999999MA1102845099665REMMET09702/02/17 18:53:03 METAR KMIC 030053Z 28005KT 10SM CLR M11/M18 A3037 RMK AO2 SLP304 T11111183 TSNO
0192726575949602017020301537+45062-093351FM-15+0265KMIC V0202905N004152200059N0160935N5-01115-01785103015ADDAA101000095GA1005+999999999GD10991+9999999GF100991999999999999999999MA1102815099635REMMET09702/02/17 19:53:03 METAR KMIC 030153Z 29008KT 10SM CLR M11/M18 A3036 RMK AO2 SLP301 T11111178 TSNO
0212726575949602017020302537+45062-093351FM-15+0265KMIC V0202905N004652200059N0160935N5-01175-01945103055ADDAA101000095GA1005+999999999GD10991+9999999GF100991999999999999999999MA1102845099665MD1590009+9999REMMET10302/02/17 20:53:03 METAR KMIC 030253Z 29009KT 10SM CLR M12/M19 A3037 RMK AO2 SLP305 T11171194 55000 TSNO
0192726575949602017020303537+45062-093351FM-15+0265KMIC V0202805N003652200059N0160935N5-01225-01945103105ADDAA101000095GA1005+999999999GD10991+9999999GF100991999999999999999999MA1102915099735REMMET09702/02/17 21:53:03 METAR KMIC 030353Z 28007KT 10SM CLR M12/M19 A3039 RMK AO2 SLP310 T11221194 TSNO
0192726575949602017020304537+45062-093351FM-15+0265KMIC V0202705N004152200059N0160935N5-01225-01895103095ADDAA101000095GA1005+999999999GD10991+9999999GF100991999999999999999999MA1102915099735REMMET09702/02/17 22:53:03 METAR KMIC 030453Z 27008KT 10SM CLR M12/M19 A3039 RMK AO2 SLP309 T11221189 TSNO
0286726575949602017020305537+45062-093351FM-15+0265KMIC V0202805N004152200059N0160935N5-01285-01895103095ADDAA101000095GA1005+999999999GD10991+9999999GF100991999999999999999999KA1060M-01061KA2060N-01281KA3240M-00831KA4240N-01391MA1102915099735MD1090059+9999REMMET12502/02/17 23:53:03 METAR KMIC 030553Z 28008KT 10SM CLR M13/M19 A3039 RMK AO2 SLP309 T11281189 11106 21128 410831139 50005 TSNO
0886726575949602017020305596+45062-093351SOD  +0265KMIC V020999999999999999999999999999+99999+99999999999ADDAA124000095KA1240M-00825KA2240N-01385MG1099684102844OE11240120728015305OE22240102829015315OE33240055499999995REMSOD73024 HR PRECIPITATION (IN):0.00  24 HR MAX TEMP (F):17 24 HR MAX TEMP TIME (LST):1530 24 HR MIN TEMP (F):7  24 HR MIN TEMP TIME (LST):0651 AVERAGE STATION PRESSURE:29.435 MINIMUM SEA LEVEL PRESSURE:30.37 TIME OF OCCURRENCE:0029 PEAK WIND SPEED (MPH):27  PEAK WIND DIR (DEG):280 PEAK WIND TIME (LST):1530  FASTEST 2MIN SPEED (MPH):23 FASTEST 2MIN DIR (DEG):290 FASTEST 2MIN TIME (LST):1531 AVERAGE WIND SPEED (MPH):12.4 24 HR AVG TEMP (F):12 HEATING DEGREE DAYS:53  COOLING DEGREE DAYS:0   LATEST DAY MAX TEMP (0700-1900 LST):17  LATEST NIGHT MIN TEMP(1900-0800 LST):7  HOURLY INCREMENTAL PRECIPITATION VALUES (IN):.00 0.00 0.00 0.00 0.00 0.00 0.00 0.00 0.00 0.00 0.00 0.00 0.00 0.00 0.00 0.00 0.00 0.00 0.00 0.00 0.00 0.00 0.00 0.00EQDR01     N7GJS072R02     N7GKS075
0192726575949602017020306537+45062-093351FM-15+0265KMIC V0202805N003652200059N0160935N5-01335-01895103135ADDAA101000095GA1005+999999999GD10991+9999999GF100991999999999999999999MA1102955099765REMMET09702/03/17 00:53:02 METAR KMIC 030653Z 28007KT 10SM CLR M13/M19 A3040 RMK AO2 SLP313 T11331189 TSNO
0192726575949602017020307537+45062-093351FM-15+0265KMIC V0202905N003152200059N0160935N5-01335-01895103175ADDAA101000095GA1005+999999999GD10991+9999999GF100991999999999999999999MA1102985099795REMMET09702/03/17 01:53:02 METAR KMIC 030753Z 29006KT 10SM CLR M13/M19 A3041 RMK AO2 SLP317 T11331189 TSNO
0212726575949602017020308537+45062-093351FM-15+0265KMIC V0202705N002652200059N0160935N5-01395-01895103185ADDAA101000095GA1005+999999999GD10991+9999999GF100991999999999999999999MA1102985099795MD1190099+9999REMMET10302/03/17 02:53:02 METAR KMIC 030853Z 27005KT 10SM CLR M14/M19 A3041 RMK AO2 SLP318 T11391189 51009 TSNO
0192726575949602017020309537+45062-093351FM-15+0265KMIC V0202805N003152200059N0160935N5-01395-01895103185ADDAA101000095GA1005+999999999GD10991+9999999GF100991999999999999999999MA1102985099795REMMET09702/03/17 03:53:02 METAR KMIC 030953Z 28006KT 10SM CLR M14/M19 A3041 RMK AO2 SLP318 T11391189 TSNO
0192726575949602017020310537+45062-093351FM-15+0265KMIC V0202705N002152200059N0160935N5-01445-01895103185ADDAA101000095GA1005+999999999GD10991+9999999GF100991999999999999999999MA1102985099795REMMET09702/03/17 04:53:02 METAR KMIC 031053Z 27004KT 10SM CLR M14/M19 A3041 RMK AO2 SLP318 T11441189 TSNO
0250726575949602017020311537+45062-093351FM-15+0265KMIC V0202505N002152200059N0160935N5-01505-01895103235ADDAA101000095GA1005+999999999GD10991+9999999GF100991999999999999999999KA1060M-01281KA2060N-01501MA1103015099835MD1390039+9999REMMET11502/03/17 05:53:02 METAR KMIC 031153Z 25004KT 10SM CLR M15/M19 A3042 RMK AO2 SLP323 T11501189 11128 21150 53003 TSNO
0192726575949602017020312537+45062-093351FM-15+0265KMIC V0202405N003652200059N0160935N5-01445-01945103265ADDAA101000095GA1005+999999999GD10991+9999999GF100991999999999999999999MA1103055099865REMMET09702/03/17 06:53:02 METAR KMIC 031253Z 24007KT 10SM CLR M14/M19 A3043 RMK AO2 SLP326 T11441194 (FD)
0192726575949602017020313537+45062-093351FM-15+0265KMIC V0202605N004152200059N0160935N5-01445-01945103325ADDAA101000095GA1005+999999999GD10991+9999999GF100991999999999999999999MA1103125099935REMMET09702/03/17 07:53:02 METAR KMIC 031353Z 26008KT 10SM CLR M14/M19 A3045 RMK AO2 SLP332 T11441194 (FD)
0212726575949602017020314537+45062-093351FM-15+0265KMIC V0202605N005152200059N0160935N5-01285-01835103325ADDAA101000095GA1005+999999999GD10991+9999999GF100991999999999999999999MA1103125099935MD1190109+9999REMMET10302/03/17 08:53:02 METAR KMIC 031453Z 26010KT 10SM CLR M13/M18 A3045 RMK AO2 SLP332 T11281183 51010 (FD)
0192726575949602017020315537+45062-093351FM-15+0265KMIC V0202505N004652200059N0160935N5-01115-01785103355ADDAA101000095GA1005+999999999GD10991+9999999GF100991999999999999999999MA1103155099965REMMET09702/03/17 09:53:02 METAR KMIC 031553Z 25009KT 10SM CLR M11/M18 A3046 RMK AO2 SLP335 T11111178 (FD)
0192726575949602017020316537+45062-093351FM-15+0265KMIC V0202505N004652200059N0160935N5-00945-01785103345ADDAA101000095GA1005+999999999GD10991+9999999GF100991999999999999999999MA1103155099965REMMET09702/03/17 10:53:02 METAR KMIC 031653Z 25009KT 10SM CLR M09/M18 A3046 RMK AO2 SLP334 T10941178 (FD)
0250726575949602017020317537+45062-093351FM-15+0265KMIC V0202605N005152200059N0160935N5-00785-01785103275ADDAA101000095GA1005+999999999GD10991+9999999GF100991999999999999999999KA1060M-00781KA2060N-01501MA1103085099895MD1890039+9999REMMET11502/03/17 11:53:02 METAR KMIC 031753Z 26010KT 10SM CLR M08/M18 A3044 RMK AO2 SLP327 T10781178 11078 21150 58003 (FD)
0203726575949602017020318537+45062-093351FM-15+0265KMIC V0202705N005752200059N0160935N5-00675-01835103215ADDAA101000095GA1005+999999999GD10991+9999999GF100991999999999999999999MA1103015099835OC100935REMMET10002/03/17 12:53:02 METAR KMIC 031853Z 27011G18KT 10SM CLR M07/M18 A3042 RMK AO2 SLP321 T10671183 (FD)
0192726575949602017020319537+45062-093351FM-15+0265KMIC V0202605N007752200059N0160935N5-00565-01835103115ADDAA101000095GA1005+999999999GD10991+9999999GF100991999999999999999999MA1102955099765REMMET09702/03/17 13:53:02 METAR KMIC 031953Z 26015KT 10SM CLR M06/M18 A3040 RMK AO2 SLP311 T10561183 (FD)
0212726575949602017020320537+45062-093351FM-15+0265KMIC V0202605N006752200059N0160935N5-00565-01895103075ADDAA101000095GA1005+999999999GD10991+9999999GF100991999999999999999999MA1102885099695MD1690209+9999REMMET10302/03/17 14:53:02 METAR KMIC 032053Z 26013KT 10SM CLR M06/M19 A3038 RMK AO2 SLP307 T10561189 56020 (FD)
0192726575949602017020321537+45062-093351FM-15+0265KMIC V0202705N006252200059N0160935N5-00505-01835103025ADDAA101000095GA1005+999999999GD10991+9999999GF100991999999999999999999MA1102845099665REMMET09702/03/17 15:53:02 METAR KMIC 032153Z 27012KT 10SM CLR M05/M18 A3037 RMK AO2 SLP302 T10501183 (FD)
0192726575949602017020322537+45062-093351FM-15+0265KMIC V0202505N004652200059N0160935N5-00565-01725102995ADDAA101000095GA1005+999999999GD10991+9999999GF100991999999999999999999MA1102815099635REMMET09702/03/17 16:53:02 METAR KMIC 032253Z 25009KT 10SM CLR M06/M17 A3036 RMK AO2 SLP299 T10561172 (FD)
0250726575949602017020323537+45062-093351FM-15+0265KMIC V0202205N002152200059N0160935N5-00675-01675102945ADDAA101000095GA1005+999999999GD10991+9999999GF100991999999999999999999KA1060M-00501KA2060N-00781MA1102745099565MD1690139+9999REMMET11502/03/17 17:53:02 METAR KMIC 032353Z 22004KT 10SM CLR M07/M17 A3034 RMK AO2 SLP294 T10671167 11050 21078 56013 (FD)
0192726575949602017020400537+45062-093351FM-15+0265KMIC V0202105N001552200059N0160935N5-00675-01615102935ADDAA101000095GA1005+999999999GD10991+9999999GF100991999999999999999999MA1102745099565REMMET09702/03/17 18:53:03 METAR KMIC 040053Z 21003KT 10SM CLR M07/M16 A3034 RMK AO2 SLP293 T10671161 (FD)
0192726575949602017020401537+45062-093351FM-15+0265KMIC V0209999C000052200059N0160935N5-00895-01565102945ADDAA101000095GA1005+999999999GD10991+9999999GF100991999999999999999999MA1102745099565REMMET09702/03/17 19:53:03 METAR KMIC 040153Z 00000KT 10SM CLR M09/M16 A3034 RMK AO2 SLP294 T10891156 (FD)
0212726575949602017020402537+45062-093351FM-15+0265KMIC V0209999C000052200059N0160935N5-01065-01565102905ADDAA101000095GA1005+999999999GD10991+9999999GF100991999999999999999999MA1102715099535MD1890059+9999REMMET10302/03/17 20:53:03 METAR KMIC 040253Z 00000KT 10SM CLR M11/M16 A3033 RMK AO2 SLP290 T11061156 58005 TSNO
0192726575949602017020403537+45062-093351FM-15+0265KMIC V0201605N001552200059N0160935N5-01115-01565102805ADDAA101000095GA1005+999999999GD10991+9999999GF100991999999999999999999MA1102615099435REMMET09702/03/17 21:53:03 METAR KMIC 040353Z 16003KT 10SM CLR M11/M16 A3030 RMK AO2 SLP280 T11111156 TSNO
0192726575949602017020404537+45062-093351FM-15+0265KMIC V0201705N002152200059N0160935N5-01065-01505102775ADDAA101000095GA1005+999999999GD10991+9999999GF100991999999999999999999MA1102575099405REMMET09702/03/17 22:53:03 METAR KMIC 040453Z 17004KT 10SM CLR M11/M15 A3029 RMK AO2 SLP277 T11061150 TSNO
0286726575949602017020405537+45062-093351FM-15+0265KMIC V0201605N002152200059N0160935N5-01065-01505102665ADDAA101000095GA1005+999999999GD10991+9999999GF100991999999999999999999KA1060M-00611KA2060N-01171KA3240M-00501KA4240N-01501MA1102475099305MD1890229+9999REMMET12502/03/17 23:53:03 METAR KMIC 040553Z 16004KT 10SM CLR M11/M15 A3026 RMK AO2 SLP266 T11061150 11061 21117 410501150 58022 TSNO
0886726575949602017020405596+45062-093351SOD  +0265KMIC V020999999999999999999999999999+99999+99999999999ADDAA124000095KA1240M-00495KA2240N-01495MG1099644102644OE11240107326014295OE22240076027014305OE33240034999999995REMSOD73024 HR PRECIPITATION (IN):0.00  24 HR MAX TEMP (F):23 24 HR MAX TEMP TIME (LST):1633 24 HR MIN TEMP (F):5  24 HR MIN TEMP TIME (LST):0735 AVERAGE STATION PRESSURE:29.425 MINIMUM SEA LEVEL PRESSURE:30.31 TIME OF OCCURRENCE:2359 PEAK WIND SPEED (MPH):24  PEAK WIND DIR (DEG):260 PEAK WIND TIME (LST):1429  FASTEST 2MIN SPEED (MPH):17 FASTEST 2MIN DIR (DEG):270 FASTEST 2MIN TIME (LST):1430 AVERAGE WIND SPEED (MPH):7.8  24 HR AVG TEMP (F):14 HEATING DEGREE DAYS:51  COOLING DEGREE DAYS:0   LATEST DAY MAX TEMP (0700-1900 LST):23  LATEST NIGHT MIN TEMP(1900-0800 LST):5  HOURLY INCREMENTAL PRECIPITATION VALUES (IN):.00 0.00 0.00 0.00 0.00 0.00 0.00 0.00 0.00 0.00 0.00 0.00 0.00 0.00 0.00 0.00 0.00 0.00 0.00 0.00 0.00 0.00 0.00 0.00EQDR01     N7GJS072R02     N7GKS075
0192726575949602017020406537+45062-093351FM-15+0265KMIC V0201905N003152200059N0160935N5-00945-01395102605ADDAA101000095GA1005+999999999GD10991+9999999GF100991999999999999999999MA1102445099265REMMET09702/04/17 00:53:02 METAR KMIC 040653Z 19006KT 10SM CLR M09/M14 A3025 RMK AO2 SLP260 T10941139 TSNO
0192726575949602017020407537+45062-093351FM-15+0265KMIC V0201805N003652200059N0160935N5-01005-01395102495ADDAA101000095GA1005+999999999GD10991+9999999GF100991999999999999999999MA1102345099175REMMET09702/04/17 01:53:02 METAR KMIC 040753Z 18007KT 10SM CLR M10/M14 A3022 RMK AO2 SLP249 T11001139 TSNO
0212726575949602017020408537+45062-093351FM-15+0265KMIC V0201605N003152200059N0160935N5-01065-01445102375ADDAA101000095GA1005+999999999GD10991+9999999GF100991999999999999999999MA1102205099035MD1890279+9999REMMET10302/04/17 02:53:02 METAR KMIC 040853Z 16006KT 10SM CLR M11/M14 A3018 RMK AO2 SLP237 T11061144 58027 TSNO
0217726575949602017020409537+45062-093351FM-15+0265KMIC V0201605N00465030485MN0160935N5-00895-01335102165ADDAA101000095GA1075+030485999GD13991+0304859GE19MSL   +99999+99999GF199999999999030481999999MA1102005098845REMMET10002/04/17 03:53:02 METAR KMIC 040953Z 16009KT 10SM BKN100 M09/M13 A3012 RMK AO2 SLP216 T10891133 TSNO
0217726575949602017020410537+45062-093351FM-15+0265KMIC V0201605N00465027435MN0160935N5-00835-01335102015ADDAA101000095GA1085+027435999GD14991+0274359GE19MSL   +99999+99999GF199999999999027431999999MA1101865098705REMMET10002/04/17 04:53:02 METAR KMIC 041053Z 16009KT 10SM OVC090 M08/M13 A3008 RMK AO2 SLP201 T10831133 TSNO
0275726575949602017020411537+45062-093351FM-15+0265KMIC V0201505N00415033535MN0160935N5-00725-01335101835ADDAA101000095GA1075+033535999GD13991+0335359GE19MSL   +99999+99999GF199999999999033531999999KA1060M-00721KA2060N-01061MA1101695098545MD1690519+9999REMMET11802/04/17 05:53:02 METAR KMIC 041153Z 15008KT 10SM BKN110 M07/M13 A3003 RMK AO2 SLP183 T10721133 11072 21106 56051 TSNO
0217726575949602017020412537+45062-093351FM-15+0265KMIC V0201605N00415030485MN0160935N5-00675-01285101745ADDAA101000095GA1075+030485999GD13991+0304859GE19MSL   +99999+99999GF199999999999030481999999MA1101595098445REMMET10002/04/17 06:53:02 METAR KMIC 041253Z 16008KT 10SM BKN100 M07/M13 A3000 RMK AO2 SLP174 T10671128 TSNO
0192726575949602017020413537+45062-093351FM-15+0265KMIC V0201605N004652200059N0160935N5-00565-01225101575ADDAA101000095GA1005+999999999GD10991+9999999GF100991999999999999999999MA1101425098275REMMET09702/04/17 07:53:02 METAR KMIC 041353Z 16009KT 10SM CLR M06/M12 A2995 RMK AO2 SLP157 T10561122 (FD)
0212726575949602017020414537+45062-093351FM-15+0265KMIC V0201705N005152200059N0160935N5-00445-01175101465ADDAA101000095GA1005+999999999GD10991+9999999GF100991999999999999999999MA1101325098185MD1890369+9999REMMET10302/04/17 08:53:02 METAR KMIC 041453Z 17010KT 10SM CLR M04/M12 A2992 RMK AO2 SLP146 T10441117 58036 (FD)
0217726575949602017020415537+45062-093351FM-15+0265KMIC V0201705N00825033535MN0160935N5-00225-01115101395ADDAA101000095GA1085+033535999GD14991+0335359GE19MSL   +99999+99999GF199999999999033531999999MA1101255098115REMMET10002/04/17 09:53:02 METAR KMIC 041553Z 17016KT 10SM OVC110 M02/M11 A2990 RMK AO2 SLP139 T10221111 (FD)
0246726575949602017020416537+45062-093351FM-15+0265KMIC V0201905N00775019815MN0160935N5-00175-01115101295ADDAA101000095GA1085+019815999GD14991+0198159GE19MSL   +99999+99999GF199999999999019811999999MA1101155098015OC101345REMMET12102/04/17 10:53:02 METAR KMIC 041653Z 19015G26KT 10SM OVC065 M02/M11 A2987 RMK AO2 PK WND 18026/1648 SLP129 T10171111 (FD)
0324726575949602017020417537+45062-093351FM-15+0265KMIC V0202005N007752200059N0160935N5-00065-01065101125ADDAA101000095GA1025+021345999GA2045+033535999GD11991+0213459GD22991+0335359GE19MSL   +99999+99999GF199999999999021341999999KA1060M+00001KA2060N-00721MA1100985097855MD1890329+9999OC101245REMMET12802/04/17 11:53:02 METAR KMIC 041753Z 20015G24KT 10SM FEW070 SCT110 M01/M11 A2982 RMK AO2 SLP112 T10061106 10000 21072 58032 (FD)
0259726575949602017020418537+45062-093351FM-15+0265KMIC V0201905N007252200059N0160935N5+00005-01065100995ADDAA101000095GA1025+033535999GD11991+0335359GE19MSL   +99999+99999GF199999999999033531999999MA1100855097715OC101495OD149901491190REMMET12002/04/17 12:53:02 METAR KMIC 041853Z 19014G29KT 10SM FEW110 00/M11 A2978 RMK AO2 PK WND 19029/1846 SLP099 T00001106 (FD)
0265726575949602017020419537+45062-093351FM-15+0265KMIC V0201905N008852200059N0160935N5+00115-01005100865ADDAA101000095GA1025+012805999GA2045+036585999GD11991+0128059GD22991+0365859GE19MSL   +99999+99999GF199999999999012801999999MA1100755097615OC101035REMMET10902/04/17 13:53:02 METAR KMIC 041953Z 19017G20KT 10SM FEW042 SCT120 01/M10 A2975 RMK AO2 SLP086 T00111100 (FD)
0285726575949602017020420537+45062-093351FM-15+0265KMIC V0202005N00575012195MN0160935N5+00115-00945100815ADDAA101000095GA1075+012195999GA2075+033535999GD13991+0121959GD23991+0335359GE19MSL   +99999+99999GF199999999999012191999999MA1100685097555MD1690299+9999OC100825REMMET11502/04/17 14:53:02 METAR KMIC 042053Z 20011G16KT 10SM BKN040 BKN110 01/M09 A2973 RMK AO2 SLP081 T00111094 56029 (FD)
0254726575949602017020421537+45062-093351FM-15+0265KMIC V0202305N007252200059N0160935N5+00115-00895100815ADDAA101000095GA1025+011895999GA2045+033535999GD11991+0118959GD22991+0335359GE19MSL   +99999+99999GF199999999999011891999999MA1100685097555REMMET10602/04/17 15:53:02 METAR KMIC 042153Z 23014KT 10SM FEW039 SCT110 01/M09 A2973 RMK AO2 SLP081 T00111089 (FD)
0216726575949602017020422537+45062-093351FM-15+0265KMIC V0202105N003652200059N0160935N5+00065-00835100815ADDAA101000095GA1025+028965999GD11991+0289659GE19MSL   +99999+99999GF199999999999028961999999MA1100685097555REMMET09902/04/17 16:53:02 METAR KMIC 042253Z 21007KT 10SM FEW095 01/M08 A2973 RMK AO2 SLP081 T00061083 (FD)
0313726575949602017020423537+45062-093351FM-15+0265KMIC V0202405N001552200059N0160935N5-00065-00835100865ADDAA101000095GA1045+012195999GA2045+033535999GD12991+0121959GD22991+0335359GE19MSL   +99999+99999GF199999999999012191999999KA1060M+00171KA2060N-00061MA1100755097615MD1390059+9999REMMET12502/04/17 17:53:02 METAR KMIC 042353Z 24003KT 10SM SCT040 SCT110 M01/M08 A2975 RMK AO2 SLP086 T10061083 10017 21006 53005 (FD)
0255726575949602017020500537+45062-093351FM-15+0265KMIC V0209999C00005036585MN0160935N5-00065-00785100855ADDAA101000095GA1025+010975999GA2075+036585999GD11991+0109759GD23991+0365859GE19MSL   +99999+99999GF199999999999010971999999MA1100755097615REMMET10702/04/17 18:53:03 METAR KMIC 050053Z 00000KT 10SM FEW036 BKN120 M01/M08 A2975 RMK AO2 SLP085 T10061078 (FD)
0217726575949602017020501537+45062-093351FM-15+0265KMIC V0201805N001552200059N0160935N5-00175-00785100795ADDAA101000095GA1045+036585999GD12991+0365859GE19MSL   +99999+99999GF199999999999036581999999MA1100685097555REMMET10002/04/17 19:53:03 METAR KMIC 050153Z 18003KT 10SM SCT120 M02/M08 A2973 RMK AO2 SLP079 T10171078 (FD)
0237726575949602017020502537+45062-093351FM-15+0265KMIC V0202205N00155019815MN0160935N5-00065-00725100795ADDAA101000095GA1085+019815999GD14991+0198159GE19MSL   +99999+99999GF199999999999019811999999MA1100685097555MD1590059+9999REMMET10602/04/17 20:53:03 METAR KMIC 050253Z 22003KT 10SM OVC065 M01/M07 A2973 RMK AO2 SLP079 T10061072 55005 (FD)
0216726575949602017020503537+45062-093351FM-15+0265KMIC V0202605N00265018295MN0160935N5+00005-00675100855ADDAA101000095GA1085+018295999GD14991+0182959GE19MSL   +99999+99999GF199999999999018291999999MA1100755097615REMMET09902/04/17 21:53:03 METAR KMIC 050353Z 26005KT 10SM OVC060 00/M07 A2975 RMK AO2 SLP085 T00001067 TSNO
0216726575949602017020504537+45062-093351FM-15+0265KMIC V0202805N00265018295MN0160935N5+00005-00615100865ADDAA101000095GA1085+018295999GD14991+0182959GE19MSL   +99999+99999GF199999999999018291999999MA1100785097655REMMET09902/04/17 22:53:03 METAR KMIC 050453Z 28005KT 10SM OVC060 00/M06 A2976 RMK AO2 SLP086 T00001061 TSNO
0272726575949602017020505534+45062-093354FM-15+026599999V0202901N004110152419N016093199-00061-00611100921ADDGD14991+0152419GE19MSL   +99999+99999GF199999999999015241999999KA1060M+00001KA2060N-00221KA3240M+00171KA4240N-01061MA1100811999999MD1990141+9999REMMET116METAR KMIC 050553Z AUTO 29008KT 10SM OVC050 M01/M06 A2977 RMK AO2 SLP092 T10061061 10000 21022 400171106 52014 TSNO=
0886726575949602017020505596+45062-093351SOD  +0265KMIC V020999999999999999999999999999+99999+99999999999ADDAA124000095KA1240M+00175KA2240N-01055MG1097904100784OE11240147519012465OE22240107319012475OE33240044799999995REMSOD73024 HR PRECIPITATION (IN):0.00  24 HR MAX TEMP (F):35 24 HR MAX TEMP TIME (LST):1458 24 HR MIN TEMP (F):13 24 HR MIN TEMP TIME (LST):0329 AVERAGE STATION PRESSURE:28.910 MINIMUM SEA LEVEL PRESSURE:29.76 TIME OF OCCURRENCE:2102 PEAK WIND SPEED (MPH):33  PEAK WIND DIR (DEG):190 PEAK WIND TIME (LST):1246  FASTEST 2MIN SPEED (MPH):24 FASTEST 2MIN DIR (DEG):190 FASTEST 2MIN TIME (LST):1247 AVERAGE WIND SPEED (MPH):10.0 24 HR AVG TEMP (F):24 HEATING DEGREE DAYS:41  COOLING DEGREE DAYS:0   LATEST DAY MAX TEMP (0700-1900 LST):35  LATEST NIGHT MIN TEMP(1900-0800 LST):11 HOURLY INCREMENTAL PRECIPITATION VALUES (IN):.00 0.00 0.00 0.00 0.00 0.00 0.00 0.00 0.00 0.00 0.00 0.00 0.00 0.00 0.00 0.00 0.00 0.00 0.00 0.00 0.00 0.00 0.00 0.00EQDR01     N7GJS072R02     N7GKS075
0200726575949602017020506534+45062-093354FM-15+026599999V0202901N005110076219N016093199-00061-00561100991ADDGD13991+0076219GD24991+0115819GE19MSL   +99999+99999GF199999999999007621999999MA1100881999999REMMET095METAR KMIC 050653Z AUTO 29010KT 10SM BKN025 OVC038 M01/M06 A2979 RMK AO2 SLP099 T10061056 TSNO=
0178726575949602017020507534+45062-093354FM-15+026599999V0203201N005710079219N016093199-00111-00671101121ADDGD14991+0079219GE19MSL   +99999+99999GF199999999999007921999999MA1101021999999REMMET088METAR KMIC 050753Z AUTO 32011KT 10SM OVC026 M01/M07 A2983 RMK AO2 SLP112 T10111067 TSNO=
0209726575949602017020508534+45062-093354FM-15+026599999V0203201N006710067119N016093199-00171-00781101311ADDGD14991+0067119GE19MSL   +99999+99999GF199999999999006711999999MA1101221999999MD1990311+9999OC101081REMMET097METAR KMIC 050853Z AUTO 32013G21KT 10SM OVC022 M02/M08 A2989 RMK AO2 SLP131 T10171078 53031 TSNO=
0189726575949602017020509534+45062-093354FM-15+026599999V0203301N005710082319N016093199-00501-01061101511ADDGD13991+0082319GE19MSL   +99999+99999GF199999999999008231999999MA1101391999999OC100981REMMET091METAR KMIC 050953Z AUTO 33011G19KT 10SM BKN027 M05/M11 A2994 RMK AO2 SLP151 T10501106 TSNO=
0171726575949602017020510004+45062-093354FM-16+026599999V0203301N006719999999N016093199-00501-01061999999ADDGD12991+0085319GE19MSL   +99999+99999GF199999999999008531999999MA1101421999999REMMET081SPECI KMIC 051000Z AUTO 33013KT 10SM SCT028 M05/M11 A2995 RMK AO2 T10501106 TSNO=
0178726575949602017020510534+45062-093354FM-15+026599999V0203301N005119999999N016093199-00611-01171101641ADDGD12991+0061019GE19MSL   +99999+99999GF199999999999006101999999MA1101521999999REMMET088METAR KMIC 051053Z AUTO 33010KT 10SM SCT020 M06/M12 A2998 RMK AO2 SLP164 T10611117 TSNO=
