0218726580149222017010100004+44883-093217FM-12+025599999V0202301N003619999999N016000199-00561-01061101001ADDAJ100033100030099GE19MSL   +99999+99999GF104991999999999999999999KA1120M-00281KA2120N-00671MA1999999097741MD1110051+9999REMSYN08672658 32966 42307 11056 21106 39774 40100 51005 92353 333 11028 21067 4/003 555 90100=
0255726580149222017010100537+44883-093229FM-15+0255KMSP V0301905N00315076205MN0160935N5-00615-01065100975ADDAA101000095GA1025+045725999GA2075+076205999GD11991+0457259GD23991+0762059GE19MSL   +99999+99999GF199999999999045721999999MA1100855097835REMMET10712/31/16 18:53:03 METAR KMSP 010053Z 19006KT 10SM FEW150 BKN250 M06/M11 A2978 RMK AO2 SLP097 T10611106 (NK)
0255726580149222017010101537+44883-093229FM-15+0255KMSP V0302105N00415045725MN0160935N5-00505-01005100945ADDAA101000095GA1025+036585999GA2085+045725999GD11991+0365859GD24991+0457259GE19MSL   +99999+99999GF199999999999036581999999MA1100815097805REMMET10712/31/16 19:53:03 METAR KMSP 010153Z 21008KT 10SM FEW120 OVC150 M05/M10 A2977 RMK AO2 SLP094 T10501100 (NK)
0275726580149222017010102537+44883-093229FM-15+0255KMSP V0302105N00465030485MN0160935N5-00395-00835100925ADDAA101000095GA1075+030485999GA2085+036585999GD13991+0304859GD24991+0365859GE19MSL   +99999+99999GF199999999999030481999999MA1100785097765MD1690089+9999REMMET11312/31/16 20:53:03 METAR KMSP 010253Z 21009KT 10SM BKN100 OVC120 M04/M08 A2976 RMK AO2 SLP092 T10391083 56008 (NK)
0217726580149222017010103537+44883-093229FM-15+0255KMSP V0302205N00575030485MN0160935N5-00335-00835100925ADDAA101000095GA1075+030485999GD13991+0304859GE19MSL   +99999+99999GF199999999999030481999999MA1100815097805REMMET10012/31/16 21:53:03 METAR KMSP 010353Z 22011KT 10SM BKN100 M03/M08 A2977 RMK AO2 SLP092 T10331083 (NK)
0217726580149222017010104537+44883-093229FM-15+0255KMSP V0302205N00465027435MN0160935N5-00335-00835100935ADDAA101000095GA1085+027435999GD14991+0274359GE19MSL   +99999+99999GF199999999999027431999999MA1100815097805REMMET10012/31/16 22:53:03 METAR KMSP 010453Z 22009KT 10SM OVC090 M03/M08 A2977 RMK AO2 SLP093 T10331083 (AP)
0311726580149222017010105537+44883-093229FM-15+0255KMSP V0302305N00365025915MN0160935N5-00335-00835100955ADDAA101000095GA1075+025915999GD13991+0259159GE19MSL   +99999+99999GF199999999999025911999999KA1060M-00331KA2060N-00611KA3240M-00061KA4240N-00671MA1100855097835MD1390049+9999REMMET12812/31/16 23:53:03 METAR KMSP 010553Z 23007KT 10SM BKN085 M03/M08 A2978 RMK AO2 SLP095 T10331083 11033 21061 410061067 53004 (AP)
0968726580149222017010105596+44883-093229SOD  +0255KMSP V030999999999999999999999999999+99999+99999999999ADDAA124000025AJ100039599999999AN1024000035KA1240M-00055KA2240N-00665KG1024W-0056D4KG2024D-0089D4MF1097664100784MG1097654100004OE11240125232099995OE22240102832099995OE33240054599999995RH1024X075D4RH2024N057D4RH3024M068D4REMSOD73924 HR PRECIPITATION (IN):    T SNOW DEPTH (IN):1     24 HR SNOWFALL (IN):T    24 HR MAX TEMP (F): 3124 HR MIN TEMP (F): 20AVERAGE STATION PRESSURE:28.835 MINIMUM SEA LEVEL PRESSURE:29.53 TIME OF OCCURRENCE:0100 PEAK WIND SPEED (MPH): 28 PEAK WIND DIR (DEG):320 PEAK WIND TIME (LST):      FASTEST 2MIN SPEED (MPH): 23FASTEST 2MIN DIR (DEG):320 FASTEST 2MIN TIME (LST):     AVERAGE WIND SPEED (MPH):12.2 24 HR AVG TEMP (F): 26DEPART FROM NORMAL: 10  HEATING DEGREE DAYS: 39 COOLING DEGREE DAYS:  0 LATEST DAY MAX TEMP (0700-1900 LST):26  LATEST NIGHT MIN TEMP(1900-0800 LST):22 HOURLY INCREMENTAL PRECIPITATION VALUES (IN):.00 0.00 0.00 T    T    T    0.00 0.00 0.00 0.00 0.00 0.00 0.00 0.00 0.00 0.00 0.00 0.00 0.00 0.00 0.00 0.00 0.00 0.00
1381726580149222017010105596+44883-093229SOM  +0255KMSP V030999999999999999999999999999+99999+99999999999ADDAB1005449AAD10024692526999999995AE1085065015005AH1005002092520575AH2010003092521005AH3015003092521005AH4020003392521075AH5030003892521195AH6045005392521075AI1060006192516005AI2080007192516085AI3100009192516005AI4120010492516085AI5150012492516085AI6180014592516085AK100239179999UAM101309111199999999UAN1744040195KB1744N-09565KB2744M-02785KB3744A-06175KC1N9-02881899995KC2M9+00612699995KD1744H13585KD2744C00005KE117U00U28U06UMH109868U10186UMK110366091053U09970260153UREMSOM869PCP MTOT:2.14 PCP GT 24HRS:0.97 DATE(S):25-26 DAYS W/PCP >=.01:8  DAYS W/PCP >=.10:6  DAYS W/ PCP >=.50:1 DAYS W/PCP >=1.00:0 MSDP AMTS W/DATE-TIME TAGS:MIN:5 0.08  25/2057 MIN:10 0.12  25/2100 MIN:15 0.12  25/2100 MIN:20 0.13  25/2107 MIN:30 0.15  25/2119 MIN:45 0.21  25/2107 MIN:60 0.24  25/1600 MIN:80 0.28  25/1608 MIN:100 0.36  25/1600 MIN:120 0.41  25/1608 MIN:150 0.49  25/1608 MIN:180 0.57  25/1608 SN GT DP ON GRND:8 DATE(S):18 SN GT IN 24HRS:5.1 DATE(S): 11SN MTOT:15.8 AVG DLY MIN:14.8  AVG DLY MAX:27.0  AVG MLY TMP:20.9  MIN TMP:-20DATE(S):18 MAX TMP:43  DATE(S):26 DAYS MAX <=32:1 DAYS MAX >=90:0  DAYS MIN <=32:28 DAYS MIN  <=0:6  AVG STP:29.140 LWST SLP:29.43 DATE/TIME:260146 HGST SLP:30.62 DATE/TIME:091018 HDD MTH TOT:1358 DEP NORM:-2553 SEASON(JUL 1-JUN 30):2402 DEP NORM:-25536 CDD MTH TOT:0 DEP NORM:-2553 SEASON(JAN 1-DEC 31):964 DEP NORM:-25536EQDR01  2.147ABP070R02     87AKS094
0195726580149222017010106004+44883-093217FM-12+025599999V0202301N003619999999N016000199-00331-00831100951ADDGE19MSL   +99999+99999GF106991999999999999999999KA1240M-00281KA2240N-00671MA1999999097711MD1310041+9999REMSYN08072658 32966 62307 11033 21083 39771 40095 53004 90553 333 11028 21067 555 90106=
0203726580149222017010106537+44883-093229FM-15+0255KMSP V0202405N005152200059N0160935N5-00285-00835100945ADDAA101000095GA1005+999999999GD10991+9999999GF100991999999999999999999MA1100815097805OC100825REMMET10001/01/17 00:53:02 METAR KMSP 010653Z 24010G16KT 10SM CLR M03/M08 A2977 RMK AO2 SLP094 T10281083 (AP)
0192726580149222017010107537+44883-093229FM-15+0255KMSP V0202405N004152200059N0160935N5-00335-00835101015ADDAA101000095GA1005+999999999GD10991+9999999GF100991999999999999999999MA1100885097865REMMET09701/01/17 01:53:02 METAR KMSP 010753Z 24008KT 10SM CLR M03/M08 A2979 RMK AO2 SLP101 T10331083 (AP)
0212726580149222017010108537+44883-093229FM-15+0255KMSP V0202405N004152200059N0160935N5-00335-00835101095ADDAA101000095GA1005+999999999GD10991+9999999GF100991999999999999999999MA1100985097965MD1390139+9999REMMET10301/01/17 02:53:02 METAR KMSP 010853Z 24008KT 10SM CLR M03/M08 A2982 RMK AO2 SLP109 T10331083 53013 (AP)
0192726580149222017010109537+44883-093229FM-15+0255KMSP V0202505N003652200059N0160935N5-00395-00835101165ADDAA101000095GA1005+999999999GD10991+9999999GF100991999999999999999999MA1101055098035REMMET09701/01/17 03:53:02 METAR KMSP 010953Z 25007KT 10SM CLR M04/M08 A2984 RMK AO2 SLP116 T10391083 (AP)
0192726580149222017010110537+44883-093229FM-15+0255KMSP V0202305N003652200059N0160935N5-00445-00895101235ADDAA101000095GA1005+999999999GD10991+9999999GF100991999999999999999999MA1101125098095REMMET09701/01/17 04:53:02 METAR KMSP 011053Z 23007KT 10SM CLR M04/M09 A2986 RMK AO2 SLP123 T10441089 (AP)
0273726580149222017010111537+44883-093229FM-15+0255KMSP V0202405N002652200059N0160935N5-00445-00895101315ADDAA101000095AJ100039500025099GA1005+999999999GD10991+9999999GF100991999999999999999999KA1060M-00281KA2060N-00501MA1101195098165MD1390219+9999REMMET12101/01/17 05:53:02 METAR KMSP 011153Z 24005KT 10SM CLR M04/M09 A2988 RMK AO2 SLP131 4/001 T10441089 11028 21050 53021 (AP)
0170726580149222017010112004+44883-093217FM-12+025599999V0202401N002619999999N016000199-00441-00891101311ADDAJ100033100030099KA1240M-00061KA2240N-00611MA1999999098041MD1310211+9999REMSYN08672658 32966 02405 11044 21089 39804 40131 53021 91153 333 11006 21061 4/003 555 90112=
0237726580149222017010112537+44883-093229FM-15+0255KMSP V0202605N002152200059N0160935N5-00505-00895101415ADDAA101000095GA1025+076205999GD11991+0762059GE19AGL   +99999+99999GF102995999999076201999999MA1101295098265REMMET10101/01/17 06:53:02 METAR KMSP 011253Z 26004KT 10SM FEW250 M05/M09 A2991 RMK AO2 SLP141 T10501089 (TAN)EQDD01      0ADE726
0237726580149222017010113537+44883-093229FM-15+0255KMSP V0202205N002652200059N0160935N5-00565-00895101555ADDAA101000095GA1025+007625999GD11991+0076259GE19AGL   +99999+99999GF102995999999007621999999MA1101425098395REMMET10101/01/17 07:53:02 METAR KMSP 011353Z 22005KT 10SM FEW025 M06/M09 A2995 RMK AO2 SLP155 T10561089 (TAN)EQDD01      0ADE726
0257726580149222017010114537+44883-093229FM-15+0255KMSP V0202405N002652200059N0160935N5-00565-00895101625ADDAA101000095GA1025+007625999GD11991+0076259GE19AGL   +99999+99999GF102995999999007621999999MA1101495098465MD1190319+9999REMMET10701/01/17 08:53:02 METAR KMSP 011453Z 24005KT 10SM FEW025 M06/M09 A2997 RMK AO2 SLP162 T10561089 51031 (TAN)EQDD01      0ADE726
0237726580149222017010115537+44883-093229FM-15+0255KMSP V0202905N002652200059N0160935N5-00335-00785101725ADDAA101000095GA1025+007625999GD11991+0076259GE19AGL   +99999+99999GF102995999999007621999999MA1101595098565REMMET10101/01/17 09:53:02 METAR KMSP 011553Z 29005KT 10SM FEW025 M03/M08 A3000 RMK AO2 SLP172 T10331078 (TAN)EQDD01      0ADE726
0237726580149222017010116537+44883-093229FM-15+0255KMSP V0203005N002652200059N0160935N5-00175-00785101795ADDAA101000095GA1025+007625999GD11991+0076259GE19AGL   +99999+99999GF102995999999007621999999MA1101695098665REMMET10101/01/17 10:53:02 METAR KMSP 011653Z 30005KT 10SM FEW025 M02/M08 A3003 RMK AO2 SLP179 T10171078 (TAN)EQDD01      0ADE726
0356726580149222017010117537+44883-093229FM-15+0255KMSP V0209999C000052200059N0160935N5-00115-00725101775ADDAA101000095AJ100039500025099GA1045+007625999GA2045+060965999GD12991+0076259GD22991+0609659GE19AGL   +99999+99999GF104995999999007621999999KA1060M-00061KA2060N-00611MA1101665098625MD1090179+9999REMMET13201/01/17 11:53:02 METAR KMSP 011753Z 00000KT 10SM SCT025 SCT200 M01/M07 A3002 RMK AO2 SLP177 4/001 T10111072 11006 21061 50017 (TAN)EQDD01      0ADE726
0234726580149222017010118004+44883-093217FM-12+025599999V0209999C000019999999N016000199-00111-00721101771ADDAJ100033100030099GA1999+008001999GE19MSL   +99999+99999GF104991999999008001999999KA1120M-00061KA2120N-00611MA1999999098501MD1990171+9999REMSYN08672658 32566 40000 11011 21072 39850 40177 50017 91753 333 11006 21061 4/003 555 90118=
0274726580149222017010118537+44883-093229FM-15+0255KMSP V0200405N003152200059N0160935N5+00005-00725101745ADDAA101000095GA1045+007925999GA2045+060965999GD12991+0079259GD22991+0609659GE19AGL   +99999+99999GF104995999999007921999999MA1101635098595REMMET10701/01/17 12:53:02 METAR KMSP 011853Z 04006KT 10SM SCT026 SCT200 00/M07 A3001 RMK AO2 SLP174 T00001072 (TAN)EQDD01      0ADE726
0256726580149222017010119537+44883-093229FM-15+0255KMSP V0209999C00005070105MN0160935N5-00115-00725101765ADDAA101000095GA1025+007925999GA2075+070105999GD11991+0079259GD23991+0701059GE19MSL   +99999+99999GF199999999999007921999999MA1101665098625REMMET10801/01/17 13:53:02 METAR KMSP 011953Z 00000KT 10SM FEW026 BKN230 M01/M07 A3002 RMK AO2 SLP176 T10111072 (TAN)
0276726580149222017010120537+44883-093229FM-15+0255KMSP V0200905N00315076205MN0160935N5-00065-00725101825ADDAA101000095GA1025+007925999GA2075+076205999GD11991+0079259GD23991+0762059GE19MSL   +99999+99999GF199999999999007921999999MA1101695098665MD1390049+9999REMMET11401/01/17 14:53:02 METAR KMSP 012053Z 09006KT 10SM FEW026 BKN250 M01/M07 A3003 RMK AO2 SLP182 T10061072 53004 (TAN)
0255726580149222017010121537+44883-093229FM-15+0255KMSP V0200705N00415064015MN0160935N5-00115-00725101875ADDAA101000095GA1025+007925999GA2075+064015999GD11991+0079259GD23991+0640159GE19MSL   +99999+99999GF199999999999007921999999MA1101765098725REMMET10701/01/17 15:53:02 METAR KMSP 012153Z 07008KT 10SM FEW026 BKN210 M01/M07 A3005 RMK AO2 SLP187 T10111072 (NK)
0255726580149222017010122537+44883-093229FM-15+0255KMSP V0200905N00315048775MN0160935N5-00175-00725101945ADDAA101000095GA1025+007625999GA2075+048775999GD11991+0076259GD23991+0487759GE19MSL   +99999+99999GF199999999999007621999999MA1101835098795REMMET10701/01/17 16:53:02 METAR KMSP 012253Z 09006KT 10SM FEW025 BKN160 M02/M07 A3007 RMK AO2 SLP194 T10171072 (NK)
0336726580149222017010123537+44883-093229FM-15+0255KMSP V0200805N00365051825MN0160935N5-00175-00725102015ADDAA101000095AJ100039500025099GA1045+036585999GA2075+051825999GD12991+0365859GD23991+0518259GE19MSL   +99999+99999GF199999999999036581999999KA1060M+00001KA2060N-00171MA1101905098855MD1390179+9999REMMET13101/01/17 17:53:02 METAR KMSP 012353Z 08007KT 10SM SCT120 BKN170 M02/M07 A3009 RMK AO2 SLP201 4/001 T10171072 10000 21017 53017 (NK)
0218726580149222017010200004+44883-093217FM-12+025599999V0200801N003619999999N016000199-00171-00721102011ADDAJ100033100030099GE19MSL   +99999+99999GF106991999999999999999999KA1120M+00001KA2120N-00501MA1999999098731MD1310171+9999REMSYN08672658 32966 60807 11017 21072 39873 40201 53017 92353 333 10000 21050 4/003 555 90200=
0250726580149222017010200537+44883-093229FM-15+0255KMSP V0200705N00365033535MN0160935N5-00225-00785102045ADDAA101000095GA1075+033535999GA2085+051825999GD13991+0335359GD24991+0518259GE19MSL   +99999+99999GF199999999999033531999999MA1101935098895REMMET10201/01/17 18:53:01 METAR KMSP 020053Z 07007KT 10SM BKN110 OVC170 M02/M08 A3010 RMK AO2 SLP204 T10221078
0250726580149222017010201537+44883-093229FM-15+0255KMSP V0200805N00365025915MN0160935N5-00225-00785102035ADDAA101000095GA1075+025915999GA2085+045725999GD13991+0259159GD24991+0457259GE19MSL   +99999+99999GF199999999999025911999999MA1101905098855REMMET10201/01/17 19:53:01 METAR KMSP 020153Z 08007KT 10SM BKN085 OVC150 M02/M08 A3009 RMK AO2 SLP203 T10221078
0232726580149222017010202537+44883-093229FM-15+0255KMSP V0200805N00415018295MN0160935N5-00225-00725102025ADDAA101000095GA1085+018295999GD14991+0182959GE19MSL   +99999+99999GF199999999999018291999999MA1101905098855MD1090019+9999REMMET10101/01/17 20:53:02 METAR KMSP 020253Z 08008KT 10SM OVC060 M02/M07 A3009 RMK AO2 SLP202 T10221072 50001
0250726580149222017010203537+44883-093229FM-15+0255KMSP V0200905N00365019815MN0160935N5-00225-00725102025ADDAA101000095GA1075+019815999GA2085+024385999GD13991+0198159GD24991+0243859GE19MSL   +99999+99999GF199999999999019811999999MA1101905098855REMMET10201/01/17 21:53:02 METAR KMSP 020353Z 09007KT 10SM BKN065 OVC080 M02/M07 A3009 RMK AO2 SLP202 T10221072
0212726580149222017010204537+44883-093229FM-15+0255KMSP V0201205N00465021345MN0160935N5-00225-00725102035ADDAA101000095GA1085+021345999GD14991+0213459GE19MSL   +99999+99999GF199999999999021341999999MA1101935098895REMMET09501/01/17 22:53:02 METAR KMSP 020453Z 12009KT 10SM OVC070 M02/M07 A3010 RMK AO2 SLP203 T10221072
0405726580149222017010205537+44883-093229FM-15+0255KMSP V0200905N00465027435MN0160935N5-00225-00725102045ADDAA101000095AJ100039500025099GA1025+016765999GA2045+022865999GA3085+027435999GD11991+0167659GD22991+0228659GD34991+0274359GE19MSL   +99999+99999GF199999999999016761999999KA1060M-00171KA2060N-00221KA3240M+00001KA4240N-00611MA1101935098895MD1390049+9999REMMET14301/01/17 23:53:02 METAR KMSP 020553Z 09009KT 10SM FEW055 SCT075 OVC090 M02/M07 A3010 RMK AO2 SLP204 4/001 T10221072 11017 21022 400001061 53004
0899726580149222017010205596+44883-093229SOD  +0255KMSP V020999999999999999999999999999+99999+99999999999ADDAA124000095AJ100039599999999AL12400095AN1024000095KA1240M+00005KA2240N-00605MG1098614100914OE11240102824099995OE22240071524099995OE33240032299999995REMSOD73924 HR PRECIPITATION (IN): 0.00 SNOW DEPTH (IN):1     24 HR SNOWFALL (IN):0.0  24 HR MAX TEMP (F): 3224 HR MIN TEMP (F): 21AVERAGE STATION PRESSURE:29.120 MINIMUM SEA LEVEL PRESSURE:29.80 TIME OF OCCURRENCE:0050 PEAK WIND SPEED (MPH): 23 PEAK WIND DIR (DEG):240 PEAK WIND TIME (LST):      FASTEST 2MIN SPEED (MPH): 16FASTEST 2MIN DIR (DEG):240 FASTEST 2MIN TIME (LST):     AVERAGE WIND SPEED (MPH): 7.2 24 HR AVG TEMP (F): 27DEPART FROM NORMAL: 11  HEATING DEGREE DAYS: 38 COOLING DEGREE DAYS:  0 LATEST DAY MAX TEMP (0700-1900 LST):32  LATEST NIGHT MIN TEMP(1900-0800 LST):22 HOURLY INCREMENTAL PRECIPITATION VALUES (IN):.00 0.00 0.00 0.00 0.00 0.00 0.00 0.00 0.00 0.00 0.00 0.00 0.00 0.00 0.00 0.00 0.00 0.00 0.00 0.00 0.00 0.00 0.00 0.00
0234726580149222017010206004+44883-093217FM-12+025599999V0200901N004619999999N016000199-00221-00721102041ADDAJ100033100030099GA1999+017501999GE19MSL   +99999+99999GF108991999999017501999999KA1240M-00171KA2240N-00501MA1999999098771MD1310041+9999REMSYN08672658 32766 80909 11022 21072 39877 40204 53004 90553 333 11017 21050 4/003 555 90206=
0217726580149222017010206537+44883-093229FM-15+0255KMSP V0200805N00365015245MN0160935N5-00225-00725102025ADDAA101000095GA1085+015245999GD14991+0152459GE19MSL   +99999+99999GF199999999999015241999999MA1101905098855REMMET10001/02/17 00:53:02 METAR KMSP 020653Z 08007KT 10SM OVC050 M02/M07 A3009 RMK AO2 SLP202 T10221072 (AP)
0249726580149222017010207537+44883-093229FM-15+0255KMSP V0200805N00315033535MN0144845N5-00225-00725101995ADDAA101000025AU110030015AW1715GA1075+033535999GD13991+0335359GE19MSL   +99999+99999GF199999999999033531999999MA1101865098825REMMET11501/02/17 01:53:02 METAR KMSP 020753Z 08006KT 9SM -SN BKN110 M02/M07 A3008 RMK AO2 SNB03 SLP199 P0000 T10221072 (AP)
0284726580149222017010208537+44883-093229FM-15+0255KMSP V0200705N00315033535MN0144845N5-00225-00675102045ADDAA101000025AA203000021GA1085+033535999GD14991+0335359GE19MSL   +99999+99999GF199999999999033531999999MA1101935098895MD1390009+9999REMMET12301/02/17 02:53:02 METAR KMSP 020853Z 07006KT 9SM OVC110 M02/M07 A3010 RMK AO2 SNE48 SLP204 P0000 60000 T10221067 53000 (AP)EQDQ01  00008PRCP03
0217726580149222017010209537+44883-093229FM-15+0255KMSP V0200805N00415033535MN0160935N5-00225-00675102025ADDAA101000095GA1085+033535999GD14991+0335359GE19MSL   +99999+99999GF199999999999033531999999MA1101935098895REMMET10001/02/17 03:53:02 METAR KMSP 020953Z 08008KT 10SM OVC110 M02/M07 A3010 RMK AO2 SLP202 T10221067 (AP)
0217726580149222017010210537+44883-093229FM-15+0255KMSP V0200905N00465027435MN0160935N5-00225-00675101985ADDAA101000095GA1085+027435999GD14991+0274359GE19MSL   +99999+99999GF199999999999027431999999MA1101865098825REMMET10001/02/17 04:53:02 METAR KMSP 021053Z 09009KT 10SM OVC090 M02/M07 A3008 RMK AO2 SLP198 T10221067 (AP)
0353726580149222017010211537+44883-093229FM-15+0255KMSP V0201005N00515025915MN0160935N5-00225-00675101945ADDAA101000095AA206000021AJ100039500025099GA1075+025915999GA2085+033535999GD13991+0259159GD24991+0335359GE19MSL   +99999+99999GF199999999999025911999999KA1060M-00171KA2060N-00221MA1101835098795MD1890109+9999REMMET13701/02/17 05:53:02 METAR KMSP 021153Z 10010KT 10SM BKN085 OVC110 M02/M07 A3007 RMK AO2 SLP194 4/001 60000 T10221067 11017 21022 58010 (AP)
0235726580149222017010212004+44883-093217FM-12+025599999V0201001N005119999999N016000199-00221-00671101941ADDAA106000021AJ100033100030099GE19MSL   +99999+99999GF108991999999999999999999KA1240M+00001KA2240N-00221MA1999999098671MD1810101+9999REMSYN09272658 12966 81010 11022 21067 39867 40194 58010 69901 91153 333 10000 21022 4/003 555 90212=
0217726580149222017010212537+44883-093229FM-15+0255KMSP V0200905N00625021345MN0160935N5-00175-00675101895ADDAA101000095GA1085+021345999GD14991+0213459GE19MSL   +99999+99999GF199999999999021341999999MA1101795098765REMMET10001/02/17 06:53:02 METAR KMSP 021253Z 09012KT 10SM OVC070 M02/M07 A3006 RMK AO2 SLP189 T10171067 (AP)
0256726580149222017010213537+44883-093229FM-15+0255KMSP V0201105N00675018295MN0160935N5-00115-00675101885ADDAA101000095GA1075+018295999GA2085+027435999GD13991+0182959GD24991+0274359GE19MSL   +99999+99999GF199999999999018291999999MA1101765098725REMMET10801/02/17 07:53:02 METAR KMSP 021353Z 11013KT 10SM BKN060 OVC090 M01/M07 A3005 RMK AO2 SLP188 T10111067 (IOL)
0276726580149222017010214537+44883-093229FM-15+0255KMSP V0201005N00575014945MN0160935N5-00115-00615101885ADDAA101000095GA1075+014945999GA2085+016765999GD13991+0149459GD24991+0167659GE19MSL   +99999+99999GF199999999999014941999999MA1101765098725MD1690069+9999REMMET11401/02/17 08:53:02 METAR KMSP 021453Z 10011KT 10SM BKN049 OVC055 M01/M06 A3005 RMK AO2 SLP188 T10111061 56006 (IOL)
0218726580149222017010215537+44883-093229FM-15+0255KMSP V0201105N00625013415MN0160935N5-00115-00615101905ADDAA101000095GA1085+013415999GD14991+0134159GE19MSL   +99999+99999GF199999999999013411999999MA1101795098765REMMET10101/02/17 09:53:02 METAR KMSP 021553Z 11012KT 10SM OVC044 M01/M06 A3006 RMK AO2 SLP190 T10111061 (IOL)
0256726580149222017010216537+44883-093229FM-15+0255KMSP V0201205N00675016765MN0160935N5-00065-00615101915ADDAA101000095GA1025+012805999GA2085+016765999GD11991+0128059GD24991+0167659GE19MSL   +99999+99999GF199999999999012801999999MA1101795098765REMMET10801/02/17 10:53:02 METAR KMSP 021653Z 12013KT 10SM FEW042 OVC055 M01/M06 A3006 RMK AO2 SLP191 T10061061 (IOL)
0367726580149222017010217537+44883-093229FM-15+0255KMSP V0201105N00575015245MN0128755N5-00065-00445101785ADDAA101000025AA206000021AJ100039500025099AU110030015AW1715GA1085+015245999GD14991+0152459GE19MSL   +99999+99999GF199999999999015241999999KA1060M-00061KA2060N-00221MA1101665098625MD1890099+9999REMMET14601/02/17 11:53:02 METAR KMSP 021753Z 11011KT 8SM -SN OVC050 M01/M04 A3002 RMK AO2 SNB17 SLP178 4/001 P0000 60000 T10061044 11006 21022 58009 (IOL)EQDQ01  00008PRCP06
0263726580149222017010218004+44883-093217FM-12+025599999V0201101N005719999999N012000199-00061-00441101781ADDAA106000021AJ100033100030099GA1999+017501999GE19MSL   +99999+99999GF108991999999017501999999KA1120M-00061KA2120N-00221MA1999999098501MD1810091+9999MW1711REMSYN09872658 11762 81111 11006 21044 39850 40178 58009 69901 771// 91753 333 11006 21022 4/003 555 90218=
0255726580149222017010218537+44883-093229FM-15+0255KMSP V0201105N00575014025MN0112655N5-00065-00395101665ADDAA101000025AU110030015AW1715GA1085+014025999GD14991+0140259GE19MSL   +99999+99999GF199999999999014021999999MA1101565098525REMMET12101/02/17 12:53:02 METAR KMSP 021853Z 11011KT 7SM -SN OVC046 M01/M04 A2999 RMK AO2 SLP166 SNE22SNB40 P0000 T10061039 (IOL)
0271726580149222017010219367+44883-093229FM-16+0255KMSP V0200805N00515010065MN0096565N5-00065-00395999999ADDAA101000021AU110030025AU220060035AW1715AW2745GA1075+010065999GA2085+013115999GD13991+0100659GD24991+0131159MA1101495098465REMMET11801/02/17 13:36:02 SPECI KMSP 021936Z 08010KT 6SM -SNPL BKN033 OVC043 M01/M04 A2997 RMK AO2 PLB35 P0000 T10061039 (IOL)EQDD01      0ADE735
0239726580149222017010219537+44883-093229FM-15+0255KMSP V0200905N00465010065MN0112655N5+00005-00395101585ADDAA101000025AU110030025AU220060035AW1715AW2745GA1085+010065999GD14991+0100659MA1101495098465REMMET11701/02/17 13:53:02 METAR KMSP 021953Z 09009KT 7SM -SNPL OVC033 00/M04 A2997 RMK AO2 PLB35 SLP158 P0000 T00001039 (IOL)EQDD01      0ADE735
0264726580149222017010220107+44883-093229FM-16+0255KMSP V0200905N00515004885MN0112655N5+00005-00395999999ADDAA101000021AU110030025AU220060035AW1715AW2745GA1075+004885999GA2085+010065999GD13991+0048859GD24991+0100659MA1101465098435REMMET11101/02/17 14:10:02 SPECI KMSP 022010Z 09010KT 7SM -SNPL BKN016 OVC033 00/M04 A2996 RMK AO2 P0000 T00001039 (IOL)EQDD01      0ADE735
0274726580149222017010220357+44883-093229FM-16+0255KMSP V0200705N00365004275MN0064375N5+00005-00335999999ADDAA101000021AU110010015AW1515GA1075+004275999GA2085+007925999GD13991+0042759GD24991+0079259GE19MSL   +99999+99999GF199999999999004271999999MA1101465098435REMMET10901/02/17 14:35:02 SPECI KMSP 022035Z 07007KT 4SM -DZ BKN014 OVC026 00/M03 A2996 RMK AO2 P0000 T00001033 (IOL)
0291726580149222017010220427+44883-093229FM-16+0255KMSP V0200905N00415004275MN0096565N5+00005-00335999999ADDAA101000021AU118010015AW1545GA1075+004275999GA2085+007925999GD13991+0042759GD24991+0079259GE19MSL   +99999+99999GF199999999999004271999999MA1101465098435WA1900099REMMET11701/02/17 14:42:02 SPECI KMSP 022042Z 09008KT 6SM -FZDZ BKN014 OVC026 00/M03 A2996 RMK AO2 P0000 I1000 T00001033 (IOL)
0360726580149222017010220537+44883-093229FM-15+0255KMSP V0200905N00415004275MN0096565N5+00005-00335101565ADDAA101000025AA203000021AU118010015AW1545GA1075+004275999GA2085+006715999GD13991+0042759GD24991+0067159GE19MSL   +99999+99999GF199999999999004271999999MA1101465098435MD1690219+9999WA1900099REMMET14201/02/17 14:53:02 METAR KMSP 022053Z 09008KT 6SM -FZDZ BKN014 OVC022 00/M03 A2996 RMK AO2 SLP156 P0000 60000 I1000 I3000 T00001033 56021 (IOL)EQDQ01  00008PRCP03
0291726580149222017010221087+44883-093229FM-16+0255KMSP V0201005N00465004885MN0048285N5+00005-00285999999ADDAA101000021AU118010015AW1545GA1075+004885999GA2085+007325999GD13991+0048859GD24991+0073259GE19MSL   +99999+99999GF199999999999004881999999MA1101495098465WA1900099REMMET11701/02/17 15:08:02 SPECI KMSP 022108Z 10009KT 3SM -FZDZ BKN016 OVC024 00/M03 A2997 RMK AO2 P0000 I1000 T00001028 (JDB)
0291726580149222017010221167+44883-093229FM-16+0255KMSP V0200805N00365004885MN0032195N5+00005-00285999999ADDAA101000021AU118010015AW1545GA1075+004885999GA2085+007325999GD13991+0048859GD24991+0073259GE19MSL   +99999+99999GF199999999999004881999999MA1101465098435WA1900099REMMET11701/02/17 15:16:02 SPECI KMSP 022116Z 08007KT 2SM -FZDZ BKN016 OVC024 00/M03 A2996 RMK AO2 P0000 I1000 T00001028 (JDB)
0295726580149222017010221217+44883-093229FM-16+0255KMSP V0200705N00365003965MN0028165N5+00005-00285999999ADDAA101000021AU118010015AW1545GA1075+003965999GA2085+005795999GD13991+0039659GD24991+0057959GE19MSL   +99999+99999GF199999999999003961999999MA1101465098435WA1900199REMMET12101/02/17 15:21:02 SPECI KMSP 022121Z 07007KT 1 3/4SM -FZDZ BKN013 OVC019 00/M03 A2996 RMK AO2 P0000 I1001 T00001028 (JDB)
0273726580149222017010221387+44883-093229FM-16+0255KMSP V0200805N00365003665MN0032195N5+00005-00225999999ADDAA101000021AU118010015AU200001015AW1105AW2545GA1085+003665999GD14991+0036659GE19MSL   +99999+99999GF199999999999003661999999MA1101465098435WA1900199REMMET11301/02/17 15:38:02 SPECI KMSP 022138Z 08007KT 2SM -FZDZ BR OVC012 00/M02 A2996 RMK AO2 P0000 I1001 T00001022 (JDB)
0284726580149222017010221537+44883-093229FM-15+0255KMSP V0200905N00415003665MN0040235N5+00005-00225101565ADDAA101000025AU118010015AU200001015AW1105AW2545GA1085+003665999GD14991+0036659GE19MSL   +99999+99999GF199999999999003661999999MA1101465098435WA1900199REMMET12401/02/17 15:53:02 METAR KMSP 022153Z 09008KT 2 1/2SM -FZDZ BR OVC012 00/M02 A2996 RMK AO2 SLP156 P0000 I1002 T00001022 (JDB)
0311726580149222017010222207+44883-093229FM-16+0255KMSP V0200805N00365002745MN0032195N5+00005-00225999999ADDAA101000021AU118010015AU200001015AW1105AW2545GA1075+002745999GA2085+004275999GD13991+0027459GD24991+0042759GE19MSL   +99999+99999GF199999999999002741999999MA1101465098435WA1900099REMMET12001/02/17 16:20:02 SPECI KMSP 022220Z 08007KT 2SM -FZDZ BR BKN009 OVC014 00/M02 A2996 RMK AO2 P0000 I1000 T00001022 (JDB)
0200726580149222017010222516+44883-093229FM-16+0255KMSP V0200805N00365002445MN0048285N5+00005-00205999999ADDAU118010015AU200001015AW1105AW2545GA1085+002445999GD14991+0024459MA1101425098395REMMET10801/02/17 16:51:02 SPECI KMSP 022251Z 08007KT 3SM -FZDZ BR OVC008 00/M02 A2995 RMK AO2 P0000 I1001 FIBI (JDB)
0280726580149222017010222537+44883-093229FM-15+0255KMSP V0200805N00415002445MN0048285N5+00005-00225101535ADDAA101000025AU118010015AU200001015AW1105AW2545GA1085+002445999GD14991+0024459GE19MSL   +99999+99999GF199999999999002441999999MA1101425098395WA1900199REMMET12001/02/17 16:53:02 METAR KMSP 022253Z 08008KT 3SM -FZDZ BR OVC008 00/M02 A2995 RMK AO2 SLP153 P0000 I1001 T00001022 (JDB)
0258726580149222017010223277+44883-093229FM-16+0255KMSP V0200905N00315002135MN0064375N5+00005-00175999999ADDAA101000021AU100001015AW1105GA1085+002135999GD14991+0021359GE19MSL   +99999+99999GF199999999999002131999999MA1101425098395WA1900099REMMET11501/02/17 17:27:02 SPECI KMSP 022327Z 09006KT 4SM BR OVC007 00/M02 A2995 RMK AO2 FZDZE27 P0000 I1000 T00001017 (JDB)
0274726580149222017010223477+44883-093229FM-16+0255KMSP V0200505N00215002135MN0048285N5+00005-00205999999ADDAA101000021AU118010015AU200001015AW1105AW2545GA1085+002135999GD14991+0021359GE19MSL   +99999+99999GF199999999999002131999999MA1101465098435WA1900099REMMET11401/02/17 17:47:02 SPECI KMSP 022347Z 05004KT 3SM -FZDZ BR OVC007 00/M02 A2996 RMK AO2 FZDZE27B46 P0000 I1000 (JDB)
0215726580149222017010223516+44883-093229FM-16+0255KMSP V0200505N00265002135MN0040235N5+00005-00205999999ADDAU118010015AU200001015AW1105AW2545GA1085+002135999GD14991+0021359MA1101465098435REMMET12301/02/17 17:51:02 SPECI KMSP 022351Z 05005KT 2 1/2SM -FZDZ BR OVC007 00/M02 A2996 RMK AO2 FZDZE27B46 P0000 I1000 FIBI (JDB)
0414726580149222017010223537+44883-093229FM-15+0255KMSP V0200605N00215002135MN0048285N5+00005-00175101555ADDAA101000025AA206000021AJ100039500025099AU118010015AU200001015AW1105AW2545GA1085+002135999GD14991+0021359GE19MSL   +99999+99999GF199999999999002131999999KA1060M+00001KA2060N-00111MA1101465098435MD1590019+9999WA1900199REMMET16701/02/17 17:53:02 METAR KMSP 022353Z 06004KT 3SM -FZDZ BR OVC007 00/M02 A2996 RMK AO2 FZDZE27B46 SLP155 4/001 P0000 60000 I1000 I6003 T00001017 10000 21011 55001 (JDB)EQDQ01  00008PRCP06
0269726580149222017010300004+44883-093217FM-12+025599999V0200601N002119999999N004800199+00001-00171101551ADDAA106000021AJ100033100030099GA1999+002501999GE19MSL   +99999+99999GF108991999999002501999999KA1120M+00001KA2120N-00221MA1999999098311MD1510011+9999MW1101REMSYN10472658 11348 80604 10000 21017 39831 40155 55001 69901 710// 92353 333 10000 21022 4/003 96010 555 90300=
0271726580149222017010300137+44883-093229FM-16+0255KMSP V0200305N00315001835MN0040235N5+00005-00175999999ADDAA101000021AU118010015AU200001015AW1105AW2545GA1085+001835999GD14991+0018359GE19MSL   +99999+99999GF199999999999001831999999MA1101465098435WA1900099REMMET11101/02/17 18:13:01 SPECI KMSP 030013Z 03006KT 2 1/2SM -FZDZ BR OVC006 00/M02 A2996 RMK AO2 P0000 I1000 T00001017
0267726580149222017010300307+44883-093229FM-16+0255KMSP V0200305N00315001835MN0048285N5+00005-00175999999ADDAA101000021AU118010015AU200001015AW1105AW2545GA1085+001835999GD14991+0018359GE19MSL   +99999+99999GF199999999999001831999999MA1101465098435WA1900099REMMET10701/02/17 18:30:01 SPECI KMSP 030030Z 03006KT 3SM -FZDZ BR OVC006 00/M02 A2996 RMK AO2 P0000 I1000 T00001017
0274726580149222017010300537+44883-093229FM-15+0255KMSP V0200405N00315002135MN0048285N5+00005-00175101585ADDAA101000025AU118010015AU200001015AW1105AW2545GA1085+002135999GD14991+0021359GE19MSL   +99999+99999GF199999999999002131999999MA1101495098465WA1900099REMMET11401/02/17 18:53:01 METAR KMSP 030053Z 04006KT 3SM -FZDZ BR OVC007 00/M02 A2997 RMK AO2 SLP158 P0000 I1000 T00001017
0271726580149222017010301027+44883-093229FM-16+0255KMSP V0200505N00265002135MN0040235N5+00005-00175999999ADDAA101000021AU118010015AU200001015AW1105AW2545GA1085+002135999GD14991+0021359GE19MSL   +99999+99999GF199999999999002131999999MA1101495098465WA1900099REMMET11101/02/17 19:02:01 SPECI KMSP 030102Z 05005KT 2 1/2SM -FZDZ BR OVC007 00/M02 A2997 RMK AO2 P0000 I1000 T00001017
0271726580149222017010301177+44883-093229FM-16+0255KMSP V0200405N00315002135MN0024145N5+00005-00175999999ADDAA101000021AU118010015AU200001015AW1105AW2545GA1085+002135999GD14991+0021359GE19MSL   +99999+99999GF199999999999002131999999MA1101465098435WA1900199REMMET11101/02/17 19:17:01 SPECI KMSP 030117Z 04006KT 1 1/2SM -FZDZ BR OVC007 00/M02 A2996 RMK AO2 P0000 I1001 T00001017
0299726580149222017010301517+44883-093229FM-16+0255KMSP V0200505N00265001225MN0028165N5+00005-00105999999ADDAA101000021AU118010015AU200001015AW1105AW2545GA1075+001225999GA2085+002745999GD13991+0012259GD24991+0027459GE19MSL   +99999+99999GF199999999999001221999999MA1101425098395WA1900199REMMET10801/02/17 19:51:01 SPECI KMSP 030151Z 05005KT 1 3/4SM -FZDZ BR BKN004 OVC009 00/M01 A2995 RMK AO2 P0000 I1002
0316726580149222017010301537+44883-093229FM-15+0255KMSP V0200505N00265001225MN0028165N5+00005-00115101535ADDAA101000025AU118010015AU200001015AW1105AW2545GA1075+001225999GA2085+002745999GD13991+0012259GD24991+0027459GE19MSL   +99999+99999GF199999999999001221999999MA1101425098395WA1900199REMMET12501/02/17 19:53:01 METAR KMSP 030153Z 05005KT 1 3/4SM -FZDZ BR BKN004 OVC009 00/M01 A2995 RMK AO2 SLP153 P0000 I1002 T00001011
0271726580149222017010302237+44883-093229FM-16+0255KMSP V0200705N00365001525MN0028165N5+00005-00175999999ADDAA101000231AU118010015AU200001015AW1105AW2545GA1085+001525999GD14991+0015259GE19MSL   +99999+99999GF199999999999001521999999MA1101395098365WA1900199REMMET11101/02/17 20:23:01 SPECI KMSP 030223Z 07007KT 1 3/4SM -FZDZ BR OVC005 00/M02 A2994 RMK AO2 P0001 I1002 T00001017
0267726580149222017010302387+44883-093229FM-16+0255KMSP V0200905N00415001525MN0032195N5+00005-00115999999ADDAA101000231AU118010015AU200001015AW1105AW2545GA1085+001525999GD14991+0015259GE19MSL   +99999+99999GF199999999999001521999999MA1101395098365WA1900199REMMET10701/02/17 20:38:01 SPECI KMSP 030238Z 09008KT 2SM -FZDZ BR OVC005 00/M01 A2994 RMK AO2 P0001 I1003 T00001011
0336726580149222017010302537+44883-093229FM-15+0255KMSP V0200805N00415001835MN0032195N5+00005-00175101455ADDAA101000395AA203000391AU118010015AU200001015AW1105AW2545GA1085+001835999GD14991+0018359GE19MSL   +99999+99999GF199999999999001831999999MA1101355098335MD1890129+9999WA1900299REMMET13201/02/17 20:53:02 METAR KMSP 030253Z 08008KT 2SM -FZDZ BR OVC006 00/M02 A2993 RMK AO2 SLP145 P0001 60001 I1003 I3005 T00001017 58012EQDQ01  00028PRCP03
0278726580149222017010303537+44883-093229FM-15+0255KMSP V0200605N00155001835MN0040235N5+00005-00115101475ADDAA101000025AU118010015AU200001015AW1105AW2545GA1085+001835999GD14991+0018359GE19MSL   +99999+99999GF199999999999001831999999MA1101355098335WA1900099REMMET11801/02/17 21:53:02 METAR KMSP 030353Z 06003KT 2 1/2SM -FZDZ BR OVC006 00/M01 A2993 RMK AO2 SLP147 P0000 I1000 T00001011
0267726580149222017010304447+44883-093229FM-16+0255KMSP V0200405N00155001835MN0048285N5+00005-00115999999ADDAA101000021AU118010015AU200001015AW1105AW2545GA1085+001835999GD14991+0018359GE19MSL   +99999+99999GF199999999999001831999999MA1101355098335WA1900199REMMET10701/02/17 22:44:02 SPECI KMSP 030444Z 04003KT 3SM -FZDZ BR OVC006 00/M01 A2993 RMK AO2 P0000 I1001 T00001011
0274726580149222017010304537+44883-093229FM-15+0255KMSP V0209999C00005001835MN0048285N5+00005-00115101465ADDAA101000395AU118010015AU200001015AW1105AW2545GA1085+001835999GD14991+0018359GE19MSL   +99999+99999GF199999999999001831999999MA1101355098335WA1900199REMMET11401/02/17 22:53:02 METAR KMSP 030453Z 00000KT 3SM -FZDZ BR OVC006 00/M01 A2993 RMK AO2 SLP146 P0000 I1001 T00001011
0271726580149222017010305297+44883-093229FM-16+0255KMSP V0209999C00005001835MN0040235N5+00005-00065999999ADDAA101000231AU118010015AU200001015AW1105AW2545GA1085+001835999GD14991+0018359GE19MSL   +99999+99999GF199999999999001831999999MA1101395098365WA1900099REMMET11101/02/17 23:29:02 SPECI KMSP 030529Z 00000KT 2 1/2SM -FZDZ BR OVC006 00/M01 A2994 RMK AO2 P0001 I1000 T00001006
0205726580149222017010305516+44883-093229FM-16+0255KMSP V0209999C00005001835MN0048285N5+00005-00105999999ADDAU118010015AU200001015AW1105AW2545GA1085+001835999GD14991+0018359MA1101355098335REMMET11301/02/17 23:51:03 SPECI KMSP 030551Z 00000KT 3SM -FZDZ BR OVC006 00/M01 A2993 RMK AO2 4/001 P0001 I1000 FIBI (AP)
0433726580149222017010305537+44883-093229FM-15+0255KMSP V0209999C00005001835MN0048285N5+00005-00115101445ADDAA101000025AA206000591AJ100039500025099AU118010015AU200001015AW1105AW2545GA1085+001835999GD14991+0018359GE19MSL   +99999+99999GF199999999999001831999999KA1060M+00061KA2060N+00001KA3240M+00061KA4240N-00221MA1101355098335MD1690039+9999WA1900299REMMET16001/02/17 23:53:02 METAR KMSP 030553Z 00000KT 3SM -FZDZ BR OVC006 00/M01 A2993 RMK AO2 SLP144 4/001 P0001 60002 I1000 I6006 T00001011 10006 20000 400061022 56003EQDQ01  00058PRCP06
1080726580149222017010305596+44883-093229SOD  +0255KMSP V020999999999999999999999999999+99999+99999999999ADDAA124000595AJ100039599999999AL12400035AN1024000035AT1AU14DZ  5AT2AU15FZDZ5AT3AU18SN  5AT4AU04PL  5AT5AU13BR  5AX1016246AX2046246AX3066246KA1240M+00065KA2240N-00215MG1098534101424OE11240098311099995OE22240080512099995OE33240040299999995REMSOD78224 HR PRECIPITATION (IN): 0.02 SNOW DEPTH (IN):1     24 HR SNOWFALL (IN):T    WEATHER(CODE):146  24 HR MAX TEMP (F): 3324 HR MIN TEMP (F): 28AVERAGE STATION PRESSURE:29.095 MINIMUM SEA LEVEL PRESSURE:29.95 TIME OF OCCURRENCE:2352 PEAK WIND SPEED (MPH): 22 PEAK WIND DIR (DEG):110 PEAK WIND TIME (LST):      FASTEST 2MIN SPEED (MPH): 18FASTEST 2MIN DIR (DEG):120 FASTEST 2MIN TIME (LST):     AVERAGE WIND SPEED (MPH): 9.0 24 HR AVG TEMP (F): 31DEPART FROM NORMAL: 15  SKY COVER SR-SS (TENTHS): 1HEATING DEGREE DAYS: 34 COOLING DEGREE DAYS:  0 LATEST DAY MAX TEMP (0700-1900 LST):32  LATEST NIGHT MIN TEMP(1900-0800 LST):28 HOURLY INCREMENTAL PRECIPITATION VALUES (IN):.00 T    T    0.00 0.00 0.00 0.00 0.00 0.00 0.00 0.00 T    T    T    T    T    T    T    T    T    0.01 T    0.01 TEQDR01   1467AXW093R02   1467AXW093R03   1467AXW093
0269726580149222017010306004+44883-093217FM-12+025599999V0209999C000019999999N004800199+00001-00111101441ADDAA106000531AJ100033100030099GA1999+001501999GE19MSL   +99999+99999GF108991999999001501999999KA1240M+00061KA2240N-00211MA1999999098211MD1610031+9999MW1101REMSYN10472658 11248 80000 10000 21011 39821 40144 56003 69951 710// 90553 333 10006 21021 4/003 96010 555 90306=
0276726580149222017010306197+44883-093229FM-16+0255KMSP V0209999C00005001835MN0040235N5+00005-00115999999ADDAA101000021AU118010015AU200001015AW1105AW2545GA1085+001835999GD14991+0018359GE19MSL   +99999+99999GF199999999999001831999999MA1101355098335WA1900099REMMET11601/03/17 00:19:02 SPECI KMSP 030619Z 00000KT 2 1/2SM -FZDZ BR OVC006 00/M01 A2993 RMK AO2 P0000 I1000 T00001011 (AP)
0272726580149222017010306267+44883-093229FM-16+0255KMSP V0209999C00005001835MN0048285N5+00005-00115999999ADDAA101000021AU118010015AU200001015AW1105AW2545GA1085+001835999GD14991+0018359GE19MSL   +99999+99999GF199999999999001831999999MA1101325098295WA1900099REMMET11201/03/17 00:26:02 SPECI KMSP 030626Z 00000KT 3SM -FZDZ BR OVC006 00/M01 A2992 RMK AO2 P0000 I1000 T00001011 (AP)
0276726580149222017010306357+44883-093229FM-16+0255KMSP V0209999C00005001835MN0040235N5+00005-00065999999ADDAA101000021AU118010015AU200001015AW1105AW2545GA1085+001835999GD14991+0018359GE19MSL   +99999+99999GF199999999999001831999999MA1101355098335WA1900099REMMET11601/03/17 00:35:02 SPECI KMSP 030635Z 00000KT 2 1/2SM -FZDZ BR OVC006 00/M01 A2993 RMK AO2 P0000 I1000 T00001006 (AP)
0283726580149222017010306537+44883-093229FM-15+0255KMSP V0209999C00005001835MN0040235N5+00005-00115101465ADDAA101000025AU118010015AU200001015AW1105AW2545GA1085+001835999GD14991+0018359GE19MSL   +99999+99999GF199999999999001831999999MA1101355098335WA1900099REMMET12301/03/17 00:53:02 METAR KMSP 030653Z 00000KT 2 1/2SM -FZDZ BR OVC006 00/M01 A2993 RMK AO2 SLP146 P0000 I1000 T00001011 (AP)
0264726580149222017010307537+44883-093229FM-15+0255KMSP V0202905N00215001525MN0048285N5+00005-00115101515ADDAA101000025AU100001015AW1105GA1085+001525999GD14991+0015259GE19MSL   +99999+99999GF199999999999001521999999MA1101425098395WA1900099REMMET12101/03/17 01:53:02 METAR KMSP 030753Z 29004KT 3SM BR OVC005 00/M01 A2995 RMK AO2 FZDZE53 SLP151 P0000 I1000 T00001011 (AP)
0221726580149222017010308027+44883-093229FM-16+0255KMSP V0203005N00155001525MN0040235N5+00005-00115999999ADDAU100001015AW1105GA1085+001525999GD14991+0015259GE19MSL   +99999+99999GF199999999999001521999999MA1101395098365REMMET09801/03/17 02:02:02 SPECI KMSP 030802Z 30003KT 2 1/2SM BR OVC005 00/M01 A2994 RMK AO2 T00001011 (AP)
0217726580149222017010308207+44883-093229FM-16+0255KMSP V0203005N00215001225MN0032195N5+00005-00115999999ADDAU100001015AW1105GA1085+001225999GD14991+0012259GE19MSL   +99999+99999GF199999999999001221999999MA1101395098365REMMET09401/03/17 02:20:02 SPECI KMSP 030820Z 30004KT 2SM BR OVC004 00/M01 A2994 RMK AO2 T00001011 (AP)
0221726580149222017010308437+44883-093229FM-16+0255KMSP V0203005N00155000915MN0028165N5+00005-00115999999ADDAU100001015AW1105GA1085+000915999GD14991+0009159GE19MSL   +99999+99999GF199999999999000911999999MA1101325098295REMMET09801/03/17 02:43:02 SPECI KMSP 030843Z 30003KT 1 3/4SM BR OVC003 00/M01 A2992 RMK AO2 T00001011 (AP)
0291726580149222017010308537+44883-093229FM-15+0255KMSP V0209999C00005000915MN0028165N5+00005-00065101435ADDAA101000095AA203000021AU100001015AW1105GA1085+000915999GD14991+0009159GE19MSL   +99999+99999GF199999999999000911999999MA1101325098295MD1890019+9999WA1900099REMMET12301/03/17 02:53:02 METAR KMSP 030853Z 00000KT 1 3/4SM BR OVC003 00/M01 A2992 RMK AO2 SLP143 60000 I3000 T00001006 58001 (AP)
0217726580149222017010309067+44883-093229FM-16+0255KMSP V0202805N00365000915MN0032195N5+00005-00115999999ADDAU100001015AW1105GA1085+000915999GD14991+0009159GE19MSL   +99999+99999GF199999999999000911999999MA1101355098335REMMET09401/03/17 03:06:02 SPECI KMSP 030906Z 28007KT 2SM BR OVC003 00/M01 A2993 RMK AO2 T00001011 (AP)
0217726580149222017010309227+44883-093229FM-16+0255KMSP V0202905N00215001225MN0048285N5+00005-00115999999ADDAU100001015AW1105GA1085+001225999GD14991+0012259GE19MSL   +99999+99999GF199999999999001221999999MA1101325098295REMMET09401/03/17 03:22:02 SPECI KMSP 030922Z 29004KT 3SM BR OVC004 00/M01 A2992 RMK AO2 T00001011 (AP)
0217726580149222017010309397+44883-093229FM-16+0255KMSP V0202905N00465002135MN0064375N5+00005-00175999999ADDAU100001015AW1105GA1085+002135999GD14991+0021359GE19MSL   +99999+99999GF199999999999002131999999MA1101325098295REMMET09401/03/17 03:39:02 SPECI KMSP 030939Z 29009KT 4SM BR OVC007 00/M02 A2992 RMK AO2 T00001017 (AP)
0235726580149222017010309537+44883-093229FM-15+0255KMSP V0202905N00515002135MN0080475N5+00005-00175101445ADDAA101000095AU100001015AW1105GA1085+002135999GD14991+0021359GE19MSL   +99999+99999GF199999999999002131999999MA1101355098335REMMET10101/03/17 03:53:02 METAR KMSP 030953Z 29010KT 5SM BR OVC007 00/M02 A2993 RMK AO2 SLP144 T00001017 (AP)
0216726580149222017010310537+44883-093229FM-15+0255KMSP V0202905N00575002745MN0112655N5-00065-00225101415ADDAA101000095GA1085+002745999GD14991+0027459GE19MSL   +99999+99999GF199999999999002741999999MA1101325098295REMMET09901/03/17 04:53:02 METAR KMSP 031053Z 29011KT 7SM OVC009 M01/M02 A2992 RMK AO2 SLP141 T10061022 (AP)
0198726580149222017010311097+44883-093229FM-16+0255KMSP V0202905N00515003355MN0128755N5-00065-00285999999ADDGA1085+003355999GD14991+0033559GE19MSL   +99999+99999GF199999999999003351999999MA1101355098335REMMET09201/03/17 05:09:02 SPECI KMSP 031109Z 29010KT 8SM OVC011 M01/M03 A2993 RMK AO2 T10061028 (AP)
0452726580149222017010311537+44883-093229FM-15+0255KMSP V0203005N00575004275MN0128755N5-00175-00445101505ADDAA101000095AA206000021AA324000591AJ100039500025099GA1075+004275999GA2075+005795999GA3085+007625999GD13991+0042759GD23991+0057959GD34991+0076259GE19MSL   +99999+99999GF199999999999004271999999KA1060M+00001KA2060N-00171MA1101395098365MD1390079+9999OC101085WA1900099REMMET15801/03/17 05:53:02 METAR KMSP 031153Z 30011G21KT 8SM BKN014 BKN019 OVC025 M02/M04 A2994 RMK AO2 SLP150 4/001 60000 70002 I6000 T10171044 10000 21017 53007 (AP)EQDQ01  00058PRCP24
0288726580149222017010312004+44883-093217FM-12+025599999V0203001N005719999999N012000199-00171-00441101501ADDAA106000021AA224000531AJ100033100030099GA1999+004501999GE19MSL   +99999+99999GF108991999999004501999999KA1240M+00061KA2240N-00171MA1999999098241MD1310071+9999OD149901081999REMSYN10472658 12462 83011 11017 21044 39824 40150 53007 69901 91153 333 10006 21017 4/003 70005 91021 555 90312=
0247726580149222017010312197+44883-093229FM-16+0255KMSP V0203005N00675007625MN0144845N5-00225-00565999999ADDGA1025+003965999GA2085+007625999GD11991+0039659GD24991+0076259GE19MSL   +99999+99999GF199999999999003961999999MA1101425098395OC101035REMMET10201/03/17 06:19:02 SPECI KMSP 031219Z 30013G20KT 9SM FEW013 OVC025 M02/M06 A2995 RMK AO2 T10221056 (AP)
0255726580149222017010312537+44883-093229FM-15+0255KMSP V0203105N00885007015MN0160935N5-00335-00615101625ADDAA101000095GA1045+004575999GA2085+007015999GD12991+0045759GD24991+0070159GE19MSL   +99999+99999GF199999999999004571999999MA1101525098495REMMET10701/03/17 06:53:02 METAR KMSP 031253Z 31017KT 10SM SCT015 OVC023 M03/M06 A2998 RMK AO2 SLP162 T10331061 (AP)
0238726580149222017010313017+44883-093229FM-16+0255KMSP V0203005N00985003965MN0160935N5-00395-00675999999ADDGA1075+003965999GA2085+007015999GD13991+0039659GD24991+0070159GE19MSL   +99999+99999GF199999999999003961999999MA1101525098495REMMET10101/03/17 07:01:02 SPECI KMSP 031301Z 30019KT 10SM BKN013 OVC023 M04/M07 A2998 RMK AO2 T10391067 (CLB)
0247726580149222017010313537+44883-093229FM-15+0255KMSP V0203005N00725003355MN0160935N5-00675-00895101705ADDAA101000095GA1085+003355999GD14991+0033559GE19MSL   +99999+99999GF199999999999003351999999MA1101595098565OC101245REMMET12201/03/17 07:53:02 METAR KMSP 031353Z 30014G24KT 10SM OVC011 M07/M09 A3000 RMK AO2 PK WND 30026/1343 SLP170 T10671089 (CLB)
0267726580149222017010314537+44883-093229FM-15+0255KMSP V0203005N00985003965MN0160935N5-00835-01175101745ADDAA101000095GA1085+003965999GD14991+0039659GE19MSL   +99999+99999GF199999999999003961999999MA1101635098595MD1190219+9999OC101345REMMET12801/03/17 08:53:02 METAR KMSP 031453Z 30019G26KT 10SM OVC013 M08/M12 A3001 RMK AO2 PK WND 28026/1450 SLP174 T10831117 51021 (CLB)
0287726580149222017010315207+44883-093229FM-16+0255KMSP V0202905N00935076205MN0160935N5-00945-01285999999ADDGA1045+004575999GA2045+054865999GA3075+076205999GD12991+0045759GD22991+0548659GD33991+0762059GE19MSL   +99999+99999GF199999999999004571999999MA1101665098625OC101295REMMET11101/03/17 09:20:02 SPECI KMSP 031520Z 29018G25KT 10SM SCT015 SCT180 BKN250 M09/M13 A3002 RMK AO2 T10941128 (CLB)
0356726580149222017010315537+44883-093229FM-15+0255KMSP V0203105N011852200059N0160935N5-01005-01395101915ADDAA101000095GA1045+005185999GA2045+054865999GA3045+076205999GD12991+0051859GD22991+0548659GD32991+0762059GE19AGL   +99999+99999GF104995999999005181999999MA1101795098765OC101445OD149901441320REMMET13601/03/17 09:53:02 METAR KMSP 031553Z 31023G28KT 10SM SCT017 SCT180 SCT250 M10/M14 A3006 RMK AO2 PK WND 32028/1553 SLP191 T11001139 (CLB)EQDD01      0ADE726
0318726580149222017010316537+44883-093229FM-15+0255KMSP V0203105N009852200059N0160935N5-01065-01505101975ADDAA101000095GA1025+005495999GA2045+076205999GD11991+0054959GD22991+0762059GE19AGL   +99999+99999GF104995999999005491999999MA1101835098795OC101345OD149901391310REMMET12901/03/17 10:53:02 METAR KMSP 031653Z 31019G26KT 10SM FEW018 SCT250 M11/M15 A3007 RMK AO2 PK WND 31027/1554 SLP197 T11061150 (CLB)EQDD01      0ADE726
0418726580149222017010317537+44883-093229FM-15+0255KMSP V0203105N00935076205MN0160935N5-01065-01445101955ADDAA101000095AJ100039500025099GA1025+005795999GA2025+051825999GA3075+076205999GD11991+0057959GD21991+0518259GD33991+0762059GE19MSL   +99999+99999GF199999999999005791999999KA1060M-00171KA2060N-01111MA1101835098795MD1090209+9999OC101245OD149901391300REMMET16001/03/17 11:53:02 METAR KMSP 031753Z 31018G24KT 10SM FEW019 FEW170 BKN250 M11/M14 A3007 RMK AO2 PK WND 30027/1724 SLP195 4/001 T11061144 11017 21111 50020 (CLB)
0254726580149222017010318004+44883-093217FM-12+025599999V0203101N009319999999N016000199-01061-01441101951ADDAJ100033100030099GA1999+004501999GE19MSL   +99999+99999GF106991999999004501999999KA1120M+00001KA2120N-01111MA1999999098671MD1990201+9999OD149901241999REMSYN09272658 32466 63118 11106 21144 39867 40195 50020 91753 333 10000 21111 4/003 91024 555 90318=
0356726580149222017010318537+44883-093229FM-15+0255KMSP V0203105N010352200059N0160935N5-01115-01565101895ADDAA101000095GA1025+006105999GA2025+051825999GA3045+076205999GD11991+0061059GD21991+0518259GD32991+0762059GE19AGL   +99999+99999GF104995999999006101999999MA1101765098725OC101345OD149901331310REMMET13601/03/17 12:53:02 METAR KMSP 031853Z 31020G26KT 10SM FEW020 FEW170 SCT250 M11/M16 A3005 RMK AO2 PK WND 31026/1853 SLP189 T11111156 (CLB)EQDD01      0ADE726
0294726580149222017010319537+44883-093229FM-15+0255KMSP V0203105N00775076205MN0160935N5-01175-01675101905ADDAA101000095GA1025+007015999GA2045+051825999GA3075+076205999GD11991+0070159GD22991+0518259GD33991+0762059GE19MSL   +99999+99999GF199999999999007011999999MA1101765098725REMMET11501/03/17 13:53:02 METAR KMSP 031953Z 31015KT 10SM FEW023 SCT170 BKN250 M12/M17 A3005 RMK AO2 SLP190 T11171167 (CLB)
0376726580149222017010320537+44883-093229FM-15+0255KMSP V0203005N010852200059N0160935N5-01175-01725101955ADDAA101000095GA1025+007325999GA2025+054865999GA3045+076205999GD11991+0073259GD21991+0548659GD32991+0762059GE19AGL   +99999+99999GF104995999999007321999999MA1101795098765MD1590019+9999OC101295OD149901331300REMMET14201/03/17 14:53:02 METAR KMSP 032053Z 30021G25KT 10SM FEW024 FEW180 SCT250 M12/M17 A3006 RMK AO2 PK WND 30026/2013 SLP195 T11171172 55001 (CLB)EQDD01      0ADE726
0318726580149222017010321537+44883-093229FM-15+0255KMSP V0202905N007252200059N0160935N5-01175-01725101995ADDAA101000095GA1025+007325999GA2025+076205999GD11991+0073259GD21991+0762059GE19MSL   +99999+99999GF102995999999007321999999MA1101865098825OC101245OD149901441300REMMET12901/03/17 15:53:02 METAR KMSP 032153Z 29014G24KT 10SM FEW024 FEW250 M12/M17 A3008 RMK AO2 PK WND 30028/2115 SLP199 T11171172 (JDB)EQDD01      0ADE726
0318726580149222017010322537+44883-093229FM-15+0255KMSP V0202905N009352200059N0160935N5-01335-01835102095ADDAA101000095GA1025+007325999GA2025+076205999GD11991+0073259GD21991+0762059GE19MSL   +99999+99999GF102995999999007321999999MA1101935098895OC101245OD149901391280REMMET12901/03/17 16:53:02 METAR KMSP 032253Z 29018G24KT 10SM FEW024 FEW250 M13/M18 A3010 RMK AO2 PK WND 28027/2236 SLP209 T11331183 (JDB)EQDD01      0ADE726
0347726580149222017010323537+44883-093229FM-15+0255KMSP V0202905N010852200059N0160935N5-01395-01895102115ADDAA101000095AJ100039500025099GA1025+008535999GD11991+0085359GE19MSL   +99999+99999GF102995999999008531999999KA1060M-01061KA2060N-01391MA1101965098925MD1190159+9999OC101295REMMET14601/03/17 17:53:02 METAR KMSP 032353Z 29021G25KT 10SM FEW028 M14/M19 A3011 RMK AO2 PK WND 31026/2327 SLP211 4/001 T11391189 11106 21139 51015 (JDB)EQDD01      0ADE726
0254726580149222017010400004+44883-093217FM-12+025599999V0202901N010819999999N016000199-01391-01891102111ADDAJ100033100030099GA1999+008001999GE19MSL   +99999+99999GF102991999999008001999999KA1120M-00171KA2120N-01391MA1999999098801MD1110151+9999OD149901291999REMSYN09272658 32566 22921 11139 21189 39880 40211 51015 92353 333 11017 21139 4/003 91025 555 90400=
0242726580149222017010400537+44883-093229FM-15+0255KMSP V0202905N007752200059N0160935N5-01445-01895102165ADDAA101000095GA1025+006105999GD11991+0061059GE19AGL   +99999+99999GF102995999999006101999999MA1102005098955OC101085REMMET09801/03/17 18:53:01 METAR KMSP 040053Z 29015G21KT 10SM FEW020 M14/M19 A3012 RMK AO2 SLP216 T11441189EQDD01      0ADE726
0242726580149222017010401537+44883-093229FM-15+0255KMSP V0202905N007752200059N0160935N5-01505-01945102195ADDAA101000095GA1045+005185999GD12991+0051859GE19AGL   +99999+99999GF104995999999005181999999MA1102005098955OC101085REMMET09801/03/17 19:53:01 METAR KMSP 040153Z 29015G21KT 10SM SCT017 M15/M19 A3012 RMK AO2 SLP219 T11501194EQDD01      0ADE726
0283726580149222017010402537+44883-093229FM-15+0255KMSP V0203005N008252200059N0160935N5-01565-02005102195ADDAA101000095GA1025+005495999GD11991+0054959GE19AGL   +99999+99999GF102995999999005491999999MA1102005098955MD1190059+9999OD149901331310REMMET11901/03/17 20:53:01 METAR KMSP 040253Z 30016KT 10SM FEW018 M16/M20 A3012 RMK AO2 PK WND 31026/0235 SLP219 T11561200 51005EQDD01      0ADE726
0242726580149222017010403537+44883-093229FM-15+0255KMSP V0202905N006752200059N0160935N5-01615-02005102225ADDAA101000095GA1025+005495999GD11991+0054959GE19AGL   +99999+99999GF102995999999005491999999MA1102035098995OC101245REMMET09801/03/17 21:53:02 METAR KMSP 040353Z 29013G24KT 10SM FEW018 M16/M20 A3013 RMK AO2 SLP222 T11611200EQDD01      0ADE726
0231726580149222017010404537+44883-093229FM-15+0255KMSP V0203005N006752200059N0160935N5-01615-02065102235ADDAA101000095GA1025+005495999GD11991+0054959GE19AGL   +99999+99999GF102995999999005491999999MA1102035098995REMMET09501/03/17 22:53:02 METAR KMSP 040453Z 30013KT 10SM FEW018 M16/M21 A3013 RMK AO2 SLP223 T11611206EQDD01      0ADE726
0359726580149222017010405537+44883-093229FM-15+0255KMSP V0203005N008252200059N0160935N5-01675-02115102265ADDAA101000095AJ100039500025099GA1025+005495999GD11991+0054959GE19AGL   +99999+99999GF102995999999005491999999KA1060M-01391KA2060N-01671KA3240M+00001KA4240N-01671MA1102075099025MD1390049+9999OC101135REMMET13201/03/17 23:53:02 METAR KMSP 040553Z 30016G22KT 10SM FEW018 M17/M21 A3014 RMK AO2 SLP226 4/001 T11671211 11139 21167 400001167 53004EQDD01      0ADE726
0994726580149222017010405596+44883-093229SOD  +0255KMSP V020999999999999999999999999999+99999+99999999999ADDAA124000025AJ100039599999999AL12400035AN1024000035AT1AU15FZDZ5AT2AU13BR  5AX1016246AX2066246KA1240M+00005KA2240N-01665MG1098754101394OE11240143130099995OE22240116231099995OE33240074799999995REMSOD75724 HR PRECIPITATION (IN):    T SNOW DEPTH (IN):1     24 HR SNOWFALL (IN):T    WEATHER(CODE):16  24 HR MAX TEMP (F): 3224 HR MIN TEMP (F):  2AVERAGE STATION PRESSURE:29.160 MINIMUM SEA LEVEL PRESSURE:29.94 TIME OF OCCURRENCE:0451 PEAK WIND SPEED (MPH): 32 PEAK WIND DIR (DEG):300 PEAK WIND TIME (LST):      FASTEST 2MIN SPEED (MPH): 26FASTEST 2MIN DIR (DEG):310 FASTEST 2MIN TIME (LST):     AVERAGE WIND SPEED (MPH):16.7 24 HR AVG TEMP (F): 17DEPART FROM NORMAL:  1  HEATING DEGREE DAYS: 48 COOLING DEGREE DAYS:  0 LATEST DAY MAX TEMP (0700-1900 LST):25  LATEST NIGHT MIN TEMP(1900-0800 LST):20 HOURLY INCREMENTAL PRECIPITATION VALUES (IN):    T    0.00 0.00 0.00 0.00 0.00 0.00 0.00 0.00 0.00 0.00 0.00 0.00 0.00 0.00 0.00 0.00 0.00 0.00 0.00 0.00 0.00 0.00EQDR01    167AXW093R02    167AXW093
0254726580149222017010406004+44883-093217FM-12+025599999V0203001N008219999999N016000199-01671-02111102261ADDAJ100033100030099GA1999+004501999GE19MSL   +99999+99999GF102991999999004501999999KA1240M+00001KA2240N-01671MA1999999098901MD1310041+9999OD149901131999REMSYN09272658 32466 23016 11167 21211 39890 40226 53004 90553 333 10000 21167 4/003 91022 555 90406=
0247726580149222017010406537+44883-093229FM-15+0255KMSP V0202905N007752200059N0160935N5-01725-02175102285ADDAA101000095GA1025+005495999GD11991+0054959GE19AGL   +99999+99999GF102995999999005491999999MA1102075099025OC101135REMMET10301/04/17 00:53:02 METAR KMSP 040653Z 29015G22KT 10SM FEW018 M17/M22 A3014 RMK AO2 SLP228 T11721217 (PL)EQDD01      0ADE726
0247726580149222017010407537+44883-093229FM-15+0255KMSP V0203005N007752200059N0160935N5-01785-02225102335ADDAA101000095GA1025+005495999GD11991+0054959GE19AGL   +99999+99999GF102995999999005491999999MA1102135099095OC101085REMMET10301/04/17 01:53:02 METAR KMSP 040753Z 30015G21KT 10SM FEW018 M18/M22 A3016 RMK AO2 SLP233 T11781222 (PL)EQDD01      0ADE726
0256726580149222017010408537+44883-093229FM-15+0255KMSP V0203005N007252200059N0160935N5-01835-02285102375ADDAA101000095GA1025+005495999GD11991+0054959GE19AGL   +99999+99999GF102995999999005491999999MA1102175099125MD1390109+9999REMMET10601/04/17 02:53:02 METAR KMSP 040853Z 30014KT 10SM FEW018 M18/M23 A3017 RMK AO2 SLP237 T11831228 53010 (PL)EQDD01      0ADE726
0203726580149222017010409537+44883-093229FM-15+0255KMSP V0202905N006252200059N0160935N5-01895-02335102385ADDAA101000095GA1005+999999999GD10991+9999999GF100991999999999999999999MA1102175099125OC101035REMMET10001/04/17 03:53:02 METAR KMSP 040953Z 29012G20KT 10SM CLR M19/M23 A3017 RMK AO2 SLP238 T11891233 (PL)
0247726580149222017010410537+44883-093229FM-15+0255KMSP V0203005N007752200059N0160935N5-01945-02395102395ADDAA101000095GA1025+005495999GD11991+0054959GE19AGL   +99999+99999GF102995999999005491999999MA1102175099125OC101135REMMET10301/04/17 04:53:02 METAR KMSP 041053Z 30015G22KT 10SM FEW018 M19/M24 A3017 RMK AO2 SLP239 T11941239 (PL)EQDD01      0ADE726
0317726580149222017010411537+44883-093229FM-15+0255KMSP V0202905N007252200059N0160935N5-02005-02395102415ADDAA101000095AJ100039500025099GA1025+005495999GD11991+0054959GE19AGL   +99999+99999GF102995999999005491999999KA1060M-01671KA2060N-02001MA1102175099125MD1290029+9999REMMET12401/04/17 05:53:02 METAR KMSP 041153Z 29014KT 10SM FEW018 M20/M24 A3017 RMK AO2 SLP241 4/001 T12001239 11167 21200 52002 (PL)EQDD01      0ADE726
0234726580149222017010412004+44883-093217FM-12+025599999V0202901N007219999999N016000199-02001-02391102411ADDAJ100033100030099GA1999+004501999GE19MSL   +99999+99999GF102991999999004501999999KA1240M+00001KA2240N-02001MA1999999099001MD1210021+9999REMSYN08672658 32466 22914 11200 21239 39900 40241 52002 91153 333 10000 21200 4/003 555 90412=
0247726580149222017010412537+44883-093229FM-15+0255KMSP V0202905N007252200059N0160935N5-02065-02445102425ADDAA101000095GA1025+005495999GD11991+0054959GE19AGL   +99999+99999GF102995999999005491999999MA1102205099155OC100985REMMET10301/04/17 06:53:02 METAR KMSP 041253Z 29014G19KT 10SM FEW018 M21/M24 A3018 RMK AO2 SLP242 T12061244 (PL)EQDD01      0ADE726
0236726580149222017010413537+44883-093229FM-15+0255KMSP V0203005N007252200059N0144845N5-02115-02505102435ADDAA101000095GA1045+005185999GD12991+0051859GE19AGL   +99999+99999GF104995999999005181999999MA1102205099155REMMET10001/04/17 07:53:02 METAR KMSP 041353Z 30014KT 9SM SCT017 M21/M25 A3018 RMK AO2 SLP243 T12111250 (CLB)EQDD01      0ADE726
0287726580149222017010414117+44883-093229FM-16+0255KMSP V0203005N007252200059N0112655N5-02065-02445999999ADDAA101000021AU110030015AW1715GA1045+005185999GD12991+0051859GE19AGL   +99999+99999GF104995999999005181999999MA1102205099155OC101035REMMET12601/04/17 08:11:02 SPECI KMSP 041411Z 30014G20KT 7SM -SN SCT017 M21/M24 A3018 RMK AO2 SNB11 PRESENT WX IC P0000 T12061244 (CLB)EQDD01      0ADE726
0304726580149222017010414537+44883-093229FM-15+0255KMSP V0203005N007752200059N0128755N5-02115-02505102495ADDAA101000025AA203000021GA1045+005185999GD12991+0051859GE19AGL   +99999+99999GF104995999999005181999999MA1102245099195MD1390069+9999REMMET12701/04/17 08:53:02 METAR KMSP 041453Z 30015KT 8SM SCT017 M21/M25 A3019 RMK AO2 SNB11E48 SLP249 P0000 60000 T12111250 53006 (CLB)EQDQ01  00008PRCP03D01      0ADE726
0237726580149222017010415537+44883-093229FM-15+0255KMSP V0203005N007752200059N0160935N5-02005-02505102505ADDAA101000095GA1025+005185999GD11991+0051859GE19AGL   +99999+99999GF102995999999005181999999MA1102275099225REMMET10101/04/17 09:53:02 METAR KMSP 041553Z 30015KT 10SM FEW017 M20/M25 A3020 RMK AO2 SLP250 T12001250 (CLB)EQDD01      0ADE726
0193726580149222017010416537+44883-093229FM-15+0255KMSP V0203005N006752200059N0160935N5-01895-02395102475ADDAA101000095GA1005+999999999GD10991+9999999GF100991999999999999999999MA1102245099195REMMET09801/04/17 10:53:02 METAR KMSP 041653Z 30013KT 10SM CLR M19/M24 A3019 RMK AO2 SLP247 T11891239 (CLB)
0302726580149222017010417537+44883-093229FM-15+0255KMSP V0203205N006752200059N0160935N5-01785-02395102395ADDAA101000095AA206000021AJ100039500025099GA1005+999999999GD10991+9999999GF100991999999999999999999KA1060M-01781KA2060N-02111MA1102175099125MD1890089+9999OC101085REMMET13101/04/17 11:53:02 METAR KMSP 041753Z 32013G21KT 10SM CLR M18/M24 A3017 RMK AO2 SLP239 4/001 60000 T11781239 11178 21211 58008 (CLB)
0207726580149222017010418004+44883-093217FM-12+025599999V0203201N006719999999N016000199-01781-02391102391ADDAA106000021AJ100033100030099KA1120M-01671KA2120N-02111MA1999999099001MD1810081+9999OD149901081999REMSYN09872658 12966 03213 11178 21239 39900 40239 58008 69901 91753 333 11167 21211 4/003 91021 555 90418=
0204726580149222017010418537+44883-093229FM-15+0255KMSP V0203005N005752200059N0160935N5-01675-02285102325ADDAA101000095GA1005+999999999GD10991+9999999GF100991999999999999999999MA1102105099055OC101085REMMET10101/04/17 12:53:02 METAR KMSP 041853Z 30011G21KT 10SM CLR M17/M23 A3015 RMK AO2 SLP232 T11671228 (CLB)
0204726580149222017010419537+44883-093229FM-15+0255KMSP V0202905N007752200059N0160935N5-01615-02225102295ADDAA101000095GA1005+999999999GD10991+9999999GF100991999999999999999999MA1102075099025OC101035REMMET10101/04/17 13:53:02 METAR KMSP 041953Z 29015G20KT 10SM CLR M16/M22 A3014 RMK AO2 SLP229 T11611222 (CLB)
0224726580149222017010420537+44883-093229FM-15+0255KMSP V0203205N008852200059N0160935N5-01565-02225102245ADDAA101000095GA1005+999999999GD10991+9999999GF100991999999999999999999MA1102005098955MD1690149+9999OC101085REMMET10701/04/17 14:53:02 METAR KMSP 042053Z 32017G21KT 10SM CLR M16/M22 A3012 RMK AO2 SLP224 T11561222 56014 (CLB)
0286726580149222017010421537+44883-093229FM-15+0255KMSP V0202805N007752200059N0160935N5-01615-02225102275ADDAA101000095GA1025+006105999GA2025+076205999GD11991+0061059GD21991+0762059GE19AGL   +99999+99999GF102995999999006101999999MA1102035098995OC100935REMMET11101/04/17 15:53:02 METAR KMSP 042153Z 28015G18KT 10SM FEW020 FEW250 M16/M22 A3013 RMK AO2 SLP227 T11611222 (JDB)EQDD01      0ADE726
0275726580149222017010422537+44883-093229FM-15+0255KMSP V0202905N004652200059N0160935N5-01675-02225102265ADDAA101000095GA1025+045725999GA2025+076205999GD11991+0457259GD21991+0762059GE19AGL   +99999+99999GF102995999999045721999999MA1102035098995REMMET10801/04/17 16:53:02 METAR KMSP 042253Z 29009KT 10SM FEW150 FEW250 M17/M22 A3013 RMK AO2 SLP226 T11671222 (JDB)EQDD01      0ADE726
0292726580149222017010423537+44883-093229FM-15+0255KMSP V0202905N003652200059N0160935N5-01675-02225102195ADDAA101000095AJ100039599999999GA1025+045725999GD11991+0457259GE19AGL   +99999+99999GF102995999999045721999999MA1101965098925MD1890069+9999REMMET12501/04/17 17:53:02 METAR KMSP 042353Z 29007KT 10SM FEW150 M17/M22 A3011 RMK AO2 SLP219 4/001 T11671222 11156 21178 58006 (JDB)EQDD01      0ADE726
0218726580149222017010500004+44883-093217FM-12+025599999V0202901N003619999999N016000199-01671-02221102191ADDAJ100033100030099GE19MSL   +99999+99999GF102991999999999999999999KA1120M-01561KA2120N-02001MA1999999098801MD1810061+9999REMSYN08672658 32966 22907 11167 21222 39880 40219 58006 92353 333 11156 21200 4/003 555 90500=
0231726580149222017010500537+44883-093229FM-15+0255KMSP V0202905N005752200059N0160935N5-01725-02225102215ADDAA101000095GA1025+030485999GD11991+0304859GE19AGL   +99999+99999GF102995999999030481999999MA1101965098925REMMET09501/04/17 18:53:01 METAR KMSP 050053Z 29011KT 10SM FEW100 M17/M22 A3011 RMK AO2 SLP221 T11721222EQDD01      0ADE726
0187726580149222017010501537+44883-093229FM-15+0255KMSP V0202905N004652200059N0160935N5-01785-02225102235ADDAA101000095GA1005+999999999GD10991+9999999GF100991999999999999999999MA1101965098925REMMET09201/04/17 19:53:01 METAR KMSP 050153Z 29009KT 10SM CLR M18/M22 A3011 RMK AO2 SLP223 T11781222
0289726580149222017010502537+44883-093229FM-15+0255KMSP V0203005N005752200059N0160935N5-01835-02225102225ADDAA101000095GA1025+006105999GA2025+030485999GD11991+0061059GD21991+0304859GE19AGL   +99999+99999GF102995999999006101999999MA1101965098925MD1090039+9999REMMET10801/04/17 20:53:02 METAR KMSP 050253Z 30011KT 10SM FEW020 FEW100 M18/M22 A3011 RMK AO2 SLP222 T11831222 50003EQDD01      0ADE726
0212726580149222017010503537+44883-093229FM-15+0255KMSP V0202905N00365013115MN0160935N5-01785-02175102215ADDAA101000095GA1075+013115999GD13991+0131159GE19MSL   +99999+99999GF199999999999013111999999MA1101965098925REMMET09501/04/17 21:53:02 METAR KMSP 050353Z 29007KT 10SM BKN043 M18/M22 A3011 RMK AO2 SLP221 T11781217
0237726580149222017010504537+44883-093229FM-15+0255KMSP V0202905N00415012805MN0096565N5-01785-02175102215ADDAA101000095AU100007015AW1051GA1085+012805999GD14991+0128059GE19MSL   +99999+99999GF199999999999012801999999MA1101965098925MW1055REMMET09701/04/17 22:53:02 METAR KMSP 050453Z 29008KT 6SM HZ OVC042 M18/M22 A3011 RMK AO2 SLP221 T11781217
0328726580149222017010505537+44883-093229FM-15+0255KMSP V0203005N00515014025MN0128755N5-01785-02175102155ADDAA101000095AJ100039500025099GA1085+014025999GD14991+0140259GE19MSL   +99999+99999GF199999999999014021999999KA1060M-01671KA2060N-01831KA3240M-01561KA4240N-02111MA1101935098895MD1890059+9999REMMET12801/04/17 23:53:02 METAR KMSP 050553Z 30010KT 8SM OVC046 M18/M22 A3010 RMK AO2 SLP215 4/001 T11781217 11167 21183 411561211 58005
0949726580149222017010505596+44883-093229SOD  +0255KMSP V020999999999999999999999999999+99999+99999999999ADDAA124000025AJ100039599999999AL12400035AN1024000035AT1AU18SN  5AT2AU08HZ  5AX1085245KA1240M-01555KA2240N-02105MG1098984102134OE11240120733099995OE22240098332099995OE33240063999999995REMSOD75624 HR PRECIPITATION (IN):    T SNOW DEPTH (IN):1     24 HR SNOWFALL (IN):T    WEATHER(CODE):8  24 HR MAX TEMP (F):  424 HR MIN TEMP (F): -6AVERAGE STATION PRESSURE:29.230 MINIMUM SEA LEVEL PRESSURE:30.16 TIME OF OCCURRENCE:2359 PEAK WIND SPEED (MPH): 27 PEAK WIND DIR (DEG):330 PEAK WIND TIME (LST):      FASTEST 2MIN SPEED (MPH): 22FASTEST 2MIN DIR (DEG):320 FASTEST 2MIN TIME (LST):     AVERAGE WIND SPEED (MPH):14.3 24 HR AVG TEMP (F): -1DEPART FROM NORMAL:-17  HEATING DEGREE DAYS: 66 COOLING DEGREE DAYS:  0 LATEST DAY MAX TEMP (0700-1900 LST):4   LATEST NIGHT MIN TEMP(1900-0800 LST):-6 HOURLY INCREMENTAL PRECIPITATION VALUES (IN):.00 0.00 0.00 0.00 0.00 0.00 0.00 0.00 T    0.00 0.00 0.00 0.00 0.00 0.00 0.00 0.00 0.00 0.00 0.00 0.00 0.00 0.00 0.00
0234726580149222017010506004+44883-093217FM-12+025599999V0203001N005119999999N012000199-01781-02171102151ADDAJ100033100030099GA1999+012501999GE19MSL   +99999+99999GF108991999999012501999999KA1240M-01671KA2240N-02001MA1999999098771MD1810051+9999REMSYN08672658 32662 83010 11178 21217 39877 40215 58005 90553 333 11167 21200 4/003 555 90506=
0254726580149222017010506537+44883-093229FM-15+0255KMSP V0203005N00515013725MN0112655N5-01785-02175102095ADDAA101000095GA1025+011895999GA2085+013725999GD11991+0118959GD24991+0137259GE19MSL   +99999+99999GF199999999999011891999999MA1101865098825REMMET10601/05/17 00:53:02 METAR KMSP 050653Z 30010KT 7SM FEW039 OVC045 M18/M22 A3008 RMK AO2 SLP209 T11781217 (PL)
0295726580149222017010507537+44883-093229FM-15+0255KMSP V0203005N00465015245MN0080475N5-01835-02225102085ADDAA101000025AU100007015AW1051GA1045+006105999GA2085+015245999GD12991+0061059GD24991+0152459GE19MSL   +99999+99999GF199999999999006101999999MA1101865098825MW1055REMMET12401/05/17 01:53:02 METAR KMSP 050753Z 30009KT 5SM HZ SCT020 OVC050 M18/M22 A3008 RMK AO2 SNB08E49 SLP208 P0000 T11831222 (PL)
0330726580149222017010508537+44883-093229FM-15+0255KMSP V0202905N00365009755MN0160935N5-01895-02285102105ADDAA101000095AA203000021GA1025+006105999GA2075+009755999GA3085+015245999GD11991+0061059GD23991+0097559GD34991+0152459GE19MSL   +99999+99999GF199999999999006101999999MA1101865098825MD1590049+9999REMMET12601/05/17 02:53:02 METAR KMSP 050853Z 29007KT 10SM FEW020 BKN032 OVC050 M19/M23 A3008 RMK AO2 SLP210 60000 T11891228 55004 (PL)
0254726580149222017010509537+44883-093229FM-15+0255KMSP V0203105N00465015245MN0144845N5-01945-02285102105ADDAA101000095GA1045+006715999GA2075+015245999GD12991+0067159GD23991+0152459GE19MSL   +99999+99999GF199999999999006711999999MA1101865098825REMMET10601/05/17 03:53:02 METAR KMSP 050953Z 31009KT 9SM SCT022 BKN050 M19/M23 A3008 RMK AO2 SLP210 T11941228 (PL)
0236726580149222017010510017+44883-093229FM-16+0255KMSP V0203205N00575006715MN0128755N5-01945-02335999999ADDGA1075+006715999GA2075+015245999GD13991+0067159GD23991+0152459GE19MSL   +99999+99999GF199999999999006711999999MA1101865098825REMMET09901/05/17 04:01:02 SPECI KMSP 051001Z 32011KT 8SM BKN022 BKN050 M19/M23 A3008 RMK AO2 T11941233 (PL)
0280726580149222017010510537+44883-093229FM-15+0255KMSP V0203005N00465004275MN0080475N5-02005-02335102115ADDAA101000095AU100007015AW1051GA1075+004275999GA2085+006105999GD13991+0042759GD24991+0061059GE19MSL   +99999+99999GF199999999999004271999999MA1101865098825MW1055REMMET10901/05/17 04:53:02 METAR KMSP 051053Z 30009KT 5SM HZ BKN014 OVC020 M20/M23 A3008 RMK AO2 SLP211 T12001233 (PL)
0224726580149222017010511047+44883-093229FM-16+0255KMSP V0203105N00365005185MN0080475N5-02005-02395999999ADDAU100007015AW1051GA1085+005185999GD14991+0051859GE19MSL   +99999+99999GF199999999999005181999999MA1101865098825MW1055REMMET09501/05/17 05:04:02 SPECI KMSP 051104Z 31007KT 5SM HZ OVC017 M20/M24 A3008 RMK AO2 T12001239 (PL)
0152726580149222017010511516+44883-093229FM-16+0255KMSP V0203105N00365003965MN0160935N5-02105-02405999999ADDGA1075+003965999GD13991+0039659MA1101865098825REMMET09401/05/17 05:51:02 SPECI KMSP 051151Z 31007KT 10SM BKN013 M21/M24 A3008 RMK AO2 4/001 FIBI (PL)
0334726580149222017010511537+44883-093229FM-15+0255KMSP V0203105N003652200059N0160935N5-02065-02395102105ADDAA101000095AA206000021AJ100039500025099GA1045+003965999GD12991+0039659GE19AGL   +99999+99999GF104995999999003961999999KA1060M-01781KA2060N-02061MA1101865098825MD1890019+9999REMMET13001/05/17 05:53:02 METAR KMSP 051153Z 31007KT 10SM SCT013 M21/M24 A3008 RMK AO2 SLP210 4/001 60000 T12061239 11178 21206 58001 (PL)EQDD01      0ADE726
0270726580149222017010512004+44883-093217FM-12+025599999V0203101N003619999999N016000199-02061-02391102101ADDAA106000091AJ100033100030099GA1999+004501999GE19MSL   +99999+99999GF104991999999004501999999KA1240M-01561KA2240N-02061MA1999999098701MD1810011+9999REMSYN09272658 12466 43107 11206 21239 39870 40210 58001 69901 91153 333 11156 21206 4/003 555 90512=EQDQ01  00002PRCP06
0236726580149222017010512537+44883-093229FM-15+0255KMSP V0203305N004652200059N0160935N5-02115-02445102135ADDAA101000095GA1025+003355999GD11991+0033559GE19AGL   +99999+99999GF102995999999003351999999MA1101905098855REMMET10001/05/17 06:53:02 METAR KMSP 051253Z 33009KT 10SM FEW011 M21/M24 A3009 RMK AO2 SLP213 T12111244 (PL)EQDD01      0ADE726
0237726580149222017010513537+44883-093229FM-15+0255KMSP V0203405N005152200059N0160935N5-02175-02505102175ADDAA101000095GA1025+003055999GD11991+0030559GE19AGL   +99999+99999GF102995999999003051999999MA1101935098895REMMET10101/05/17 07:53:02 METAR KMSP 051353Z 34010KT 10SM FEW010 M22/M25 A3010 RMK AO2 SLP217 T12171250 (CLB)EQDD01      0ADE726
0190726580149222017010514536+44883-093229FM-15+0255KMSP V0203105N004152200059N0160935N5-02115-02445102265ADDAA101000095GA1025+003055999GD11991+0030559MA1102005098955MD1390149+9999REMMET10701/05/17 08:53:02 METAR KMSP 051453Z 31008KT 10SM FEW010 M21/M24 A3012 RMK AO2 SLP226 T12111244 53014 (CLB)
0193726580149222017010515537+44883-093229FM-15+0255KMSP V0203205N003652200059N0160935N5-01945-02445102295ADDAA101000095GA1005+999999999GD10991+9999999GF100991999999999999999999MA1102035098995REMMET09801/05/17 09:53:02 METAR KMSP 051553Z 32007KT 10SM CLR M19/M24 A3013 RMK AO2 SLP229 T11941244 (CLB)
0275726580149222017010516537+44883-093229FM-15+0255KMSP V0202905N004152200059N0160935N5-01895-02445102315ADDAA101000095GA1025+004575999GA2025+015245999GD11991+0045759GD21991+0152459GE19AGL   +99999+99999GF102995999999004571999999MA1102075099025REMMET10801/05/17 10:53:02 METAR KMSP 051653Z 29008KT 10SM FEW015 FEW050 M19/M24 A3014 RMK AO2 SLP231 T11891244 (CLB)EQDD01      0ADE726
0337726580149222017010517537+44883-093229FM-15+0255KMSP V0203105N00465006405MN0160935N5-01785-02395102225ADDAA101000095AJ100039500025099GA1075+006405999GA2075+076205999GD13991+0064059GD23991+0762059GE19MSL   +99999+99999GF199999999999006401999999KA1060M-01781KA2060N-02171MA1102005098955MD1890029+9999REMMET13201/05/17 11:53:02 METAR KMSP 051753Z 31009KT 10SM BKN021 BKN250 M18/M24 A3012 RMK AO2 SLP222 4/001 T11781239 11178 21217 58002 (CLB)
0234726580149222017010518004+44883-093217FM-12+025599999V0203101N004619999999N016000199-01781-02391102221ADDAJ100033100030099GA1999+008001999GE19MSL   +99999+99999GF106991999999008001999999KA1120M-01781KA2120N-02171MA1999999098831MD1810021+9999REMSYN08672658 32566 63109 11178 21239 39883 40222 58002 91753 333 11178 21217 4/003 555 90518=
0250726580149222017010518537+44883-093229FM-15+0255KMSP V0203105N00465007625MN0144845N5-01725-02285102175ADDAA101000025AU110030015AW1715GA1075+007625999GD13991+0076259GE19MSL   +99999+99999GF199999999999007621999999MA1101935098895REMMET11601/05/17 12:53:02 METAR KMSP 051853Z 31009KT 9SM -SN BKN025 M17/M23 A3010 RMK AO2 SNB25 SLP217 P0000 T11721228 (CLB)
0261726580149222017010519407+44883-093229FM-16+0255KMSP V0203305N00465016765MN0160935N5-01675-02335999999ADDAA101000021GA1045+007925999GA2075+016765999GD12991+0079259GD23991+0167659GE19MSL   +99999+99999GF199999999999007921999999MA1101905098855REMMET11301/05/17 13:40:02 SPECI KMSP 051940Z 33009KT 10SM SCT026 BKN055 M17/M23 A3009 RMK AO2 SNE18 P0000 T11671233 (CLB)
0287726580149222017010519537+44883-093229FM-15+0255KMSP V0202905N004652200059N0160935N5-01675-02285102135ADDAA101000025GA1025+007925999GA2045+016765999GD11991+0079259GD22991+0167659GE19AGL   +99999+99999GF104995999999007921999999MA1101905098855REMMET12001/05/17 13:53:02 METAR KMSP 051953Z 29009KT 10SM FEW026 SCT055 M17/M23 A3009 RMK AO2 SNE18 SLP213 P0000 T11671228 (CLB)EQDD01      0ADE726
0292726580149222017010520537+44883-093229FM-15+0255KMSP V0202905N00365016765MN0160935N5-01675-02335102105ADDAA101000095AA203000021GA1045+009145999GA2075+016765999GD12991+0091459GD23991+0167659GE19MSL   +99999+99999GF199999999999009141999999MA1101865098825MD1690129+9999REMMET11901/05/17 14:53:02 METAR KMSP 052053Z 29007KT 10SM SCT030 BKN055 M17/M23 A3008 RMK AO2 SLP210 60000 T11671233 56012 (NK)
0274726580149222017010521537+44883-093229FM-15+0255KMSP V0203005N004652200059N0160935N5-01725-02335102135ADDAA101000095GA1045+008535999GA2045+016765999GD12991+0085359GD22991+0167659GE19AGL   +99999+99999GF104995999999008531999999MA1101905098855REMMET10701/05/17 15:53:02 METAR KMSP 052153Z 30009KT 10SM SCT028 SCT055 M17/M23 A3009 RMK AO2 SLP213 T11721233 (NK)EQDD01      0ADE726
0270726580149222017010522537+44883-093229FM-15+0255KMSP V0202705N00515008535MN0128755N5-01725-02285102145ADDAA101000095GA1045+006715999GA2075+008535999GD12991+0067159GD23991+0085359GE19MSL   +99999+99999GF199999999999006711999999MA1101905098855REMMET12201/05/17 16:53:02 METAR KMSP 052253Z 27010KT 8SM SCT022 BKN028 M17/M23 A3009 RMK AO2 SLP214 PRESENT WX VCSH T11721228 (NK)
0234726580149222017010523247+44883-093229FM-16+0255KMSP V0202705N005152200059N0160935N5-01785-02285999999ADDGA1045+004885999GD12991+0048859GE19AGL   +99999+99999GF104995999999004881999999MA1101905098855REMMET10901/05/17 17:24:02 SPECI KMSP 052324Z 27010KT 10SM SCT016 M18/M23 A3009 RMK AO2 PRESENT WX VCSH T11781228 (NK)EQDD01      0ADE726
0188726580149222017010523487+44883-093229FM-16+0255KMSP V0202905N00575006105MN0128755N5-01805-02305999999ADDGA1075+006105999GD13991+0061059GE19MSL   +99999+99999GF199999999999006101999999MA1101935098895REMMET08201/05/17 17:48:02 SPECI KMSP 052348Z 29011KT 8SM BKN020 M18/M23 A3010 RMK AO2 (NK)
0314726580149222017010523537+44883-093229FM-15+0255KMSP V0202905N00575006105MN0128755N5-01835-02285102175ADDAA101000095AA206000021AJ100039500025099GA1075+006105999GD13991+0061059GE19MSL   +99999+99999GF199999999999006101999999KA1060M-01671KA2060N-01831MA1101935098895MD1290039+9999REMMET12901/05/17 17:53:02 METAR KMSP 052353Z 29011KT 8SM BKN020 M18/M23 A3010 RMK AO2 SLP217 4/001 60000 T11831228 11167 21183 52003 (NK)
0251726580149222017010600004+44883-093217FM-12+025599999V0202901N005719999999N012000199-01831-02281102171ADDAA106000021AJ100033100030099GA1999+008001999GE19MSL   +99999+99999GF106991999999008001999999KA1120M-01671KA2120N-02061MA1999999098771MD1210031+9999REMSYN09272658 12562 62911 11183 21228 39877 40217 52003 69901 92353 333 11167 21206 4/003 555 90600=
0213726580149222017010600407+44883-093229FM-16+0255KMSP V0202905N004652200059N0160935N5-01895-02335999999ADDGA1045+006105999GD12991+0061059GE19AGL   +99999+99999GF104995999999006101999999MA1101965098925REMMET08801/05/17 18:40:01 SPECI KMSP 060040Z 29009KT 10SM SCT020 M19/M23 A3011 RMK AO2 T11891233EQDD01      0ADE726
0269726580149222017010600537+44883-093229FM-15+0255KMSP V0202805N004652200059N0160935N5-01895-02335102235ADDAA101000095GA1045+006105999GA2045+016765999GD12991+0061059GD22991+0167659GE19AGL   +99999+99999GF104995999999006101999999MA1101965098925REMMET10201/05/17 18:53:01 METAR KMSP 060053Z 28009KT 10SM SCT020 SCT055 M19/M23 A3011 RMK AO2 SLP223 T11891233EQDD01      0ADE726
0282726580149222017010601537+44883-093229FM-15+0255KMSP V0202905N00465015245MN0128755N5-01945-02335102265ADDAA101000025AU110030015AW1715GA1045+006105999GA2075+015245999GD12991+0061059GD23991+0152459GE19MSL   +99999+99999GF199999999999006101999999MA1102005098955REMMET11701/05/17 19:53:01 METAR KMSP 060153Z 29009KT 8SM -SN SCT020 BKN050 M19/M23 A3012 RMK AO2 SNB44 SLP226 P0000 T11941233
0334726580149222017010602537+44883-093229FM-15+0255KMSP V0202905N005752200059N0160935N5-02065-02445102305ADDAA101000025AA203000021GA1045+006105999GA2045+014335999GD12991+0061059GD22991+0143359GE19AGL   +99999+99999GF104995999999006101999999MA1102035098995MD1190129+9999REMMET12601/05/17 20:53:02 METAR KMSP 060253Z 29011KT 10SM SCT020 SCT047 M21/M24 A3013 RMK AO2 SNE18 SLP230 P0000 60000 T12061244 51012EQDQ01  00008PRCP03D01      0ADE726
0269726580149222017010603537+44883-093229FM-15+0255KMSP V0203005N005152200059N0160935N5-02115-02565102315ADDAA101000095GA1045+004575999GA2045+014335999GD12991+0045759GD22991+0143359GE19AGL   +99999+99999GF104995999999004571999999MA1102075099025REMMET10201/05/17 21:53:02 METAR KMSP 060353Z 30010KT 10SM SCT015 SCT047 M21/M26 A3014 RMK AO2 SLP231 T12111256EQDD01      0ADE726
0269726580149222017010604537+44883-093229FM-15+0255KMSP V0203205N004652200059N0160935N5-02175-02565102345ADDAA101000095GA1025+004575999GA2025+013725999GD11991+0045759GD21991+0137259GE19AGL   +99999+99999GF102995999999004571999999MA1102105099055REMMET10201/05/17 22:53:02 METAR KMSP 060453Z 32009KT 10SM FEW015 FEW045 M22/M26 A3015 RMK AO2 SLP234 T12171256EQDD01      0ADE726
0365726580149222017010605537+44883-093229FM-15+0255KMSP V0203005N005152200059N0160935N5-02225-02615102365ADDAA101000095AA206000021AJ100039500025099GA1025+003965999GD11991+0039659GE19AGL   +99999+99999GF102995999999003961999999KA1060M-01831KA2060N-02221KA3240M-01671KA4240N-02221MA1102105099055MD1190069+9999REMMET13501/05/17 23:53:02 METAR KMSP 060553Z 30010KT 10SM FEW013 M22/M26 A3015 RMK AO2 SLP236 4/001 60000 T12221261 11183 21222 411671222 51006EQDD01      0ADE726
0949726580149222017010605596+44883-093229SOD  +0255KMSP V020999999999999999999999999999+99999+99999999999ADDAA124000025AJ100039599999999AL12400035AN1024000035AT1AU18SN  5AT2AU08HZ  5AX1085245KA1240M-01665KA2240N-02215MG1098924102074OE11240093931099995OE22240076030099995OE33240046099999995REMSOD75624 HR PRECIPITATION (IN):    T SNOW DEPTH (IN):1     24 HR SNOWFALL (IN):T    WEATHER(CODE):8  24 HR MAX TEMP (F):  224 HR MIN TEMP (F): -8AVERAGE STATION PRESSURE:29.210 MINIMUM SEA LEVEL PRESSURE:30.14 TIME OF OCCURRENCE:0218 PEAK WIND SPEED (MPH): 21 PEAK WIND DIR (DEG):310 PEAK WIND TIME (LST):      FASTEST 2MIN SPEED (MPH): 17FASTEST 2MIN DIR (DEG):300 FASTEST 2MIN TIME (LST):     AVERAGE WIND SPEED (MPH):10.3 24 HR AVG TEMP (F): -3DEPART FROM NORMAL:-19  HEATING DEGREE DAYS: 68 COOLING DEGREE DAYS:  0 LATEST DAY MAX TEMP (0700-1900 LST):2   LATEST NIGHT MIN TEMP(1900-0800 LST):-7 HOURLY INCREMENTAL PRECIPITATION VALUES (IN):.00 T    0.00 0.00 0.00 0.00 0.00 0.00 0.00 0.00 0.00 0.00 T    T    0.00 0.00 0.00 0.00 0.00 T    T    0.00 0.00 0.00
0251726580149222017010606004+44883-093217FM-12+025599999V0203001N005119999999N016000199-02221-02611102361ADDAA106000021AJ100033100030099GA1999+004501999GE19MSL   +99999+99999GF102991999999004501999999KA1240M-01781KA2240N-02221MA1999999098931MD1110061+9999REMSYN09272658 12466 23010 11222 21261 39893 40236 51006 69901 90553 333 11178 21222 4/003 555 90606=
0236726580149222017010606537+44883-093229FM-15+0255KMSP V0203005N004152200059N0160935N5-02285-02615102375ADDAA101000095GA1025+004275999GD11991+0042759GE19AGL   +99999+99999GF102995999999004271999999MA1102135099095REMMET10001/06/17 00:53:02 METAR KMSP 060653Z 30008KT 10SM FEW014 M23/M26 A3016 RMK AO2 SLP237 T12281261 (PL)EQDD01      0ADE726
0192726580149222017010607537+44883-093229FM-15+0255KMSP V0202905N003152200059N0160935N5-02285-02615102395ADDAA101000095GA1005+999999999GD10991+9999999GF100991999999999999999999MA1102135099095REMMET09701/06/17 01:53:02 METAR KMSP 060753Z 29006KT 10SM CLR M23/M26 A3016 RMK AO2 SLP239 T12281261 (PL)
0212726580149222017010608537+44883-093229FM-15+0255KMSP V0202905N003152200059N0160935N5-02285-02615102435ADDAA101000095GA1005+999999999GD10991+9999999GF100991999999999999999999MA1102175099125MD1390079+9999REMMET10301/06/17 02:53:02 METAR KMSP 060853Z 29006KT 10SM CLR M23/M26 A3017 RMK AO2 SLP243 T12281261 53007 (PL)
0192726580149222017010609537+44883-093229FM-15+0255KMSP V0202905N002652200059N0160935N5-02285-02615102465ADDAA101000095GA1005+999999999GD10991+9999999GF100991999999999999999999MA1102205099155REMMET09701/06/17 03:53:02 METAR KMSP 060953Z 29005KT 10SM CLR M23/M26 A3018 RMK AO2 SLP246 T12281261 (PL)
0192726580149222017010610537+44883-093229FM-15+0255KMSP V0202805N003152200059N0160935N5-02285-02615102485ADDAA101000095GA1005+999999999GD10991+9999999GF100991999999999999999999MA1102245099195REMMET09701/06/17 04:53:02 METAR KMSP 061053Z 28006KT 10SM CLR M23/M26 A3019 RMK AO2 SLP248 T12281261 (PL)
0273726580149222017010611537+44883-093229FM-15+0255KMSP V0202705N002152200059N0160935N5-02285-02615102535ADDAA101000095AJ100039500025099GA1005+999999999GD10991+9999999GF100991999999999999999999KA1060M-02221KA2060N-02281MA1102275099225MD1390099+9999REMMET12101/06/17 05:53:02 METAR KMSP 061153Z 27004KT 10SM CLR M23/M26 A3020 RMK AO2 SLP253 4/001 T12281261 11222 21228 53009 (PL)
0170726580149222017010612004+44883-093217FM-12+025599999V0202701N002119999999N016000199-02281-02611102531ADDAJ100033100030099KA1240M-01671KA2240N-02281MA1999999099101MD1310091+9999REMSYN08672658 32966 02704 11228 21261 39910 40253 53009 91153 333 11167 21228 4/003 555 90612=
0192726580149222017010612537+44883-093229FM-15+0255KMSP V0202605N002152200059N0160935N5-02285-02615102575ADDAA101000095GA1005+999999999GD10991+9999999GF100991999999999999999999MA1102305099255REMMET09701/06/17 06:53:02 METAR KMSP 061253Z 26004KT 10SM CLR M23/M26 A3021 RMK AO2 SLP257 T12281261 (PL)
0209726580149222017010613537+44883-093229FM-15+0255KMSP V0202405N002652200059N0128755N5-02285-02615102605ADDAA101000095GA1005+999999999GD10991+9999999GF100991999999999999999999MA1102345099285REMMET11401/06/17 07:53:02 METAR KMSP 061353Z 24005KT 8SM R30L/2600VP6000FT CLR M23/M26 A3022 RMK AO2 SLP260 T12281261 (AP)
0212726580149222017010614537+44883-093229FM-15+0255KMSP V0202405N003152200059N0160935N5-02285-02615102655ADDAA101000095GA1005+999999999GD10991+9999999GF100991999999999999999999MA1102375099325MD1390119+9999REMMET10301/06/17 08:53:02 METAR KMSP 061453Z 24006KT 10SM CLR M23/M26 A3023 RMK AO2 SLP265 T12281261 53011 (AP)
0192726580149222017010615537+44883-093229FM-15+0255KMSP V0202405N002652200059N0160935N5-02115-02505102755ADDAA101000095GA1005+999999999GD10991+9999999GF100991999999999999999999MA1102475099425REMMET09701/06/17 09:53:02 METAR KMSP 061553Z 24005KT 10SM CLR M21/M25 A3026 RMK AO2 SLP275 T12111250 (AP)
0192726580149222017010616537+44883-093229FM-15+0255KMSP V0209999V002152200059N0160935N5-01945-02395102795ADDAA101000095GA1005+999999999GD10991+9999999GF100991999999999999999999MA1102545099485REMMET09701/06/17 10:53:02 METAR KMSP 061653Z VRB04KT 10SM CLR M19/M24 A3028 RMK AO2 SLP279 T11941239 (AP)
0267726580149222017010617537+44883-093229FM-15+0255KMSP V0209999V002152200059N0160935N5-01835-02335102725ADDAA101000095AJ100033100025099GA1005+999999999GD10991+9999999GF100991999999999999999999KA1060M-01781KA2060N-02281MA1102475099425MD1090099+9999REMMET11501/06/17 11:53:02 METAR KMSP 061753Z VRB04KT 10SM CLR M18/M23 A3026 RMK AO2 SLP272 T11831233 11178 21228 50009 (AP)
0147726580149222017010618004+44883-093217FM-12+025599999V0209999N002119999999N016000199-01831-02331102721ADDKA1120M-01781KA2120N-02281MA1999999099301MD1990091+9999REMSYN08072658 32966 0//04 11183 21233 39930 40272 50009 91753 333 11178 21228 555 90618=
0192726580149222017010618537+44883-093229FM-15+0255KMSP V0202405N002152200059N0160935N5-01675-02395102675ADDAA101000095GA1005+999999999GD10991+9999999GF100991999999999999999999MA1102405099355REMMET09701/06/17 12:53:02 METAR KMSP 061853Z 24004KT 10SM CLR M17/M24 A3024 RMK AO2 SLP267 T11671239 (AP)
0274726580149222017010619537+44883-093229FM-15+0255KMSP V0202405N004152200059N0160935N5-01565-02285102675ADDAA101000095GA1025+014635999GA2045+076205999GD11991+0146359GD22991+0762059GE19AGL   +99999+99999GF104995999999014631999999MA1102445099385REMMET10701/06/17 13:53:02 METAR KMSP 061953Z 24008KT 10SM FEW048 SCT250 M16/M23 A3025 RMK AO2 SLP267 T11561228 (NK)EQDD01      0ADE726
0275726580149222017010620537+44883-093229FM-15+0255KMSP V0202605N00315076205MN0160935N5-01565-02225102685ADDAA101000095GA1045+008235999GA2075+076205999GD12991+0082359GD23991+0762059GE19MSL   +99999+99999GF199999999999008231999999MA1102445099385MD1590049+9999REMMET11301/06/17 14:53:02 METAR KMSP 062053Z 26006KT 10SM SCT027 BKN250 M16/M22 A3025 RMK AO2 SLP268 T11561222 55004 (NK)
0293726580149222017010621537+44883-093229FM-15+0255KMSP V0209999V00215013725MN0160935N5-01505-02115102715ADDAA101000095GA1025+006715999GA2075+013725999GA3075+076205999GD11991+0067159GD23991+0137259GD33991+0762059GE19MSL   +99999+99999GF199999999999006711999999MA1102475099425REMMET11401/06/17 15:53:02 METAR KMSP 062153Z VRB04KT 10SM FEW022 BKN045 BKN250 M15/M21 A3026 RMK AO2 SLP271 T11501211 (NK)
0293726580149222017010622537+44883-093229FM-15+0255KMSP V0202605N00155076205MN0160935N5-01565-02065102765ADDAA101000095GA1025+006405999GA2045+012505999GA3075+076205999GD11991+0064059GD22991+0125059GD33991+0762059GE19MSL   +99999+99999GF199999999999006401999999MA1102515099455REMMET11401/06/17 16:53:02 METAR KMSP 062253Z 26003KT 10SM FEW021 SCT041 BKN250 M16/M21 A3027 RMK AO2 SLP276 T11561206 (NK)
0355726580149222017010623537+44883-093229FM-15+0255KMSP V0202605N002652200059N0160935N5-01565-02005102815ADDAA101000095AJ100039500025099GA1025+006405999GA2045+012505999GD11991+0064059GD22991+0125059GE19AGL   +99999+99999GF104995999999006401999999KA1060M-01501KA2060N-01831MA1102575099525MD1390139+9999REMMET13101/06/17 17:53:02 METAR KMSP 062353Z 26005KT 10SM FEW021 SCT041 M16/M20 A3029 RMK AO2 SLP281 4/001 T11561200 11150 21183 53013 (NK)EQDD01      0ADE726
0234726580149222017010700004+44883-093217FM-12+025599999V0202601N002619999999N016000199-01561-02001102811ADDAJ100033100030099GA1999+008001999GE19MSL   +99999+99999GF104991999999008001999999KA1120M-01501KA2120N-02281MA1999999099391MD1310131+9999REMSYN08672658 32566 42605 11156 21200 39939 40281 53013 92353 333 11150 21228 4/003 555 90700=
0269726580149222017010700537+44883-093229FM-15+0255KMSP V0202705N002652200059N0160935N5-01565-02005102885ADDAA101000095GA1025+006405999GA2045+076205999GD11991+0064059GD22991+0762059GE19AGL   +99999+99999GF104995999999006401999999MA1102645099585REMMET10201/06/17 18:53:01 METAR KMSP 070053Z 27005KT 10SM FEW021 SCT250 M16/M20 A3031 RMK AO2 SLP288 T11561200EQDD01      0ADE726
0231726580149222017010701537+44883-093229FM-15+0255KMSP V0202805N002652200059N0160935N5-01615-02065102935ADDAA101000095GA1025+076205999GD11991+0762059GE19AGL   +99999+99999GF102995999999076201999999MA1102685099615REMMET09501/06/17 19:53:01 METAR KMSP 070153Z 28005KT 10SM FEW250 M16/M21 A3032 RMK AO2 SLP293 T11611206EQDD01      0ADE726
0251726580149222017010702537+44883-093229FM-15+0255KMSP V0202705N002152200059N0160935N5-01675-02065103005ADDAA101000095GA1025+076205999GD11991+0762059GE19AGL   +99999+99999GF102995999999076201999999MA1102745099685MD1290189+9999REMMET10101/06/17 20:53:02 METAR KMSP 070253Z 27004KT 10SM FEW250 M17/M21 A3034 RMK AO2 SLP300 T11671206 52018EQDD01      0ADE726
0186726580149222017010703537+44883-093229FM-15+0255KMSP V0202705N002152200059N0144845N5-01675-02065103045ADDAA101000095GA1005+999999999GD10991+9999999GF100991999999999999999999MA1102785099715REMMET09101/06/17 21:53:02 METAR KMSP 070353Z 27004KT 9SM CLR M17/M21 A3035 RMK AO2 SLP304 T11671206
0187726580149222017010704537+44883-093229FM-15+0255KMSP V0202505N002652200059N0160935N5-01725-02065103075ADDAA101000095GA1005+999999999GD10991+9999999GF100991999999999999999999MA1102815099755REMMET09201/06/17 22:53:02 METAR KMSP 070453Z 25005KT 10SM CLR M17/M21 A3036 RMK AO2 SLP307 T11721206
0304726580149222017010705537+44883-093229FM-15+0255KMSP V0202605N002152200059N0160935N5-01725-02065103115ADDAA101000095AJ100039500025099GA1005+999999999GD10991+9999999GF100991999999999999999999KA1060M-01561KA2060N-01721KA3240M-01501KA4240N-02281MA1102885099815MD1190139+9999REMMET12601/06/17 23:53:02 METAR KMSP 070553Z 26004KT 10SM CLR M17/M21 A3038 RMK AO2 SLP311 4/001 T11721206 11156 21172 411501228 51013
0944726580149222017010705596+44883-093229SOD  +0255KMSP V020999999999999999999999999999+99999+99999999999ADDAA124000095AJ100039599999999AL12400095AN1024000095AX1086246KA1240M-01495KA2240N-02275MG1099484102344OE11240067128099995OE22240044730099995OE33240025999999995REMSOD75624 HR PRECIPITATION (IN): 0.00 SNOW DEPTH (IN):1     24 HR SNOWFALL (IN):0.0  WEATHER(CODE):8  24 HR MAX TEMP (F):  524 HR MIN TEMP (F): -9AVERAGE STATION PRESSURE:29.375 MINIMUM SEA LEVEL PRESSURE:30.22 TIME OF OCCURRENCE:0035 PEAK WIND SPEED (MPH): 15 PEAK WIND DIR (DEG):280 PEAK WIND TIME (LST):      FASTEST 2MIN SPEED (MPH): 10FASTEST 2MIN DIR (DEG):300 FASTEST 2MIN TIME (LST):     AVERAGE WIND SPEED (MPH): 5.8 24 HR AVG TEMP (F): -2DEPART FROM NORMAL:-18  HEATING DEGREE DAYS: 67 COOLING DEGREE DAYS:  0 LATEST DAY MAX TEMP (0700-1900 LST):5   LATEST NIGHT MIN TEMP(1900-0800 LST):-9 HOURLY INCREMENTAL PRECIPITATION VALUES (IN):.00 0.00 0.00 0.00 0.00 0.00 0.00 0.00 0.00 0.00 0.00 0.00 0.00 0.00 0.00 0.00 0.00 0.00 0.00 0.00 0.00 0.00 0.00 0.00EQDR01     87AXW093
0170726580149222017010706004+44883-093217FM-12+025599999V0202601N002119999999N016000199-01721-02061103111ADDAJ100033100030099KA1240M-01561KA2240N-02281MA1999999099691MD1110131+9999REMSYN08672658 32966 02604 11172 21206 39969 40311 51013 90553 333 11156 21228 4/003 555 90706=
0192726580149222017010706537+44883-093229FM-15+0255KMSP V0202605N001552200059N0160935N5-01785-02115103115ADDAA101000095GA1005+999999999GD10991+9999999GF100991999999999999999999MA1102885099815REMMET09701/07/17 00:53:02 METAR KMSP 070653Z 26003KT 10SM CLR M18/M21 A3038 RMK AO2 SLP311 T11781211 (PL)
0192726580149222017010707537+44883-093229FM-15+0255KMSP V0202705N002652200059N0160935N5-01785-02115103175ADDAA101000095GA1005+999999999GD10991+9999999GF100991999999999999999999MA1102955099885REMMET09701/07/17 01:53:02 METAR KMSP 070753Z 27005KT 10SM CLR M18/M21 A3040 RMK AO2 SLP317 T11781211 (PL)
0212726580149222017010708537+44883-093229FM-15+0255KMSP V0202905N002652200059N0160935N5-01785-02115103275ADDAA101000095GA1005+999999999GD10991+9999999GF100991999999999999999999MA1103015099955MD1390159+9999REMMET10301/07/17 02:53:02 METAR KMSP 070853Z 29005KT 10SM CLR M18/M21 A3042 RMK AO2 SLP327 T11781211 53015 (PL)
0192726580149222017010709537+44883-093229FM-15+0255KMSP V0202805N002152200059N0160935N5-01785-02115103285ADDAA101000095GA1005+999999999GD10991+9999999GF100991999999999999999999MA1103055099985REMMET09701/07/17 03:53:02 METAR KMSP 070953Z 28004KT 10SM CLR M18/M21 A3043 RMK AO2 SLP328 T11781211 (PL)
0192726580149222017010710537+44883-093229FM-15+0255KMSP V0202905N002152200059N0160935N5-01835-02115103295ADDAA101000095GA1005+999999999GD10991+9999999GF100991999999999999999999MA1103055099985REMMET09701/07/17 04:53:02 METAR KMSP 071053Z 29004KT 10SM CLR M18/M21 A3043 RMK AO2 SLP329 T11831211 (PL)
0346726580149222017010711537+44883-093229FM-15+0255KMSP V0202505N002152200059N0160935N5-01835-02115103345ADDAA101000095AJ100039500025099ED130L99999GA1025+030485999GD11991+0304859GE19AGL   +99999+99999GF102995999999030481999999KA1060M-01721KA2060N-01831MA1103085100015MD1390079+9999REMMET14201/07/17 05:53:02 METAR KMSP 071153Z 25004KT 10SM R30L/6000VP6000FT FEW100 M18/M21 A3044 RMK AO2 SLP334 4/001 T11831211 11172 21183 53007 (PL)EQDD01      0ADE726
0218726580149222017010712004+44883-093217FM-12+025599999V0202501N002119999999N016000199-01831-02111103341ADDAJ100033100030099GE19MSL   +99999+99999GF102991999999999999999999KA1240M-01501KA2240N-01831MA1999999099891MD1310071+9999REMSYN08672658 32966 22504 11183 21211 39989 40334 53007 91153 333 11150 21183 4/003 555 90712=
0217726580149222017010712537+44883-093229FM-15+0255KMSP V0202805N00415014335MN0160935N5-01725-02065103415ADDAA101000095GA1075+014335999GD13991+0143359GE19MSL   +99999+99999GF199999999999014331999999MA1103185100115REMMET10001/07/17 06:53:02 METAR KMSP 071253Z 28008KT 10SM BKN047 M17/M21 A3047 RMK AO2 SLP341 T11721206 (PL)
0218726580149222017010713537+44883-093229FM-15+0255KMSP V0203105N00365013725MN0160935N5-01785-02115103515ADDAA101000095GA1075+013725999GD13991+0137259GE19MSL   +99999+99999GF199999999999013721999999MA1103285100215REMMET10101/07/17 07:53:02 METAR KMSP 071353Z 31007KT 10SM BKN045 M18/M21 A3050 RMK AO2 SLP351 T11781211 (TNP)
0257726580149222017010714537+44883-093229FM-15+0255KMSP V0203205N005152200059N0160935N5-01725-02115103635ADDAA101000095GA1045+021345999GD12991+0213459GE19AGL   +99999+99999GF104995999999021341999999MA1103395100315MD1390289+9999REMMET10701/07/17 08:53:02 METAR KMSP 071453Z 32010KT 10SM SCT070 M17/M21 A3053 RMK AO2 SLP363 T11721211 53028 (TNP)EQDD01      0ADE726
0193726580149222017010715537+44883-093229FM-15+0255KMSP V0203305N006252200059N0160935N5-01615-02065103755ADDAA101000095GA1005+999999999GD10991+9999999GF100991999999999999999999MA1103525100445REMMET09801/07/17 09:53:02 METAR KMSP 071553Z 33012KT 10SM CLR M16/M21 A3057 RMK AO2 SLP375 T11611206 (TNP)
0193726580149222017010716537+44883-093229FM-15+0255KMSP V0203205N004652200059N0160935N5-01505-02005103825ADDAA101000095GA1005+999999999GD10991+9999999GF100991999999999999999999MA1103595100515REMMET09801/07/17 10:53:02 METAR KMSP 071653Z 32009KT 10SM CLR M15/M20 A3059 RMK AO2 SLP382 T11501200 (TNP)
0274726580149222017010717537+44883-093229FM-15+0255KMSP V0203505N006252200059N0160935N5-01395-02005103845ADDAA101000095AJ100039500025099GA1005+999999999GD10991+9999999GF100991999999999999999999KA1060M-01391KA2060N-01891MA1103595100515MD1190219+9999REMMET12201/07/17 11:53:02 METAR KMSP 071753Z 35012KT 10SM CLR M14/M20 A3059 RMK AO2 SLP384 4/001 T11391200 11139 21189 51021 (TNP)
0170726580149222017010718004+44883-093217FM-12+025599999V0203501N006219999999N016000199-01391-02001103841ADDAJ100033100030099KA1120M-01391KA2120N-01891MA1999999100391MD1110211+9999REMSYN08672658 32966 03512 11139 21200 30039 40384 51021 91753 333 11139 21189 4/003 555 90718=
0193726580149222017010718537+44883-093229FM-15+0255KMSP V0203505N005752200059N0160935N5-01335-02065103835ADDAA101000095GA1005+999999999GD10991+9999999GF100991999999999999999999MA1103595100515REMMET09801/07/17 12:53:02 METAR KMSP 071853Z 35011KT 10SM CLR M13/M21 A3059 RMK AO2 SLP383 T11331206 (TNP)
0193726580149222017010719537+44883-093229FM-15+0255KMSP V0203105N004652200059N0160935N5-01335-02065103855ADDAA101000095GA1005+999999999GD10991+9999999GF100991999999999999999999MA1103625100545REMMET09801/07/17 13:53:02 METAR KMSP 071953Z 31009KT 10SM CLR M13/M21 A3060 RMK AO2 SLP385 T11331206 (TNP)
0224726580149222017010720537+44883-093229FM-15+0255KMSP V0203105N007252200059N0160935N5-01285-02065103905ADDAA101000095GA1005+999999999GD10991+9999999GF100991999999999999999999MA1103695100615MD1390079+9999OC100935REMMET10701/07/17 14:53:02 METAR KMSP 072053Z 31014G18KT 10SM CLR M13/M21 A3062 RMK AO2 SLP390 T11281206 53007 (TNP)
0192726580149222017010721537+44883-093229FM-15+0255KMSP V0203205N005152200059N0160935N5-01335-02115103995ADDAA101000095GA1005+999999999GD10991+9999999GF100991999999999999999999MA1103765100675REMMET09701/07/17 15:53:02 METAR KMSP 072153Z 32010KT 10SM CLR M13/M21 A3064 RMK AO2 SLP399 T11331211 (NK)
0192726580149222017010722537+44883-093229FM-15+0255KMSP V0203005N004652200059N0160935N5-01395-02115104025ADDAA101000095GA1005+999999999GD10991+9999999GF100991999999999999999999MA1103795100715REMMET09701/07/17 16:53:02 METAR KMSP 072253Z 30009KT 10SM CLR M14/M21 A3065 RMK AO2 SLP402 T11391211 (NK)
0273726580149222017010723537+44883-093229FM-15+0255KMSP V0202905N003152200059N0160935N5-01505-02065104055ADDAA101000095AJ100039500025099GA1005+999999999GD10991+9999999GF100991999999999999999999KA1060M-01281KA2060N-01501MA1103795100715MD1190139+9999REMMET12101/07/17 17:53:02 METAR KMSP 072353Z 29006KT 10SM CLR M15/M21 A3065 RMK AO2 SLP405 4/001 T11501206 11128 21150 51013 (NK)
0170726580149222017010800004+44883-093217FM-12+025599999V0202901N003119999999N016000199-01501-02061104051ADDAJ100033100030099KA1120M-01281KA2120N-01831MA1999999100581MD1110131+9999REMSYN08672658 32966 02906 11150 21206 30058 40405 51013 92353 333 11128 21183 4/003 555 90800=
0187726580149222017010800537+44883-093229FM-15+0255KMSP V0202905N004152200059N0160935N5-01565-02115104105ADDAA101000095GA1005+999999999GD10991+9999999GF100991999999999999999999MA1103865100775REMMET09201/07/17 18:53:01 METAR KMSP 080053Z 29008KT 10SM CLR M16/M21 A3067 RMK AO2 SLP410 T11561211
0187726580149222017010801537+44883-093229FM-15+0255KMSP V0203005N004652200059N0160935N5-01615-02115104135ADDAA101000095GA1005+999999999GD10991+9999999GF100991999999999999999999MA1103895100805REMMET09201/07/17 19:53:01 METAR KMSP 080153Z 30009KT 10SM CLR M16/M21 A3068 RMK AO2 SLP413 T11611211
0207726580149222017010802537+44883-093229FM-15+0255KMSP V0203005N003152200059N0160935N5-01675-02115104135ADDAA101000095GA1005+999999999GD10991+9999999GF100991999999999999999999MA1103895100805MD1090079+9999REMMET09801/07/17 20:53:02 METAR KMSP 080253Z 30006KT 10SM CLR M17/M21 A3068 RMK AO2 SLP413 T11671211 50007
0187726580149222017010803537+44883-093229FM-15+0255KMSP V0203105N003152200059N0160935N5-01725-02175104185ADDAA101000095GA1005+999999999GD10991+9999999GF100991999999999999999999MA1103935100845REMMET09201/07/17 21:53:02 METAR KMSP 080353Z 31006KT 10SM CLR M17/M22 A3069 RMK AO2 SLP418 T11721217
0186726580149222017010804537+44883-093229FM-15+0255KMSP V0202805N001552200059N0144845N5-01785-02175104155ADDAA101000095GA1005+999999999GD10991+9999999GF100991999999999999999999MA1103935100845REMMET09101/07/17 22:53:02 METAR KMSP 080453Z 28003KT 9SM CLR M18/M22 A3069 RMK AO2 SLP415 T11781217
0281726580149222017010805537+44883-093229FM-15+0255KMSP V0202705N001552200059N0160935N5-01785-02175104115ADDAA101000095GA1005+999999999GD10991+9999999GF100991999999999999999999KA1060M-01501KA2060N-01831KA3240M-01281KA4240N-01891MA1103865100775MD1890009+9999REMMET12001/07/17 23:53:02 METAR KMSP 080553Z 27003KT 10SM CLR M18/M22 A3067 RMK AO2 SLP411 T11781217 11150 21183 411281189 58000
0960726580149222017010805596+44883-093229SOD  +0255KMSP V020999999999999999999999999999+99999+99999999999ADDAA124000095AJ100039599999999AL12400095AN1024000095AX1086246KA1240M-01275KA2240N-01885MG1100494103124OE11240089431099996OE22240071532099995OE33240038099999995REMSOD75624 HR PRECIPITATION (IN): 0.00 SNOW DEPTH (IN):1     24 HR SNOWFALL (IN):0.0  WEATHER(CODE):8  24 HR MAX TEMP (F):  924 HR MIN TEMP (F): -2AVERAGE STATION PRESSURE:29.675 MINIMUM SEA LEVEL PRESSURE:30.45 TIME OF OCCURRENCE:0129 PEAK WIND SPEED (MPH): 20 PEAK WIND DIR (DEG):310 PEAK WIND TIME (LST):      FASTEST 2MIN SPEED (MPH): 16FASTEST 2MIN DIR (DEG):320 FASTEST 2MIN TIME (LST):     AVERAGE WIND SPEED (MPH): 8.5 24 HR AVG TEMP (F):  4DEPART FROM NORMAL:-12  HEATING DEGREE DAYS: 61 COOLING DEGREE DAYS:  0 LATEST DAY MAX TEMP (0700-1900 LST):9   LATEST NIGHT MIN TEMP(1900-0800 LST):-2 HOURLY INCREMENTAL PRECIPITATION VALUES (IN):.00 0.00 0.00 0.00 0.00 0.00 0.00 0.00 0.00 0.00 0.00 0.00 0.00 0.00 0.00 0.00 0.00 0.00 0.00 0.00 0.00 0.00 0.00 0.00EQDR01     87AXW093R02    207OES063
0152726580149222017010806004+44883-093217FM-12+025599999V0202701N001519999999N016000199-01781-02171104111ADDKA1240M-01501KA2240N-01831MA1999999100651REMSYN08072658 32966 02703 11178 21217 30065 40411 58000 90553 333 11150 21183 555 90806=EQDQ018     3APCTEN
0192726580149222017010806537+44883-093229FM-15+0255KMSP V0202505N001552200059N0160935N5-01835-02175104085ADDAA101000095GA1005+999999999GD10991+9999999GF100991999999999999999999MA1103865100775REMMET09701/08/17 00:53:02 METAR KMSP 080653Z 25003KT 10SM CLR M18/M22 A3067 RMK AO2 SLP408 T11831217 (AP)
0192726580149222017010807537+44883-093229FM-15+0255KMSP V0202205N002152200059N0160935N5-01835-02175104085ADDAA101000095GA1005+999999999GD10991+9999999GF100991999999999999999999MA1103835100745REMMET09701/08/17 01:53:02 METAR KMSP 080753Z 22004KT 10SM CLR M18/M22 A3066 RMK AO2 SLP408 T11831217 (AP)
0212726580149222017010808537+44883-093229FM-15+0255KMSP V0202505N001552200059N0160935N5-01945-02225104065ADDAA101000095GA1005+999999999GD10991+9999999GF100991999999999999999999MA1103835100745MD1690059+9999REMMET10301/08/17 02:53:02 METAR KMSP 080853Z 25003KT 10SM CLR M19/M22 A3066 RMK AO2 SLP406 T11941222 56005 (AP)
0192726580149222017010809537+44883-093229FM-15+0255KMSP V0202105N002652200059N0160935N5-01945-02225104015ADDAA101000095GA1005+999999999GD10991+9999999GF100991999999999999999999MA1103795100715REMMET09701/08/17 03:53:02 METAR KMSP 080953Z 21005KT 10SM CLR M19/M22 A3065 RMK AO2 SLP401 T11941222 (AP)
0224726580149222017010809577+44883-093229FM-16+0255KMSP V0202105N00215000615MN0064375N5-01945-02225999999ADDAU100007015AW1051GA1075+000615999GD13991+0006159GE19MSL   +99999+99999GF199999999999000611999999MA1103765100675MW1055REMMET09501/08/17 03:57:02 SPECI KMSP 080957Z 21004KT 4SM HZ BKN002 M19/M22 A3064 RMK AO2 T11941222 (AP)
0192726580149222017010810047+44883-093229FM-16+0255KMSP V0202105N002152200059N0160935N5-01945-02225999999ADDGA1005+999999999GD10991+9999999GF100991999999999999999999MA1103765100675REMMET10801/08/17 04:04:02 SPECI KMSP 081004Z 21004KT 10SM R30L/5500VP6000FT CLR M19/M22 A3064 RMK AO2 T11941222 (AP)
0210726580149222017010810537+44883-093229FM-15+0255KMSP V0202005N002152200059N0160935N5-02005-02285103985ADDAA101000095GA1005+999999999GD10991+9999999GF100991999999999999999999MA1103735100645REMMET11501/08/17 04:53:02 METAR KMSP 081053Z 20004KT 10SM R30L/4500VP6000FT CLR M20/M23 A3063 RMK AO2 SLP398 T12001228 (AP)
0250726580149222017010811537+44883-093229FM-15+0255KMSP V0201305N002152200059N0160935N5-02005-02285103925ADDAA101000095GA1005+999999999GD10991+9999999GF100991999999999999999999KA1060M-01781KA2060N-02001MA1103695100615MD1890159+9999REMMET11501/08/17 05:53:02 METAR KMSP 081153Z 13004KT 10SM CLR M20/M23 A3062 RMK AO2 SLP392 T12001228 11178 21200 58015 (AP)
0147726580149222017010812004+44883-093217FM-12+025599999V0201301N002119999999N016000199-02001-02281103921ADDKA1240M-01281KA2240N-02001MA1999999100481MD1810151+9999REMSYN08072658 32966 01304 11200 21228 30048 40392 58015 91153 333 11128 21200 555 90812=
0192726580149222017010812537+44883-093229FM-15+0255KMSP V0201305N002652200059N0160935N5-02005-02285103845ADDAA101000095GA1005+999999999GD10991+9999999GF100991999999999999999999MA1103595100515REMMET09701/08/17 06:53:02 METAR KMSP 081253Z 13005KT 10SM CLR M20/M23 A3059 RMK AO2 SLP384 T12001228 (NK)
0236726580149222017010813537+44883-093229FM-15+0255KMSP V0201405N003652200059N0160935N5-02005-02285103715ADDAA101000095GA1045+076205999GD12991+0762059GE19AGL   +99999+99999GF104995999999076201999999MA1103455100375REMMET10001/08/17 07:53:02 METAR KMSP 081353Z 14007KT 10SM SCT250 M20/M23 A3055 RMK AO2 SLP371 T12001228 (NK)EQDD01      0ADE726
0256726580149222017010814537+44883-093229FM-15+0255KMSP V0201505N004152200059N0160935N5-01895-02225103685ADDAA101000095GA1045+076205999GD12991+0762059GE19AGL   +99999+99999GF104995999999076201999999MA1103425100345MD1690239+9999REMMET10601/08/17 08:53:02 METAR KMSP 081453Z 15008KT 10SM SCT250 M19/M22 A3054 RMK AO2 SLP368 T11891222 56023 (NK)EQDD01      0ADE726
0236726580149222017010815537+44883-093229FM-15+0255KMSP V0201405N004152200059N0160935N5-01725-02175103665ADDAA101000095GA1045+076205999GD12991+0762059GE19AGL   +99999+99999GF104995999999076201999999MA1103425100345REMMET10001/08/17 09:53:02 METAR KMSP 081553Z 14008KT 10SM SCT250 M17/M22 A3054 RMK AO2 SLP366 T11721217 (NK)EQDD01      0ADE726
0217726580149222017010816537+44883-093229FM-15+0255KMSP V0201805N00465076205MN0160935N5-01565-02065103625ADDAA101000095GA1075+076205999GD13991+0762059GE19MSL   +99999+99999GF199999999999076201999999MA1103395100315REMMET10001/08/17 10:53:02 METAR KMSP 081653Z 18009KT 10SM BKN250 M16/M21 A3053 RMK AO2 SLP362 T11561206 (NK)
0275726580149222017010817537+44883-093229FM-15+0255KMSP V0201605N00575076205MN0160935N5-01335-02065103415ADDAA101000095GA1075+076205999GD13991+0762059GE19MSL   +99999+99999GF199999999999076201999999KA1060M-01331KA2060N-02061MA1103185100115MD1890259+9999REMMET11801/08/17 11:53:02 METAR KMSP 081753Z 16011KT 10SM BKN250 M13/M21 A3047 RMK AO2 SLP341 T11331206 11133 21206 58025 (NK)
0195726580149222017010818004+44883-093217FM-12+025599999V0201601N005719999999N016000199-01331-02061103411ADDGE19MSL   +99999+99999GF106991999999999999999999KA1120M-01331KA2120N-02061MA1999999099991MD1810251+9999REMSYN08072658 32966 61611 11133 21206 39999 40341 58025 91753 333 11133 21206 555 90818=
0196726580149222017010818517+44883-093229FM-16+0255KMSP V0201405N00575076205MN0160935N5-01205-01905999999ADDGA1075+076205999GD13991+0762059GE19MSL   +99999+99999GF199999999999076201999999MA1102915099855REMMET09001/08/17 12:51:02 SPECI KMSP 081851Z 14011KT 10SM BKN250 M12/M19 A3039 RMK AO2 PRESFR (NK)
0224726580149222017010818537+44883-093229FM-15+0255KMSP V0201505N00625076205MN0160935N5-01175-01945103145ADDAA101000095GA1075+076205999GD13991+0762059GE19MSL   +99999+99999GF199999999999076201999999MA1102915099855REMMET10701/08/17 12:53:02 METAR KMSP 081853Z 15012KT 10SM BKN250 M12/M19 A3039 RMK AO2 PRESFR SLP314 T11171194 (NK)
0266726580149222017010819537+44883-093229FM-15+0255KMSP V0201605N00725042675MN0160935N5-01115-01945102965ADDAA101000095GA1075+042675999GA2085+076205999GD13991+0426759GD24991+0762059GE19MSL   +99999+99999GF199999999999042671999999MA1102745099685OC100985REMMET11001/08/17 13:53:02 METAR KMSP 081953Z 16014G19KT 10SM BKN140 OVC250 M11/M19 A3034 RMK AO2 SLP296 T11111194 (NK)
0276726580149222017010820537+44883-093229FM-15+0255KMSP V0201705N00675015245MN0160935N5-01005-01945102845ADDAA101000095GA1045+011895999GA2085+015245999GD12991+0118959GD24991+0152459GE19MSL   +99999+99999GF199999999999011891999999MA1102645099585MD1690549+9999REMMET11401/08/17 14:53:02 METAR KMSP 082053Z 17013KT 10SM SCT039 OVC050 M10/M19 A3031 RMK AO2 SLP284 T11001194 56054 (JDB)
0297726580149222017010821537+44883-093229FM-15+0255KMSP V0201505N00625009145MN0144845N5-01065-01785102685ADDAA101000025GA1075+009145999GA2085+019815999GD13991+0091459GD24991+0198159GE19MSL   +99999+99999GF199999999999009141999999MA1102475099425OC100985REMMET14101/08/17 15:53:02 METAR KMSP 082153Z 15012G19KT 9SM BKN030 OVC065 M11/M18 A3026 RMK AO2 SNB23E49 SLP268 PRESENT WX VCSH P0000 T11061178 (JDB)
0218726580149222017010822537+44883-093229FM-15+0255KMSP V0201705N00625022865MN0160935N5-01065-01725102545ADDAA101000095GA1085+022865999GD14991+0228659GE19MSL   +99999+99999GF199999999999022861999999MA1102345099285REMMET10101/08/17 16:53:02 METAR KMSP 082253Z 17012KT 10SM OVC075 M11/M17 A3022 RMK AO2 SLP254 T11061172 (JDB)
0293726580149222017010823537+44883-093229FM-15+0255KMSP V0201705N00625024385MN0160935N5-01005-01565102535ADDAA101000095AA206000021GA1085+024385999GD14991+0243859GE19MSL   +99999+99999GF199999999999024381999999KA1060M-01001KA2060N-01331MA1102305099255MD1690309+9999REMMET12501/08/17 17:53:02 METAR KMSP 082353Z 17012KT 10SM OVC080 M10/M16 A3021 RMK AO2 SLP253 60000 T11001156 11100 21133 56030 (JDB)
0247726580149222017010900004+44883-093217FM-12+025599999V0201701N006219999999N016000199-01001-01561102531ADDAA106000091GA1999+022501999GE19MSL   +99999+99999GF108991999999022501999999KA1120M-01001KA2120N-02001MA1999999099131MD1610301+9999REMSYN08672658 12866 81712 11100 21156 39913 40253 56030 69901 92353 333 11100 21200 555 90900=EQDQ01  00002PRCP06
0250726580149222017010900537+44883-093229FM-15+0255KMSP V0201705N00465012505MN0160935N5-01005-01505102445ADDAA101000095GA1075+012505999GA2085+024385999GD13991+0125059GD24991+0243859GE19MSL   +99999+99999GF199999999999012501999999MA1102245099195REMMET10201/08/17 18:53:01 METAR KMSP 090053Z 17009KT 10SM BKN041 OVC080 M10/M15 A3019 RMK AO2 SLP244 T11001150
0212726580149222017010901537+44883-093229FM-15+0255KMSP V0201705N00365011285MN0160935N5-00945-01445102465ADDAA101000095GA1085+011285999GD14991+0112859GE19MSL   +99999+99999GF199999999999011281999999MA1102245099195REMMET09501/08/17 19:53:01 METAR KMSP 090153Z 17007KT 10SM OVC037 M09/M14 A3019 RMK AO2 SLP246 T10941144
0232726580149222017010902537+44883-093229FM-15+0255KMSP V0201705N00155010675MN0160935N5-00895-01445102445ADDAA101000095GA1085+010675999GD14991+0106759GE19MSL   +99999+99999GF199999999999010671999999MA1102245099195MD1690079+9999REMMET10101/08/17 20:53:02 METAR KMSP 090253Z 17003KT 10SM OVC035 M09/M14 A3019 RMK AO2 SLP244 T10891144 56007
0251726580149222017010903537+44883-093229FM-15+0255KMSP V0201505N00415010975MN0144845N5-00895-01395102325ADDAA101000025AU110030015AW1715GA1085+010975999GD14991+0109759GE19MSL   +99999+99999GF199999999999010971999999MA1102135099095REMMET11701/08/17 21:53:02 METAR KMSP 090353Z 15008KT 9SM -SN OVC036 M09/M14 A3016 RMK AO2 SNB17 PRESFR SLP232 P0000 T10891139
0276726580149222017010904537+44883-093229FM-15+0255KMSP V0201805N00265013725MN0144845N5-00835-01335102285ADDAA101000025AU110030015AW1715GA1025+010675999GA2085+013725999GD11991+0106759GD24991+0137259GE19MSL   +99999+99999GF199999999999010671999999MA1102105099055REMMET11101/08/17 22:53:02 METAR KMSP 090453Z 18005KT 9SM -SN FEW035 OVC045 M08/M13 A3015 RMK AO2 SLP228 P0000 T10831133
0354726580149222017010905537+44883-093229FM-15+0255KMSP V0209999C00005009455MN0160935N5-00835-01285102285ADDAA101000025AA206000021GA1085+009455999GD14991+0094559GE19MSL   +99999+99999GF199999999999009451999999KA1060M-00831KA2060N-01001KA3240M-00831KA4240N-02061MA1102105099055MD1690149+9999REMMET14101/08/17 23:53:02 METAR KMSP 090553Z 00000KT 10SM OVC031 M08/M13 A3015 RMK AO2 SNE35 SLP228 P0000 60000 T10831128 11083 21100 410831206 56014EQDQ01  00008PRCP06
0946726580149222017010905596+44883-093229SOD  +0255KMSP V020999999999999999999999999999+99999+99999999999ADDAA124000025AJ100039599999999AL12400035AN1024000035AT1AU18SN  5AT2AU08HZ  5AX1085245KA1240M-00775KA2240N-02055MG1099734102274OE11240120716099995OE22240098316099995OE33240038099999995REMSOD75324 HR PRECIPITATION (IN):    T SNOW DEPTH (IN):1     24 HR SNOWFALL (IN):T    WEATHER(CODE):8  24 HR MAX TEMP (F): 1824 HR MIN TEMP (F): -5AVERAGE STATION PRESSURE:29.450 MINIMUM SEA LEVEL PRESSURE:30.20 TIME OF OCCURRENCE:2359 PEAK WIND SPEED (MPH): 27 PEAK WIND DIR (DEG):160 PEAK WIND TIME (LST):      FASTEST 2MIN SPEED (MPH): 22FASTEST 2MIN DIR (DEG):160 FASTEST 2MIN TIME (LST):     AVERAGE WIND SPEED (MPH): 8.5 24 HR AVG TEMP (F):  7DEPART FROM NORMAL: -8  HEATING DEGREE DAYS: 58 COOLING DEGREE DAYS:  0 LATEST DAY MAX TEMP (0700-1900 LST):15  LATEST NIGHT MIN TEMP(1900-0800 LST):-5 HOURLY INCREMENTAL PRECIPITATION VALUES (IN):.00 0.00 0.00 0.00 0.00 0.00 0.00 0.00 0.00 0.00 0.00 0.00 0.00 0.00 0.00 T    0.00 0.00 0.00 0.00 0.00 T    T    T
0228726580149222017010906004+44883-093217FM-12+025599999V0209999C000019999999N016000199-00831-01281102281ADDAA106000021GA1999+008001999GE19MSL   +99999+99999GF108991999999008001999999KA1240M-00831KA2240N-02001MA1999999098931MD1610141+9999REMSYN08672658 12566 80000 11083 21128 39893 40228 56014 69901 90553 333 11083 21200 555 90906=
0199726580149222017010906047+44883-093229FM-16+0255KMSP V0209999C00005008845MN0160935N5-00785-01285999999ADDGA1085+008845999GD14991+0088459GE19MSL   +99999+99999GF199999999999008841999999MA1102105099055REMMET09301/09/17 00:04:02 SPECI KMSP 090604Z 00000KT 10SM OVC029 M08/M13 A3015 RMK AO2 T10781128 (AP)
0217726580149222017010906537+44883-093229FM-15+0255KMSP V0202205N00215008235MN0160935N5-00785-01225102295ADDAA101000095GA1085+008235999GD14991+0082359GE19MSL   +99999+99999GF199999999999008231999999MA1102135099095REMMET10001/09/17 00:53:02 METAR KMSP 090653Z 22004KT 10SM OVC027 M08/M12 A3016 RMK AO2 SLP229 T10781122 (AP)
0199726580149222017010907217+44883-093229FM-16+0255KMSP V0202305N00215009145MN0160935N5-00835-01225999999ADDGA1085+009145999GD14991+0091459GE19MSL   +99999+99999GF199999999999009141999999MA1102105099055REMMET09301/09/17 01:21:02 SPECI KMSP 090721Z 23004KT 10SM OVC030 M08/M12 A3015 RMK AO2 T10831122 (AP)
0184726580149222017010907516+44883-093229FM-16+0255KMSP V0202305N00265008845MN0160935N5-00805-01205999999ADDGA1075+008845999GA2085+010975999GD13991+0088459GD24991+0109759MA1102135099095REMMET09501/09/17 01:51:02 SPECI KMSP 090751Z 23005KT 10SM BKN029 OVC036 M08/M12 A3016 RMK AO2 FIBI (AP)
0255726580149222017010907537+44883-093229FM-15+0255KMSP V0202305N00265008235MN0160935N5-00785-01175102305ADDAA101000095GA1075+008235999GA2085+010975999GD13991+0082359GD24991+0109759GE19MSL   +99999+99999GF199999999999008231999999MA1102135099095REMMET10701/09/17 01:53:02 METAR KMSP 090753Z 23005KT 10SM BKN027 OVC036 M08/M12 A3016 RMK AO2 SLP230 T10781117 (AP)
0237726580149222017010908537+44883-093229FM-15+0255KMSP V0202505N00215008235MN0160935N5-00785-01175102315ADDAA101000095GA1085+008235999GD14991+0082359GE19MSL   +99999+99999GF199999999999008231999999MA1102135099095MD1190059+9999REMMET10601/09/17 02:53:02 METAR KMSP 090853Z 25004KT 10SM OVC027 M08/M12 A3016 RMK AO2 SLP231 T10781117 51005 (AP)
0217726580149222017010909537+44883-093229FM-15+0255KMSP V0202805N00215007625MN0160935N5-00725-01115102335ADDAA101000095GA1085+007625999GD14991+0076259GE19MSL   +99999+99999GF199999999999007621999999MA1102175099125REMMET10001/09/17 03:53:02 METAR KMSP 090953Z 28004KT 10SM OVC025 M07/M11 A3017 RMK AO2 SLP233 T10721111 (AP)
0217726580149222017010910537+44883-093229FM-15+0255KMSP V0203405N00215007325MN0160935N5-00725-01115102265ADDAA101000095GA1085+007325999GD14991+0073259GE19MSL   +99999+99999GF199999999999007321999999MA1102105099055REMMET10001/09/17 04:53:02 METAR KMSP 091053Z 34004KT 10SM OVC024 M07/M11 A3015 RMK AO2 SLP226 T10721111 (AP)
0275726580149222017010911537+44883-093229FM-15+0255KMSP V0203405N00215007325MN0160935N5-00725-01065102255ADDAA101000095GA1085+007325999GD14991+0073259GE19MSL   +99999+99999GF199999999999007321999999KA1060M-00721KA2060N-00831MA1102105099055MD1890069+9999REMMET11801/09/17 05:53:02 METAR KMSP 091153Z 34004KT 10SM OVC024 M07/M11 A3015 RMK AO2 SLP225 T10721106 11072 21083 58006 (AP)
0217726580149222017010912004+44883-093217FM-12+025599999V0203401N002119999999N016000199-00721-01061102251ADDGA1999+008001999GE19MSL   +99999+99999GF108991999999008001999999KA1240N-01001MA1999999098931MD1810061+9999REMSYN08072658 32566 83404 11072 21106 39893 40225 58006 91153 333 11083 21100 555 90912=EQDQ01-8.3  2EATMX 
0232726580149222017010912537+44883-093229FM-15+0255KMSP V0209999C00005007015MN0160935N5-00785-01115102185ADDAA101000025GA1085+007015999GD14991+0070159GE19MSL   +99999+99999GF199999999999007011999999MA1102035098995REMMET11501/09/17 06:53:02 METAR KMSP 091253Z 00000KT 10SM OVC023 M08/M11 A3013 RMK AO2 SNB04E42 SLP218 P0000 T10781111 (AP)
0238726580149222017010913057+44883-093229FM-16+0255KMSP V0200605N00215054865MN0160935N5-00785-01115999999ADDGA1045+007015999GA2085+054865999GD12991+0070159GD24991+0548659GE19MSL   +99999+99999GF199999999999007011999999MA1102035098995REMMET10101/09/17 07:05:02 SPECI KMSP 091305Z 06004KT 10SM SCT023 OVC180 M08/M11 A3013 RMK AO2 T10781111 (CLB)
0218726580149222017010913537+44883-093229FM-15+0255KMSP V0200805N00155051825MN0160935N5-00785-01115102195ADDAA101000095GA1085+051825999GD14991+0518259GE19MSL   +99999+99999GF199999999999051821999999MA1102035098995REMMET10101/09/17 07:53:02 METAR KMSP 091353Z 08003KT 10SM OVC170 M08/M11 A3013 RMK AO2 SLP219 T10781111 (CLB)
0237726580149222017010914407+44883-093229FM-16+0255KMSP V0209999C00005007925MN0144845N5-00725-01115999999ADDGA1075+007925999GA2085+051825999GD13991+0079259GD24991+0518259GE19MSL   +99999+99999GF199999999999007921999999MA1102105099055REMMET10001/09/17 08:40:02 SPECI KMSP 091440Z 00000KT 9SM BKN026 OVC170 M07/M11 A3015 RMK AO2 T10721111 (CLB)
0292726580149222017010914537+44883-093229FM-15+0255KMSP V0201405N00155008235MN0144845N5-00785-01115102265ADDAA101000095AA203000021GA1075+008235999GA2085+045725999GD13991+0082359GD24991+0457259GE19MSL   +99999+99999GF199999999999008231999999MA1102105099055MD1390019+9999REMMET11901/09/17 08:53:02 METAR KMSP 091453Z 14003KT 9SM BKN027 OVC150 M08/M11 A3015 RMK AO2 SLP226 60000 T10781111 53001 (CLB)
0237726580149222017010915447+44883-093229FM-16+0255KMSP V0201405N00215033535MN0144845N5-00725-01065999999ADDGA1045+008535999GA2085+033535999GD12991+0085359GD24991+0335359GE19MSL   +99999+99999GF199999999999008531999999MA1102205099155REMMET10001/09/17 09:44:02 SPECI KMSP 091544Z 14004KT 9SM SCT028 OVC110 M07/M11 A3018 RMK AO2 T10721106 (CLB)
0293726580149222017010915537+44883-093229FM-15+0255KMSP V0201405N00215033535MN0144845N5-00725-01065102335ADDAA101000095GA1025+007925999GA2075+033535999GA3085+039625999GD11991+0079259GD23991+0335359GD34991+0396259GE19MSL   +99999+99999GF199999999999007921999999MA1102175099125REMMET11401/09/17 09:53:02 METAR KMSP 091553Z 14004KT 9SM FEW026 BKN110 OVC130 M07/M11 A3017 RMK AO2 SLP233 T10721106 (CLB)
0217726580149222017010916537+44883-093229FM-15+0255KMSP V0201205N00315030485MN0128755N5-00675-01005102245ADDAA101000095GA1085+030485999GD14991+0304859GE19MSL   +99999+99999GF199999999999030481999999MA1102105099055REMMET10001/09/17 10:53:02 METAR KMSP 091653Z 12006KT 8SM OVC100 M07/M10 A3015 RMK AO2 SLP224 T10671100 (CLB)
0212726580149222017010917457+44883-093229FM-16+0255KMSP V0201205N00415018295MN0112655N5-00615-01005999999ADDGA1085+018295999GD14991+0182959GE19MSL   +99999+99999GF199999999999018291999999MA1101905098855REMMET10601/09/17 11:45:02 SPECI KMSP 091745Z 12008KT 7SM OVC060 M06/M10 A3009 RMK AO2 PRESFR VIRGA T10611100 (CLB)
0343726580149222017010917537+44883-093229FM-15+0255KMSP V0201105N00575015245MN0144845N5-00615-01005101975ADDAA101000095AA206000021GA1075+015245999GA2085+018295999GD13991+0152459GD24991+0182959GE19MSL   +99999+99999GF199999999999015241999999KA1060M-00611KA2060N-00781MA1101835098795MD1890279+9999REMMET14401/09/17 11:53:02 METAR KMSP 091753Z 11011KT 9SM BKN050 OVC060 M06/M10 A3007 RMK AO2 PRESFR SLP197 VIRGA 60000 T10611100 11061 21078 58027 (CLB)
0247726580149222017010918004+44883-093217FM-12+025599999V0201101N005719999999N014000199-00611-01001101971ADDAA106000091GA1999+017501999GE19MSL   +99999+99999GF108991999999017501999999KA1120M-00611KA2120N-01331MA1999999098671MD1810271+9999REMSYN08672658 12764 81111 11061 21100 39867 40197 58027 69901 91753 333 11061 21133 555 90918=EQDQ01  00002PRCP06
0013726580149222017010918004+44883-093229SHEF +999999999V020999999999999999999999999999+99999+99999999999ADDAL19900231
0281726580149222017010918117+44883-093229FM-16+0255KMSP V0201405N00575009455MN0032195N5-00615-00945999999ADDAA101000021AU110030015AW1715GA1075+009455999GA2085+014335999GD13991+0094559GD24991+0143359GE19MSL   +99999+99999GF199999999999009451999999MA1101765098725REMMET11601/09/17 12:11:02 SPECI KMSP 091811Z 14011KT 2SM -SN BKN031 OVC047 M06/M09 A3005 RMK AO2 SNB02 P0000 T10611094 (CLB)
0275726580149222017010918177+44883-093229FM-16+0255KMSP V0201305N00625007625MN0016095N5-00615-00945999999ADDAA101000021AU110030015AW1715GA1085+007625999GD14991+0076259GE19MSL   +99999+99999GF199999999999007621999999MA1101735098695REMMET14101/09/17 12:17:02 SPECI KMSP 091817Z 13012KT 1SM R30L/5500VP6000FT -SN OVC025 M06/M09 A3004 RMK AO2 SFC VIS 1 1/4 SNB02 P0000 T10611094 (CLB)
0281726580149222017010918397+44883-093229FM-16+0255KMSP V0201305N00625006405MN0032195N5-00615-00895999999ADDAA101000021AU110030015AW1715GA1075+006405999GA2085+019815999GD13991+0064059GD24991+0198159GE19MSL   +99999+99999GF199999999999006401999999MA1101665098625REMMET11601/09/17 12:39:02 SPECI KMSP 091839Z 13012KT 2SM -SN BKN021 OVC065 M06/M09 A3002 RMK AO2 SNB02 P0000 T10611089 (CLB)
0309726580149222017010918507+44883-093229FM-16+0255KMSP V0201305N00575008845MN0128755N5-00605-00905999999ADDAA101000021AU110030015AW1715GA1075+008845999GA2075+015245999GA3085+018295999GD13991+0088459GD23991+0152459GD34991+0182959GE19MSL   +99999+99999GF199999999999008841999999MA1101595098565REMMET11301/09/17 12:50:02 SPECI KMSP 091850Z 13011KT 8SM -SN BKN029 BKN050 OVC060 M06/M09 A3000 RMK AO2 SNB02 P0000 (CLB)
0308726580149222017010918537+44883-093229FM-15+0255KMSP V0201305N00575009455MN0128755N5-00615-00895101745ADDAA101000025GA1075+009455999GA2075+015245999GA3085+018295999GD13991+0094559GD23991+0152459GD34991+0182959GE19MSL   +99999+99999GF199999999999009451999999MA1101595098565REMMET12901/09/17 12:53:02 METAR KMSP 091853Z 13011KT 8SM BKN031 BKN050 OVC060 M06/M09 A3000 RMK AO2 SNB02E53 SLP174 P0000 T10611089 (CLB)
0323726580149222017010919087+44883-093229FM-16+0255KMSP V0201405N00675009145MN0028165N5-00615-00895999999ADDAA101000021AU110030015AW1715GA1075+009145999GA2075+011285999GA3085+018295999GD13991+0091459GD23991+0112859GD34991+0182959GE19MSL   +99999+99999GF199999999999009141999999MA1101565098525REMMET12701/09/17 13:08:02 SPECI KMSP 091908Z 14013KT 1 3/4SM -SN BKN030 BKN037 OVC060 M06/M09 A2999 RMK AO2 SNB01 P0000 T10611089 (CLB)
0281726580149222017010919157+44883-093229FM-16+0255KMSP V0201205N00515009145MN0048285N5-00615-00895999999ADDAA101000021AU110030015AW1715GA1075+009145999GA2085+011285999GD13991+0091459GD24991+0112859GE19MSL   +99999+99999GF199999999999009141999999MA1101525098495REMMET11601/09/17 13:15:02 SPECI KMSP 091915Z 12010KT 3SM -SN BKN030 OVC037 M06/M09 A2998 RMK AO2 SNB01 P0000 T10611089 (CLB)
0339726580149222017010919257+44883-093229FM-16+0255KMSP V0201305N00575007925MN0032195N5-00615-00835999999ADDAA101000021AU110030015AU200001015AW1105AW2715GA1025+003665999GA2075+007925999GA3085+011285999GD11991+0036659GD23991+0079259GD34991+0112859GE19MSL   +99999+99999GF199999999999003661999999MA1101465098435REMMET12601/09/17 13:25:02 SPECI KMSP 091925Z 13011KT 2SM -SN BR FEW012 BKN026 OVC037 M06/M08 A2996 RMK AO2 SNB01 P0000 T10611083 (CLB)
0328726580149222017010919437+44883-093229FM-16+0255KMSP V0201305N00515007015MN0016095N5-00615-00835999999ADDAA101000231AU110030015AU200001015AW1105AW2715GA1025+003665999GA2085+007015999GD11991+0036659GD24991+0070159GE19MSL   +99999+99999GF199999999999003661999999MA1101425098395REMMET14601/09/17 13:43:02 SPECI KMSP 091943Z 13010KT 1SM R30L/P6000FT -SN BR FEW012 OVC023 M06/M08 A2995 RMK AO2 TWR VIS 1 1/2 SNB01 P0001 T10611083 (CLB)
0251726580149222017010919516+44883-093229FM-16+0255KMSP V0201405N00415005795MN0012075N5-00605-00805999999ADDAU110030015AW1715GA1025+003965999GA2085+005795999GD11991+0039659GD24991+0057959MA1101425098395REMMET14501/09/17 13:51:02 SPECI KMSP 091951Z 14008KT 3/4SM R30L/5000VP6000FT -SN FEW013 OVC019 M06/M08 A2995 RMK AO2 TWR VIS 1 1/2 SNB01 P0001 FIBI (CLB)
0340726580149222017010919537+44883-093229FM-15+0255KMSP V0201305N00415005795MN0016095N5-00565-00785101565ADDAA101000395AU110030015AU200001015AW1105AW2715GA1025+003965999GA2085+005795999GD11991+0039659GD24991+0057959GE19MSL   +99999+99999GF199999999999003961999999MA1101425098395REMMET15801/09/17 13:53:02 METAR KMSP 091953Z 13008KT 1SM R30L/4500VP6000FT -SN BR FEW013 OVC019 M06/M08 A2995 RMK AO2 TWR VIS 1 1/2 SNB01 SLP156 P0001 T10561078 (CLB)
0335726580149222017010920037+44883-093229FM-16+0255KMSP V0201205N00515004575WN0008056N5-00565-00785999999ADDAA101000231AU120030016AW1726GA1095+004575999GD15991+0045759GE19MSL   +99999+99999GF109991999999004571999999MA1101355098335REMMET13401/09/17 14:03:02 SPECI KMSP 092003Z 12010KT 1/2SM R30L/3500V4500FT SN VV015 M06/M08 A2993 RMK AO2 TWR VIS 1 1/2 P0001 T10561078 (CLB)EQDR01 1/2SM7VIS018R02    SN7AWW018R03SEERMK7MVW018R04    SN7MWW018
0340726580149222017010920107+44883-093229FM-16+0255KMSP V0201305N00675003665WN0008056N5-00565-00785999999ADDAA101000231AU120030016AW1726GA1095+003665999GD15991+0036659GE19MSL   +99999+99999GF109991999999003661999999MA1101325098295REMMET13901/09/17 14:10:02 SPECI KMSP 092010Z 13013KT 1/2SM R30L/3000V4000FT SN VV012 M06/M08 A2992 RMK AO2 TWR VIS 3/4 PRESFR P0001 T10561078 (CLB)EQDR01 1/2SM7VIS018R02    SN7AWW018R03SEERMK7MVW018R04    SN7MWW018
0275726580149222017010920237+44883-093229FM-16+0255KMSP V0201505N00625003965WN0012075N5-00565-00785999999ADDAA101000531AU110030015AU200001015AW1105AW2715GA1095+003965999GD15991+0039659GE19MSL   +99999+99999GF109991999999003961999999MA1101395098365REMMET12401/09/17 14:23:02 SPECI KMSP 092023Z 15012KT 3/4SM R30L/3500V4500FT -SN BR VV013 M06/M08 A2994 RMK AO2 P0002 T10561078 (CLB)
0275726580149222017010920437+44883-093229FM-16+0255KMSP V0201405N00775005185WN0012075N5-00565-00785999999ADDAA101000731AU110030015AU200001015AW1105AW2715GA1095+005185999GD15991+0051859GE19MSL   +99999+99999GF109991999999005181999999MA1101325098295REMMET12401/09/17 14:43:02 SPECI KMSP 092043Z 14015KT 3/4SM R30L/5000V6000FT -SN BR VV017 M06/M08 A2992 RMK AO2 P0003 T10561078 (CLB)
0388726580149222017010920537+44883-093229FM-15+0255KMSP V0201405N00575004885MN0012075N5-00565-00785101485ADDAA101001095AA203001391AU110030015AU200001015AW1105AW2715GA1075+004885999GA2085+008845999GD13991+0048859GD24991+0088459GE19MSL   +99999+99999GF199999999999004881999999MA1101325098295MD1890269+9999REMMET16201/09/17 14:53:02 METAR KMSP 092053Z 14011KT 3/4SM R30L/5000VP6000FT -SN BR BKN016 OVC029 M06/M08 A2992 RMK AO2 SFC VIS 1 SLP148 P0004 60005 T10561078 58026 (CLB)EQDQ01  00128PRCP03
0347726580149222017010921087+44883-093229FM-16+0255KMSP V0201305N00625009145MN0040235N5-00565-00785999999ADDAA101000021AU110030015AU200001015AW1105AW2715GA1025+003965999GA2075+009145999GA3085+018295999GD11991+0039659GD23991+0091459GD34991+0182959GE19MSL   +99999+99999GF199999999999003961999999MA1101325098295REMMET13401/09/17 15:08:02 SPECI KMSP 092108Z 13012KT 2 1/2SM -SN BR FEW013 BKN030 OVC060 M06/M08 A2992 RMK AO2 TWR VIS 3 P0000 T10561078 (JDB)
0333726580149222017010921107+44883-093229FM-16+0255KMSP V0201405N00575009755MN0048285N5-00565-00785999999ADDAA101000021AU110030015AU200001015AW1105AW2715GA1025+003965999GA2075+009755999GA3085+015245999GD11991+0039659GD23991+0097559GD34991+0152459GE19MSL   +99999+99999GF199999999999003961999999MA1101325098295REMMET12001/09/17 15:10:02 SPECI KMSP 092110Z 14011KT 3SM -SN BR FEW013 BKN032 OVC050 M06/M08 A2992 RMK AO2 P0000 T10561078 (JDB)
0343726580149222017010921277+44883-093229FM-16+0255KMSP V0201405N00625010975MN0032195N5-00565-00785999999ADDAA101000021AU110030015AU200001015AW1105AW2715GA1025+003665999GA2045+009145999GA3085+010975999GD11991+0036659GD22991+0091459GD34991+0109759GE19MSL   +99999+99999GF199999999999003661999999MA1101325098295REMMET13001/09/17 15:27:02 SPECI KMSP 092127Z 14012KT 2SM -SN BR FEW012 SCT030 OVC036 M06/M08 A2992 RMK AO2 TWR VIS 3 P0000 T10561078 (JDB)
0350726580149222017010921537+44883-093229FM-15+0255KMSP V0201405N00515010365MN0032195N5-00565-00785101415ADDAA101000395AU110030015AU200001015AW1105AW2715GA1045+004275999GA2075+010365999GA3085+013725999GD12991+0042759GD23991+0103659GD34991+0137259GE19MSL   +99999+99999GF199999999999004271999999MA1101295098265REMMET13701/09/17 15:53:02 METAR KMSP 092153Z 14010KT 2SM -SN BR SCT014 BKN034 OVC045 M06/M08 A2991 RMK AO2 TWR VIS 3 SLP141 P0001 T10561078 (JDB)
0340726580149222017010922177+44883-093229FM-16+0255KMSP V0201405N00725014025MN0048285N5-00565-00785999999ADDAA101000021AU110030015AU200001015AW1105AW2715GA1025+003665999GA2075+014025999GA3085+024385999GD11991+0036659GD23991+0140259GD34991+0243859GE19MSL   +99999+99999GF199999999999003661999999MA1101125098095REMMET12701/09/17 16:17:02 SPECI KMSP 092217Z 14014KT 3SM -SN BR FEW012 BKN046 OVC080 M06/M08 A2986 RMK AO2 PRESFR P0000 T10561078 (JDB)
0313726580149222017010922517+44883-093229FM-16+0255KMSP V0201405N00935003965MN0048285N5-00505-00805999999ADDAA101000231AU100007015AW1051GA1075+003965999GA2085+024385999GD13991+0039659GD24991+0243859GE19MSL   +99999+99999GF199999999999003961999999MA1101085098065MW1055OC101185REMMET13401/09/17 16:51:02 SPECI KMSP 092251Z 14018G23KT 3SM HZ BKN013 OVC080 M05/M08 A2985 RMK AO2 SFC VIS 6 SNE30 PRESENT WX VCSH P0001 (JDB)
0278726580149222017010922537+44883-093229FM-15+0255KMSP V0201505N00825003965MN0112655N5-00505-00785101225ADDAA101000395GA1075+003965999GA2085+024385999GD13991+0039659GD24991+0243859GE19MSL   +99999+99999GF199999999999003961999999MA1101085098065OC101185REMMET12201/09/17 16:53:02 METAR KMSP 092253Z 15016G23KT 7SM BKN013 OVC080 M05/M08 A2985 RMK AO2 SNE30 SLP122 P0001 T10501078 (JDB)
0244726580149222017010923407+44883-093229FM-16+0255KMSP V0201305N00775004275MN0128755N5-00505-00785999999ADDGA1075+004275999GA2085+028965999GD13991+0042759GD24991+0289659GE19MSL   +99999+99999GF199999999999004271999999MA1100885097865REMMET10701/09/17 17:40:02 SPECI KMSP 092340Z 13015KT 8SM BKN014 OVC095 M05/M08 A2979 RMK AO2 PRESFR T10501078 (JDB)
0364726580149222017010923537+44883-093229FM-15+0255KMSP V0201405N00775004275MN0128755N5-00505-00785100985ADDAA101000095AA206001891AJ100039500025099GA1075+004275999GA2085+030485999GD13991+0042759GD24991+0304859GE19MSL   +99999+99999GF199999999999004271999999KA1060M-00501KA2060N-00611MA1100855097835MD1890429+9999OC101245REMMET14001/09/17 17:53:02 METAR KMSP 092353Z 14015G24KT 8SM BKN014 OVC100 M05/M08 A2978 RMK AO2 SLP098 4/001 60007 T10501078 11050 21061 58042 (JDB)
0271726580149222017011000004+44883-093217FM-12+025599999V0201401N007719999999N012000199-00501-00781100981ADDAA106002031AJ100033100030099GA1999+004501999GE19MSL   +99999+99999GF108991999999004501999999KA1120M-00501KA2120N-00831MA1999999097711MD1810421+9999OD149901241999REMSYN09872658 12462 81415 11050 21078 39771 40098 58042 60021 92353 333 11050 21083 4/003 91024 555 91000=
0280726580149222017011000157+44883-093229FM-16+0255KMSP V0201405N00825067065MN0112655N5-00445-00785999999ADDGA1045+003965999GA2045+030485999GA3085+067065999GD12991+0039659GD22991+0304859GD34991+0670659GE19MSL   +99999+99999GF199999999999003961999999MA1100855097835OC101135REMMET10401/09/17 18:15:01 SPECI KMSP 100015Z 14016G22KT 7SM SCT013 SCT100 OVC220 M04/M08 A2978 RMK AO2 T10441078
0302726580149222017011000537+44883-093229FM-15+0255KMSP V0201405N00465033535MN0112655N5-00445-00725100975ADDAA101000095GA1045+004275999GA2075+033535999GA3075+042675999GD12991+0042759GD23991+0335359GD33991+0426759GD44991+0762019GE19MSL   +99999+99999GF199999999999004271999999MA1100855097835REMMET10801/09/17 18:53:01 METAR KMSP 100053Z 14009KT 7SM SCT014 BKN110 BKN140 M04/M07 A2978 RMK AO2 SLP097 T10441072
0280726580149222017011001157+44883-093229FM-16+0255KMSP V0201505N00575004275MN0128755N5-00445-00725999999ADDGA1075+004275999GA2075+021345999GA3085+033535999GD13991+0042759GD23991+0213459GD34991+0335359GE19MSL   +99999+99999GF199999999999004271999999MA1100855097835OC100935REMMET10401/09/17 19:15:01 SPECI KMSP 100115Z 15011G18KT 8SM BKN014 BKN070 OVC110 M04/M07 A2978 RMK AO2 T10441072
0259726580149222017011001487+44883-093229FM-16+0255KMSP V0201405N00515004575MN0128755N5-00405-00705999999ADDGA1075+004575999GA2075+033535999GA3085+076205999GD13991+0045759GD23991+0335359GD34991+0762059GE19MSL   +99999+99999GF199999999999004571999999MA1100815097805REMMET09101/09/17 19:48:01 SPECI KMSP 100148Z 14010KT 8SM BKN015 BKN110 OVC250 M04/M07 A2977 RMK AO2
0222726580149222017011001516+44883-093229FM-16+0255KMSP V0201505N00515030485MN0128755N5-00405-00705999999ADDGA1045+004575999GA2075+030485999GA3085+076205999GD12991+0045759GD23991+0304859GD34991+0762059MA1100815097805REMMET10201/09/17 19:51:03 SPECI KMSP 100151Z 15010KT 8SM SCT015 BKN100 OVC250 M04/M07 A2977 RMK AO2 FIBI (JDB)
0302726580149222017011001537+44883-093229FM-15+0255KMSP V0201505N00515033535MN0128755N5-00445-00725100935ADDAA101000095GA1045+004575999GA2075+033535999GA3075+048775999GD12991+0045759GD23991+0335359GD33991+0487759GD44991+0762019GE19MSL   +99999+99999GF199999999999004571999999MA1100815097805REMMET10801/09/17 19:53:01 METAR KMSP 100153Z 15010KT 8SM SCT015 BKN110 BKN160 M04/M07 A2977 RMK AO2 SLP093 T10441072
0284726580149222017011002207+44883-093229FM-16+0255KMSP V0201505N00465006105MN0128755N5-00395-00725999999ADDGA1025+004575999GA2075+006105999GA3075+030485999GD11991+0045759GD23991+0061059GD33991+0304859GD44991+0762019GE19MSL   +99999+99999GF199999999999004571999999MA1100755097735REMMET10101/09/17 20:20:01 SPECI KMSP 100220Z 15009KT 8SM FEW015 BKN020 BKN100 M04/M07 A2975 RMK AO2 T10391072
0269726580149222017011002537+44883-093229FM-15+0255KMSP V0201605N00515005495MN0128755N5-00395-00675100795ADDAA101000095GA1075+005495999GA2085+007325999GD13991+0054959GD24991+0073259GE19MSL   +99999+99999GF199999999999005491999999MA1100645097635MD1890189+9999REMMET10701/09/17 20:53:02 METAR KMSP 100253Z 16010KT 8SM BKN018 OVC024 M04/M07 A2972 RMK AO2 SLP079 T10391067 58018
0211726580149222017011003537+44883-093229FM-15+0255KMSP V0201605N00415005185MN0144845N5-00335-00675100655ADDAA101000095GA1085+005185999GD14991+0051859GE19MSL   +99999+99999GF199999999999005181999999MA1100545097535REMMET09401/09/17 21:53:02 METAR KMSP 100353Z 16008KT 9SM OVC017 M03/M07 A2969 RMK AO2 SLP065 T10331067
0232726580149222017011004197+44883-093229FM-16+0255KMSP V0201705N00465076205MN0160935N5-00335-00675999999ADDGA1045+005495999GA2085+076205999GD12991+0054959GD24991+0762059GE19MSL   +99999+99999GF199999999999005491999999MA1100515097505REMMET09501/09/17 22:19:02 SPECI KMSP 100419Z 17009KT 10SM SCT018 OVC250 M03/M07 A2968 RMK AO2 T10331067
0212726580149222017011004537+44883-093229FM-15+0255KMSP V0201605N00365054865MN0160935N5-00285-00615100605ADDAA101000095GA1085+054865999GD14991+0548659GE19MSL   +99999+99999GF199999999999054861999999MA1100475097475REMMET09501/09/17 22:53:02 METAR KMSP 100453Z 16007KT 10SM OVC180 M03/M06 A2967 RMK AO2 SLP060 T10281061
0329726580149222017011005537+44883-093229FM-15+0255KMSP V0201605N00415042675MN0160935N5-00285-00615100495ADDAA101000095AJ100039500025099GA1085+042675999GD14991+0426759GE19MSL   +99999+99999GF199999999999042671999999KA1060M-00281KA2060N-00501KA3240M-00281KA4240N-00831MA1100375097375MD1690289+9999REMMET12901/09/17 23:53:02 METAR KMSP 100553Z 16008KT 10SM OVC140 M03/M06 A2964 RMK AO2 SLP049 4/001 T10281061 11028 21050 410281083 56028
0998726580149222017011005596+44883-093229SOD  +0255KMSP V020999999999999999999999999999+99999+99999999999ADDAA124001895AJ100003599999999AL12401895AN1024001895AT1AU18SN  5AT2AU13BR  5AT3AU08HZ  5AX1015245AX2085245KA1240M-00275KA2240N-00825MG1098244100474OE11240125212099995OE22240098313099995OE33240037699999995REMSOD78424 HR PRECIPITATION (IN): 0.07 SNOW DEPTH (IN):T     24 HR SNOWFALL (IN):0.7  WEATHER(CODE):18  24 HR MAX TEMP (F): 2724 HR MIN TEMP (F): 17AVERAGE STATION PRESSURE:29.010 MINIMUM SEA LEVEL PRESSURE:29.67 TIME OF OCCURRENCE:2359 PEAK WIND SPEED (MPH): 28 PEAK WIND DIR (DEG):120 PEAK WIND TIME (LST):      FASTEST 2MIN SPEED (MPH): 22FASTEST 2MIN DIR (DEG):130 FASTEST 2MIN TIME (LST):     AVERAGE WIND SPEED (MPH): 8.4 24 HR AVG TEMP (F): 22DEPART FROM NORMAL:  7  SKY COVER SR-SS (TENTHS): 1HEATING DEGREE DAYS: 43 COOLING DEGREE DAYS:  0 LATEST DAY MAX TEMP (0700-1900 LST):24  LATEST NIGHT MIN TEMP(1900-0800 LST):15 HOURLY INCREMENTAL PRECIPITATION VALUES (IN):.00 0.00 0.00 0.00 0.00 0.00 T    0.00 0.00 0.00 0.00 0.00 T    0.01 0.04 0.01 0.01 0.00 0.00 0.00 0.00 0.00 0.00 0.00
0218726580149222017011006004+44883-093217FM-12+025599999V0201601N004119999999N016000199-00281-00611100491ADDAJ100033100030099GE19MSL   +99999+99999GF108991999999999999999999KA1240M-00281KA2240N-00831MA1999999097251MD1610281+9999REMSYN08672658 32966 81608 11028 21061 39725 40049 56028 90553 333 11028 21083 4/003 555 91006=
0217726580149222017011006537+44883-093229FM-15+0255KMSP V0201405N00365042675MN0160935N5-00285-00615100355ADDAA101000095GA1085+042675999GD14991+0426759GE19MSL   +99999+99999GF199999999999042671999999MA1100245097245REMMET10001/10/17 00:53:02 METAR KMSP 100653Z 14007KT 10SM OVC140 M03/M06 A2960 RMK AO2 SLP035 T10281061 (AP)
0217726580149222017011007537+44883-093229FM-15+0255KMSP V0201305N00265051825MN0160935N5-00335-00615100325ADDAA101000095GA1085+051825999GD14991+0518259GE19MSL   +99999+99999GF199999999999051821999999MA1100205097205REMMET10001/10/17 01:53:02 METAR KMSP 100753Z 13005KT 10SM OVC170 M03/M06 A2959 RMK AO2 SLP032 T10331061 (AP)
0236726580149222017011008537+44883-093229FM-15+0255KMSP V0201105N00415036585MN0144845N5-00335-00615100175ADDAA101000095GA1085+036585999GD14991+0365859GE19MSL   +99999+99999GF199999999999036581999999MA1100035097045MD1890319+9999REMMET10501/10/17 02:53:02 METAR KMSP 100853Z 11008KT 9SM OVC120 M03/M06 A2954 RMK AO2 SLP017 T10331061 58031 (AP)
0254726580149222017011009537+44883-093229FM-15+0255KMSP V0201205N00515030485MN0144845N5-00335-00615099995ADDAA101000095GA1075+030485999GA2085+036585999GD13991+0304859GD24991+0365859GE19MSL   +99999+99999GF199999999999030481999999MA1099865096875REMMET10601/10/17 03:53:02 METAR KMSP 100953Z 12010KT 9SM BKN100 OVC120 M03/M06 A2949 RMK AO2 SLP999 T10331061 (AP)
0307726580149222017011010537+44883-093229FM-15+0255KMSP V0201305N00415025915MN0144845N5-00335-00615099895ADDAA101000025GA1025+019815999GA2075+025915999GA3085+030485999GD11991+0198159GD23991+0259159GD34991+0304859GE19MSL   +99999+99999GF199999999999019811999999MA1099765096775REMMET12801/10/17 04:53:02 METAR KMSP 101053Z 13008KT 9SM FEW065 BKN085 OVC100 M03/M06 A2946 RMK AO2 SNB24E34 SLP989 P0000 T10331061 (AP)
0255726580149222017011011197+44883-093229FM-16+0255KMSP V0201105N00465018295MN0080475N5-00225-00505999999ADDAA101000231AU118020025AU220030035AW1645AW2675AW3715GA1085+018295999GD14991+0182959MA1099735096745WA1900099REMMET11801/10/17 05:19:02 SPECI KMSP 101119Z 11009KT 5SM -FZRASN OVC060 M02/M05 A2945 RMK AO2 SNB56 P0001 I1000 T10221050 (AP)EQDD01      0ADE735
0262726580149222017011011247+44883-093229FM-16+0255KMSP V0201205N00515018295MN0080475N5-00225-00505999999ADDAA101000231AU118020025AU220030035AW1645AW2675AW3715GA1085+018295999GD14991+0182959MA1099705096715WA1900099REMMET12501/10/17 05:24:02 SPECI KMSP 101124Z 12010KT 5SM -FZRASN OVC060 M02/M05 A2944 RMK AO2 SNB56FZRAB13 P0001 I1000 T10221050 (AP)EQDD01      0ADE735
0286726580149222017011011377+44883-093229FM-16+0255KMSP V0201205N00515018295MN0080475N5-00225-00505999999ADDAA101000531AU118020025AU220030025AU320060035AW1645AW2675AW3715AW4745GA1085+018295999GD14991+0182959MA1099705096715WA1900099REMMET13201/10/17 05:37:02 SPECI KMSP 101137Z 12010KT 5SM -FZRASNPL OVC060 M02/M05 A2944 RMK AO2 SNB56FZRAB13PLB13 P0002 I1000 T10221050 (AP)EQDD01      0ADE735
0466726580149222017011011537+44883-093229FM-15+0255KMSP V0201005N00415016765MN0064375N5-00225-00445099795ADDAA101000895AA206000891AA324002591AJ100039500025099AU118020025AU220030025AU320060035AU400001015AW1105AW2645AW3675AW4715AW5745GA1085+016765999GD14991+0167659KA1060M-00221KA2060N-00331MA1099705096715MD1690359+9999WA1900099REMMET18401/10/17 05:53:02 METAR KMSP 101153Z 10008KT 4SM -FZRASNPL BR OVC055 M02/M04 A2944 RMK AO2 SLP979 SNB56FZRAB13PLB13 4/001 P0003 60003 70010 I1000 I6000 T10221044 11022 21033 56035 (AP)EQDQ01  00078PRCP06Q02  00258PRCP24D01      0ADE735
0304726580149222017011012004+44883-093217FM-12+025599999V0201001N004119999999N006000199-00221-00441099791ADDAA106000831AA224002531AJ100033100030099GA1999+017501999GE19MSL   +99999+99999GF108991999999017501999999KA1240N-00501MA1999999096591MD1610351+9999MW1791REMSYN12272658 11756 81008 11022 21044 39659 49979 56035 69981 779// 91153 333 11028 21050 4/003 70025 96073 96079 96010 555 91012=EQDQ01-2.8  2EATMX 
0013726580149222017011012004+44883-093229SHEF +999999999V020999999999999999999999999999+99999+99999999999ADDAL19900531
0268726580149222017011012227+44883-093229FM-16+0255KMSP V0201205N00415014635MN0032195N5-00225-00505999999ADDAA101000231AU118020025AU220030025AU320060035AW1645AW2675AW3715AW4745GA1085+014635999GD14991+0146359MA1099665096675WA1900099REMMET11401/10/17 06:22:02 SPECI KMSP 101222Z 12008KT 2SM -FZRASNPL OVC048 M02/M05 A2943 RMK AO2 P0001 I1000 T10221050 (AP)EQDD01      0ADE735
0313726580149222017011012437+44883-093229FM-16+0255KMSP V0201305N00265013415MN0032195N5-00285-00445999999ADDAA101000531AU118020025AU220030035AU300001015AW1105AW2645AW3675AW4715GA1045+007015999GA2085+013415999GD12991+0070159GD24991+0134159MA1099665096675WA1900099REMMET12801/10/17 06:43:02 SPECI KMSP 101243Z 13005KT 2SM -FZRASN BR SCT023 OVC044 M03/M04 A2943 RMK AO2 PLE42 P0002 I1000 T10281044 (AP)EQDD01      0ADE735
0249726580149222017011012516+44883-093229FM-16+0255KMSP V0201205N00365013415MN0048285N5-00305-00405999999ADDAU110030015AU200001015AW1105AW2715GA1045+007015999GA2085+013415999GD12991+0070159GD24991+0134159MA1099635096645REMMET12601/10/17 06:51:02 SPECI KMSP 101251Z 12007KT 3SM -SN BR SCT023 OVC044 M03/M04 A2942 RMK AO2 FZRAE51PLE42 P0003 I1000 FIBI (AP)
0367726580149222017011012537+44883-093229FM-15+0255KMSP V0201205N00365013415MN0048285N5-00285-00445099725ADDAA101000895AU110030015AU200001015AW1105AW2715GA1025+007015999GA2045+008235999GA3085+013415999GD11991+0070159GD22991+0082359GD34991+0134159GE19MSL   +99999+99999GF199999999999007011999999MA1099635096645WA1900099REMMET14501/10/17 06:53:02 METAR KMSP 101253Z 12007KT 3SM -SN BR FEW023 SCT027 OVC044 M03/M04 A2942 RMK AO2 FZRAE51PLE42 SLP972 P0003 I1000 T10281044 (AP)
0308726580149222017011013427+44883-093229FM-16+0255KMSP V0201405N00265004575MN0080475N5-00285-00445999999ADDAA101000231AU110030015AU200001015AW1105AW2715GA1075+004575999GA2085+014335999GD13991+0045759GD24991+0143359GE19MSL   +99999+99999GF199999999999004571999999MA1099595096615REMMET12601/10/17 07:42:02 SPECI KMSP 101342Z 14005KT 5SM -SN BR BKN015 OVC047 M03/M04 A2941 RMK AO2 PCPN VRY LGT P0001 T10281044 (CLB)
0216726580149222017011013516+44883-093229FM-16+0255KMSP V0201305N00155004275MN0048285N5-00305-00405999999ADDAU110030015AU200001015AW1105AW2715GA1085+004275999GD14991+0042759MA1099565096575REMMET12401/10/17 07:51:02 SPECI KMSP 101351Z 13003KT 3SM -SN BR OVC014 M03/M04 A2940 RMK AO2 SFC VIS 4 PCPN VRY LGT P0001 FIBI (CLB)
0274726580149222017011013537+44883-093229FM-15+0255KMSP V0201105N00215004275MN0048285N5-00285-00445099655ADDAA101000595AU110030015AU200001015AW1105AW2715GA1085+004275999GD14991+0042759GE19MSL   +99999+99999GF199999999999004271999999MA1099565096575REMMET12301/10/17 07:53:02 METAR KMSP 101353Z 11004KT 3SM -SN BR OVC014 M03/M04 A2940 RMK AO2 SFC VIS 4 SLP965 P0001 T10281044 (CLB)
0261726580149222017011014067+44883-093229FM-16+0255KMSP V0201005N00155004275MN0028165N5-00285-00395999999ADDAA101000231AU110030015AU200001015AW1105AW2715GA1085+004275999GD14991+0042759GE19MSL   +99999+99999GF199999999999004271999999MA1099535096545REMMET11001/10/17 08:06:02 SPECI KMSP 101406Z 10003KT 1 3/4SM -SN BR OVC014 M03/M04 A2939 RMK AO2 P0001 T10281039 (CLB)
0277726580149222017011014157+44883-093229FM-16+0255KMSP V0209999V00155004275MN0012075N5-00225-00395999999ADDAA101000531AU110030015AU200001015AW1105AW2715GA1085+004275999GD14991+0042759GE19MSL   +99999+99999GF199999999999004271999999MA1099535096545REMMET12601/10/17 08:15:02 SPECI KMSP 101415Z VRB03KT 3/4SM R30L/5500VP6000FT -SN BR OVC014 M02/M04 A2939 RMK AO2 P0002 T10221039 (CLB)
0392726580149222017011014537+44883-093229FM-15+0255KMSP V0203505N00315003055WN0008055N5-00225-00395099565ADDAA101001395AA203002591AJ100059100051099AL10199999AU120030015AU208002015AW1355AW2725GA1095+003055999GD15991+0030559GE19MSL   +99999+99999GF109991999999003051999999MA1099465096485MD1890229+9999WA1900099REMMET16101/10/17 08:53:02 METAR KMSP 101453Z 35006KT 1/2SM R30L/2800V4000FT SN FZFG VV010 M02/M04 A2937 RMK AO2 SLP956 SNINCR 1/2 P0006 60010 I3000 T10221039 58022 (CLB)EQDQ01  00258PRCP03
0278726580149222017011015017+44883-093229FM-16+0255KMSP V0203405N00315003055MN0020125N5-00285-00395999999ADDAA101000021AU110030015AU200001015AW1105AW2715GA1085+003055999GD14991+0030559GE19MSL   +99999+99999GF199999999999003051999999MA1099465096485REMMET12701/10/17 09:01:02 SPECI KMSP 101501Z 34006KT 1 1/4SM R30L/3000V5000FT -SN BR OVC010 M03/M04 A2937 RMK AO2 P0000 T10281039 (CLB)
0275726580149222017011015097+44883-093229FM-16+0255KMSP V0203305N00315003665MN0032195N5-00285-00395999999ADDAA101000021AU110030015AU200001015AW1105AW2715GA1085+003665999GD14991+0036659GE19MSL   +99999+99999GF199999999999003661999999MA1099465096485REMMET12401/10/17 09:09:02 SPECI KMSP 101509Z 33006KT 2SM R30L/4000VP6000FT -SN BR OVC012 M03/M04 A2937 RMK AO2 P0000 T10281039 (CLB)
0313726580149222017011015167+44883-093229FM-16+0255KMSP V0203305N00265004575MN0032195N5-00285-00395999999ADDAA101000231AU110030015AU200001015AW1105AW2715GA1025+002135999GA2085+004575999GD11991+0021359GD24991+0045759GE19MSL   +99999+99999GF199999999999002131999999MA1099465096485REMMET13101/10/17 09:16:02 SPECI KMSP 101516Z 33005KT 2SM R30L/5500VP6000FT -SN BR FEW007 OVC015 M03/M04 A2937 RMK AO2 P0001 T10281039 (CLB)
0355726580149222017011015317+44883-093229FM-16+0255KMSP V0203205N00365004575MN0020125N5-00225-00395999999ADDAA101000231AU110030015AU200001015AW1105AW2715GA1025+002135999GA2075+004575999GA3085+006715999GD11991+0021359GD23991+0045759GD34991+0067159GE19MSL   +99999+99999GF199999999999002131999999MA1099465096485REMMET14201/10/17 09:31:02 SPECI KMSP 101531Z 32007KT 1 1/4SM R30L/6000VP6000FT -SN BR FEW007 BKN015 OVC022 M02/M04 A2937 RMK AO2 P0001 T10221039 (CLB)
0315726580149222017011015387+44883-093229FM-16+0255KMSP V0203205N00465005185MN0012075N5-00225-00395999999ADDAA101000231AU110030015AU200001015AW1105AW2715GA1045+002135999GA2085+005185999GD12991+0021359GD24991+0051859GE19MSL   +99999+99999GF199999999999002131999999MA1099425096445REMMET13301/10/17 09:38:02 SPECI KMSP 101538Z 32009KT 3/4SM R30L/4000VP6000FT -SN BR SCT007 OVC017 M02/M04 A2936 RMK AO2 P0001 T10221039 (CLB)
0321726580149222017011015537+44883-093229FM-15+0255KMSP V0203205N00365004575MN0012075N5-00285-00395099535ADDAA101000595AU110030015AU200001015AW1105AW2715GA1025+001835999GA2085+004575999GD11991+0018359GD24991+0045759GE19MSL   +99999+99999GF199999999999001831999999MA1099425096445REMMET13901/10/17 09:53:02 METAR KMSP 101553Z 32007KT 3/4SM R30L/3500V5500FT -SN BR FEW006 OVC015 M03/M04 A2936 RMK AO2 SLP953 P0002 T10281039 (CLB)
0312726580149222017011016047+44883-093229FM-16+0255KMSP V0203205N00465003965MN0016095N5-00285-00445999999ADDAA101000021AU110030015AU200001015AW1105AW2715GA1025+001835999GA2085+003965999GD11991+0018359GD24991+0039659GE19MSL   +99999+99999GF199999999999001831999999MA1099425096445REMMET13001/10/17 10:04:02 SPECI KMSP 101604Z 32009KT 1SM R30L/4000V5000FT -SN BR FEW006 OVC013 M03/M04 A2936 RMK AO2 P0000 T10281044 (CLB)
0316726580149222017011016127+44883-093229FM-16+0255KMSP V0203205N00415003965MN0024145N5-00285-00445999999ADDAA101000231AU110030015AU200001015AW1105AW2715GA1025+002445999GA2085+003965999GD11991+0024459GD24991+0039659GE19MSL   +99999+99999GF199999999999002441999999MA1099425096445REMMET13401/10/17 10:12:02 SPECI KMSP 101612Z 32008KT 1 1/2SM R30L/3500V5000FT -SN BR FEW008 OVC013 M03/M04 A2936 RMK AO2 P0001 T10281044 (CLB)
0316726580149222017011016197+44883-093229FM-16+0255KMSP V0203205N00465004575MN0024145N5-00285-00445999999ADDAA101000231AU110030015AU200001015AW1105AW2715GA1045+002445999GA2085+004575999GD12991+0024459GD24991+0045759GE19MSL   +99999+99999GF199999999999002441999999MA1099425096445REMMET13401/10/17 10:19:02 SPECI KMSP 101619Z 32009KT 1 1/2SM R30L/4000V6000FT -SN BR SCT008 OVC015 M03/M04 A2936 RMK AO2 P0001 T10281044 (CLB)
0315726580149222017011016317+44883-093229FM-16+0255KMSP V0203105N00465005185MN0012075N5-00285-00445999999ADDAA101000231AU110030015AU200001015AW1105AW2715GA1045+002445999GA2085+005185999GD12991+0024459GD24991+0051859GE19MSL   +99999+99999GF199999999999002441999999MA1099425096445REMMET13301/10/17 10:31:02 SPECI KMSP 101631Z 31009KT 3/4SM R30L/3500VP6000FT -SN BR SCT008 OVC017 M03/M04 A2936 RMK AO2 P0001 T10281044 (CLB)
0315726580149222017011016387+44883-093229FM-16+0255KMSP V0203105N00465002445MN0008055N5-00285-00445999999ADDAA101000231AU120030015AU208002015AW1355AW2725GA1075+002445999GA2085+005185999GD13991+0024459GD24991+0051859GE19MSL   +99999+99999GF199999999999002441999999MA1099425096445REMMET13301/10/17 10:38:02 SPECI KMSP 101638Z 31009KT 1/2SM R30L/3000V5500FT SN FZFG BKN008 OVC017 M03/M04 A2936 RMK AO2 P0001 T10281044 (CLB)
0315726580149222017011016427+44883-093229FM-16+0255KMSP V0203105N00575004575MN0008055N5-00285-00445999999ADDAA101000531AU120030015AU208002015AW1355AW2725GA1045+001835999GA2085+004575999GD12991+0018359GD24991+0045759GE19MSL   +99999+99999GF199999999999001831999999MA1099425096445REMMET13301/10/17 10:42:02 SPECI KMSP 101642Z 31011KT 1/2SM R30L/2800V3500FT SN FZFG SCT006 OVC015 M03/M04 A2936 RMK AO2 P0002 T10281044 (CLB)
0305726580149222017011016497+44883-093229FM-16+0255KMSP V0203205N00625003965MN0008055N5-00305-00405999999ADDAA101000731AU120030015AU208002015AW1355AW2725GA1045+002135999GA2085+003965999GD12991+0021359GD24991+0039659GE19MSL   +99999+99999GF199999999999002131999999MA1099425096445REMMET12301/10/17 10:49:02 SPECI KMSP 101649Z 32012KT 1/2SM R30L/2800V3000FT SN FZFG SCT007 OVC013 M03/M04 A2936 RMK AO2 P0003 (CLB)
0322726580149222017011016537+44883-093229FM-15+0255KMSP V0203105N00625003355MN0008055N5-00285-00445099515ADDAA101000895AU120030015AU208002015AW1355AW2725GA1025+001525999GA2085+003355999GD11991+0015259GD24991+0033559GE19MSL   +99999+99999GF199999999999001521999999MA1099395096415REMMET14001/10/17 10:53:02 METAR KMSP 101653Z 31012KT 1/2SM R30L/2800V3500FT SN FZFG FEW005 OVC011 M03/M04 A2935 RMK AO2 SLP951 P0003 T10281044 (CLB)
0355726580149222017011017097+44883-093229FM-16+0255KMSP V0203205N00885003355MN0016095N5-00335-00565999999ADDAA101000231AU110030015AU200001015AW1105AW2715GA1045+002135999GA2085+003355999GD12991+0021359GD24991+0033559GE19MSL   +99999+99999GF199999999999002131999999MA1099395096415OC101345OD149901331320REMMET15101/10/17 11:09:02 SPECI KMSP 101709Z 32017G26KT 1SM R30L/3000V4500FT -SN BR SCT007 OVC011 M03/M06 A2935 RMK AO2 PK WND 32026/1707 P0001 T10331056 (CLB)
0359726580149222017011017157+44883-093229FM-16+0255KMSP V0203105N00825003965MN0024145N5-00335-00565999999ADDAA101000231AU110030015AU200001015AW1105AW2715GA1045+002135999GA2085+003965999GD12991+0021359GD24991+0039659GE19MSL   +99999+99999GF199999999999002131999999MA1099365096385OC101345OD149901331320REMMET15501/10/17 11:15:02 SPECI KMSP 101715Z 31016G26KT 1 1/2SM R30L/3500V6000FT -SN BR SCT007 OVC013 M03/M06 A2934 RMK AO2 PK WND 32026/1707 P0001 T10331056 (CLB)
0325726580149222017011017257+44883-093229FM-16+0255KMSP V0203105N00725003055MN0048285N5-00335-00615999999ADDAA101000231AU110030015AW1715GA1075+003055999GA2085+004575999GD13991+0030559GD24991+0045759GE19MSL   +99999+99999GF199999999999003051999999MA1099395096415OD149901331320REMMET14601/10/17 11:25:02 SPECI KMSP 101725Z 31014KT 3SM R30L/5500VP6000FT -SN BKN010 OVC015 M03/M06 A2935 RMK AO2 PK WND 32026/1707 P0001 T10331061 (CLB)
0359726580149222017011017327+44883-093229FM-16+0255KMSP V0203105N00985003055MN0008055N5-00395-00615999999ADDAA101000231AU120030015AU208002015AW1355AW2725GA1075+003055999GA2085+004575999GD13991+0030559GD24991+0045759GE19MSL   +99999+99999GF199999999999003051999999MA1099395096415OC101345OD149901331310REMMET15501/10/17 11:32:02 SPECI KMSP 101732Z 31019G26KT 1/2SM R30L/3000VP6000FT SN FZFG BKN010 OVC015 M04/M06 A2935 RMK AO2 PK WND 31026/1730 P0001 T10391061 (CLB)
0356726580149222017011017407+44883-093229FM-16+0255KMSP V0203105N00885003665MN0016095N5-00395-00615999999ADDAA101000531AU110030015AU200001015AW1105AW2715GA1075+003665999GA2085+005185999GD13991+0036659GD24991+0051859GE19MSL   +99999+99999GF199999999999003661999999MA1099395096415OC101135OD149901331310REMMET15201/10/17 11:40:02 SPECI KMSP 101740Z 31017G22KT 1SM R30L/2800VP6000FT -SN BR BKN012 OVC017 M04/M06 A2935 RMK AO2 PK WND 31026/1730 P0002 T10391061 (CLB)
0325726580149222017011017507+44883-093229FM-16+0255KMSP V0203105N00675005185MN0016095N5-00405-00705999999ADDAA101000731AU110030015AW1715GA1045+003665999GA2085+005185999GD12991+0036659GD24991+0051859GE19MSL   +99999+99999GF199999999999003661999999MA1099395096415OC101245OD149901331310REMMET13801/10/17 11:50:02 SPECI KMSP 101750Z 31013G24KT 1SM R30L/4000V6000FT -SN SCT012 OVC017 M04/M07 A2935 RMK AO2 PK WND 31026/1730 P0003 (CLB)
0474726580149222017011017537+44883-093229FM-15+0255KMSP V0203105N00935005185MN0016095N5-00395-00675099515ADDAA101000895AA206004691AJ100089500076099AU110030015AW1715GA1045+003355999GA2085+005185999GD12991+0033559GD24991+0051859GE19MSL   +99999+99999GF199999999999003351999999KA1060M-00221KA2060N-00391MA1099425096445MD1390009+9999OC101135OD149901331310WA1900099REMMET19101/10/17 11:53:02 METAR KMSP 101753Z 31018G22KT 1SM R30L/3500V5000FT -SN SCT011 OVC017 M04/M07 A2936 RMK AO2 PK WND 31026/1730 SLP951 4/003 P0003 60018 I6000 T10391067 11022 21039 53000 (CLB)EQDQ01  00458PRCP06
0288726580149222017011018004+44883-093217FM-12+025599999V0203101N009319999999N001600199-00391-00671099511ADDAA106005031AJ100083100080099GA1999+004501999GE19MSL   +99999+99999GF108991999999004501999999KA1120M-00221KA2120N-00611MA1999999096321MW1711OD149901131999REMSYN10472658 11416 83118 11039 21067 39632 49951 53000 60051 771// 91753 333 11022 21061 4/008 91022 555 91018=EQDQ013     3APCTEN
0324726580149222017011018007+44883-093229FM-16+0255KMSP V0203105N01035005185MN0032195N5-00445-00675999999ADDAA101000021AU110030015AU200001015AW1105AW2715GA1025+003355999GA2085+005185999GD11991+0033559GD24991+0051859GE19MSL   +99999+99999GF199999999999003351999999MA1099425096445OC101295REMMET13401/10/17 12:00:02 SPECI KMSP 101800Z 31020G25KT 2SM R30L/3500VP6000FT -SN BR FEW011 OVC017 M04/M07 A2936 RMK AO2 P0000 T10441067 (CLB)
0013726580149222017011018004+44883-093229SHEF +999999999V020999999999999999999999999999+99999+99999999999ADDAL19900131
0329726580149222017011018537+44883-093229FM-15+0255KMSP V0203105N01035005185MN0028165N5-00565-00895099595ADDAA101000395AU110030015AW1715GA1075+005185999GA2085+007625999GD13991+0051859GD24991+0076259GE19MSL   +99999+99999GF199999999999005181999999MA1099495096515OC101295OD149901441310REMMET14201/10/17 12:53:02 METAR KMSP 101853Z 31020G25KT 1 3/4SM -SN BKN017 OVC025 M06/M09 A2938 RMK AO2 PK WND 31028/1808 SLP959 P0001 T10561089 (CLB)
0293726580149222017011019047+44883-093229FM-16+0255KMSP V0203105N00775005185MN0016095N5-00565-00835999999ADDAA101000021AU110030015AW1715GA1075+005185999GA2085+006715999GD13991+0051859GD24991+0067159GE19MSL   +99999+99999GF199999999999005181999999MA1099535096545REMMET12801/10/17 13:04:02 SPECI KMSP 101904Z 31015KT 1SM R30L/3500VP6000FT -SN BKN017 OVC022 M06/M08 A2939 RMK AO2 P0000 T10561083 (CLB)
0310726580149222017011019217+44883-093229FM-16+0255KMSP V0203005N00725004885MN0012075N5-00675-00945999999ADDAA101000231AU110030015AW1715GA1075+004885999GA2085+006405999GD13991+0048859GD24991+0064059GE19MSL   +99999+99999GF199999999999004881999999MA1099565096575OC101185REMMET13701/10/17 13:21:02 SPECI KMSP 101921Z 30014G23KT 3/4SM R30L/3500V6000FT -SN BKN016 OVC021 M07/M09 A2940 RMK AO2 DRSN P0001 T10671094 (CLB)
0386726580149222017011019377+44883-093229FM-16+0255KMSP V0202905N01135004885MN0016095N5-00725-01005999999ADDAA101000231AU110030015AW1715GA1075+004885999GA2075+006405999GA3085+008235999GD13991+0048859GD23991+0064059GD34991+0082359GE19MSL   +99999+99999GF199999999999004881999999MA1099635096645OC101395OD149901391300REMMET16801/10/17 13:37:02 SPECI KMSP 101937Z 29022G27KT 1SM R30L/4000VP6000FT -SN BKN016 BKN021 OVC027 M07/M10 A2942 RMK AO2 PK WND 30027/1929 PRESRR DRSN P0001 T10721100 (CLB)
0335726580149222017011019516+44883-093229FM-16+0255KMSP V0203005N01035005495MN0048285N5-00805-01205999999ADDAU110030015AU225030015AW1275AW2715GA1025+003965999GA2075+005495999GA3085+007925999GD11991+0039659GD23991+0054959GD34991+0079259MA1099735096745OC101545REMMET17301/10/17 13:51:02 SPECI KMSP 101951Z 30020G30KT 3SM R30L/6000VP6000FT -SN BLSN FEW013 BKN018 OVC026 M08/M12 A2945 RMK AO2 PK WND 30030/1944 SFC VIS 5 PRESRR P0001 FIBI (CLB)
0394726580149222017011019537+44883-093229FM-15+0255KMSP V0203005N00935005495MN0048285N5-00835-01175099845ADDAA101000395AU110030015AU225030015AW1275AW2715GA1075+005495999GA2085+007925999GD13991+0054959GD24991+0079259GE19MSL   +99999+99999GF199999999999005491999999MA1099735096745OC101545OD149901541300REMMET19001/10/17 13:53:02 METAR KMSP 101953Z 30018G30KT 3SM R30L/6000VP6000FT -SN BLSN BKN018 OVC026 M08/M12 A2945 RMK AO2 PK WND 30030/1944 SFC VIS 5 PRESRR SLP984 VIS E 2 1/2 P0001 T10831117 (CLB)
0313726580149222017011020027+44883-093229FM-16+0255KMSP V0202905N00825006405MN0144845N5-00835-01175999999ADDAA101000021AU110030015AW1715GA1025+004275999GA2075+006405999GA3085+011585999GD11991+0042759GD23991+0064059GD34991+0115859GE19MSL   +99999+99999GF199999999999004271999999MA1099735096745REMMET11701/10/17 14:02:02 SPECI KMSP 102002Z 29016KT 9SM -SN FEW014 BKN021 OVC038 M08/M12 A2945 RMK AO2 P0000 T10831117 (CLB)
0357726580149222017011020237+44883-093229FM-16+0255KMSP V0203005N00825015245MN0160935N5-00895-01335999999ADDAA101000021GA1045+005185999GA2045+011585999GA3075+015245999GD12991+0051859GD22991+0115859GD33991+0152459GD43991+0457219GE19MSL   +99999+99999GF199999999999005181999999MA1099765096775OC101245OD149901331310REMMET14101/10/17 14:23:02 SPECI KMSP 102023Z 30016G24KT 10SM SCT017 SCT038 BKN050 M09/M13 A2946 RMK AO2 PK WND 31026/2010 SNE17 P0000 T10891133 (CLB)
0432726580149222017011020537+44883-093229FM-15+0255KMSP V0203005N00725039625MN0160935N5-00895-01395100035ADDAA101000025AA203000591GA1025+007625999GA2045+033535999GA3075+039625999GD11991+0076259GD22991+0335359GD33991+0396259GD44991+0762019GE19MSL   +99999+99999GF199999999999007621999999MA1099905096915MD1390489+9999OC101185OD149901441300REMMET17201/10/17 14:53:02 METAR KMSP 102053Z 30014G23KT 10SM FEW025 SCT110 BKN130 M09/M14 A2950 RMK AO2 PK WND 30028/2036 PRESRR SLP003 SNE17 DRSN P0000 60002 T10891139 53048 (CLB)EQDQ01  00058PRCP03
0339726580149222017011021427+44883-093229FM-16+0255KMSP V0202905N009852200059N0160935N5-01065-01445999999ADDGA1025+007015999GA2045+008535999GA3045+042675999GD11991+0070159GD22991+0085359GD32991+0426759GD44991+0762019GE19MSL   +99999+99999GF199999999999007011999999MA1100075097075OC101295OD149901391280REMMET13401/10/17 15:42:02 SPECI KMSP 102142Z 29019G25KT 10SM FEW023 SCT028 SCT140 M11/M14 A2955 RMK AO2 PK WND 28027/2054 DRSN T11061144 (JDB)
0342726580149222017011021537+44883-093229FM-15+0255KMSP V0203005N01085091445MN0160935N5-01065-01565100235ADDAA101000095GA1045+007015999GA2045+064015999GA3075+091445999GD12991+0070159GD22991+0640159GD33991+0914459GE19MSL   +99999+99999GF199999999999007011999999MA1100105097105OC101395OD149901391280REMMET14101/10/17 15:53:02 METAR KMSP 102153Z 30021G27KT 10SM SCT023 SCT210 BKN300 M11/M16 A2956 RMK AO2 PK WND 28027/2054 SLP023 DRSN T11061156 (JDB)
0293726580149222017011022317+44883-093229FM-16+0255KMSP V0202805N008252200059N0160935N5-01115-01615999999ADDGA1025+007015999GA2025+091445999GD11991+0070159GD21991+0914459GE19MSL   +99999+99999GF199999999999007011999999MA1100305097305OC101295OD149901391280REMMET13401/10/17 16:31:02 SPECI KMSP 102231Z 28016G25KT 10SM FEW023 FEW300 M11/M16 A2962 RMK AO2 PK WND 28027/2205 PRESRR DRSN T11111161 (JDB)
0293726580149222017011022537+44883-093229FM-15+0255KMSP V0202805N007252200059N0160935N5-01175-01675100495ADDAA101000095GA1025+007015999GA2025+091445999GD11991+0070159GD21991+0914459GE19MSL   +99999+99999GF199999999999007011999999MA1100345097335OD149901391280REMMET13101/10/17 16:53:02 METAR KMSP 102253Z 28014KT 10SM FEW023 FEW300 M12/M17 A2963 RMK AO2 PK WND 28027/2205 SLP049 DRSN T11171167 (JDB)
0364726580149222017011023537+44883-093229FM-15+0255KMSP V0202805N007752200059N0160935N5-01285-01725100665ADDAA101000095AA206000591AJ100089500076099GA1025+006405999GD11991+0064059GE19AGL   +99999+99999GF102995999999006401999999KA1060M-00391KA2060N-01281MA1100515097505MD1190609+9999OC101345REMMET15201/10/17 17:53:02 METAR KMSP 102353Z 28015G26KT 10SM FEW021 M13/M17 A2968 RMK AO2 PK WND 28026/2349 SLP066 4/003 60002 T11281172 11039 21128 51060 (JDB)EQDD01      0ADE726
0271726580149222017011100004+44883-093217FM-12+025599999V0202801N007719999999N016000199-01281-01721100661ADDAA106000531AJ100083100080099GA1999+008001999GE19MSL   +99999+99999GF102991999999008001999999KA1120M-00221KA2120N-01281MA1999999097381MD1110601+9999OD149901341999REMSYN09872658 12566 22815 11128 21172 39738 40066 51060 69951 92353 333 11022 21128 4/008 91026 555 91100=
0242726580149222017011100537+44883-093229FM-15+0255KMSP V0202805N007252200059N0160935N5-01335-01835100855ADDAA101000095GA1025+006405999GD11991+0064059GE19AGL   +99999+99999GF102995999999006401999999MA1100715097705OC101085REMMET09801/10/17 18:53:01 METAR KMSP 110053Z 28014G21KT 10SM FEW021 M13/M18 A2974 RMK AO2 SLP085 T11331183EQDD01      0ADE726
0242726580149222017011101537+44883-093229FM-15+0255KMSP V0202705N006252200059N0160935N5-01395-01835101005ADDAA101000095GA1025+006405999GD11991+0064059GE19AGL   +99999+99999GF102995999999006401999999MA1100855097835OC101035REMMET09801/10/17 19:53:01 METAR KMSP 110153Z 27012G20KT 10SM FEW021 M14/M18 A2978 RMK AO2 SLP100 T11391183EQDD01      0ADE726
0251726580149222017011102537+44883-093229FM-15+0255KMSP V0202605N004152200059N0160935N5-01445-01895101135ADDAA101000095GA1025+006405999GD11991+0064059GE19AGL   +99999+99999GF102995999999006401999999MA1100985097965MD1190459+9999REMMET10101/10/17 20:53:02 METAR KMSP 110253Z 26008KT 10SM FEW021 M14/M19 A2982 RMK AO2 SLP113 T11441189 51045EQDD01      0ADE726
0250726580149222017011103537+44883-093229FM-15+0255KMSP V0202605N00465067065MN0160935N5-01505-01945101215ADDAA101000095GA1075+067065999GA2085+091445999GD13991+0670659GD24991+0914459GE19MSL   +99999+99999GF199999999999067061999999MA1101055098035REMMET10201/10/17 21:53:02 METAR KMSP 110353Z 26009KT 10SM BKN220 OVC300 M15/M19 A2984 RMK AO2 SLP121 T11501194
0211726580149222017011104537+44883-093229FM-15+0255KMSP V0202805N00465060965MN0112655N5-01505-01945101255ADDAA101000095GA1085+060965999GD14991+0609659GE19MSL   +99999+99999GF199999999999060961999999MA1101085098065REMMET09401/10/17 22:53:02 METAR KMSP 110453Z 28009KT 7SM OVC200 M15/M19 A2985 RMK AO2 SLP125 T11501194
0367726580149222017011105537+44883-093229FM-15+0255KMSP V0202405N00515030485MN0160935N5-01505-01945101375ADDAA101000095AJ100089500076099GA1045+024385999GA2085+030485999GD12991+0243859GD24991+0304859GE19MSL   +99999+99999GF199999999999024381999999KA1060M-01281KA2060N-01561KA3240M-00221KA4240N-01561MA1101225098195MD1390229+9999REMMET13601/10/17 23:53:02 METAR KMSP 110553Z 24010KT 10SM SCT080 OVC100 M15/M19 A2989 RMK AO2 SLP137 4/003 T11501194 11128 21156 410221156 53022
1134726580149222017011105596+44883-093229SOD  +0255KMSP V020999999999999999999999999999+99999+99999999999ADDAA124005895AJ100039599999999AL12405695AN1024005695AT1AU17FZRA5AT2AU18SN  5AT3AU04PL  5AT4AU22FZFG5AT5AU13BR  5AT6AU09BLSN5AT7AW16RA  5AT8AW01FG  5AX1016246AX2046246AX3066246AX4096246KA1240M-00215KA2240N-01555MG1097194099464OE11240152030099996OE22240111829099995OE33240056899999995REMSOD75924 HR PRECIPITATION (IN): 0.23 SNOW DEPTH (IN):1     24 HR SNOWFALL (IN):2.2  WEATHER(CODE):1469  24 HR MAX TEMP (F): 2824 HR MIN TEMP (F):  4AVERAGE STATION PRESSURE:28.700 MINIMUM SEA LEVEL PRESSURE:29.37 TIME OF OCCURRENCE:1124 PEAK WIND SPEED (MPH): 34 PEAK WIND DIR (DEG):300 PEAK WIND TIME (LST):      FASTEST 2MIN SPEED (MPH): 25FASTEST 2MIN DIR (DEG):290 FASTEST 2MIN TIME (LST):     AVERAGE WIND SPEED (MPH):12.7 24 HR AVG TEMP (F): 16DEPART FROM NORMAL:  1  HEATING DEGREE DAYS: 49 COOLING DEGREE DAYS:  0 LATEST DAY MAX TEMP (0700-1900 LST):28  LATEST NIGHT MIN TEMP(1900-0800 LST):24 HOURLY INCREMENTAL PRECIPITATION VALUES (IN):.00 0.00 0.00 0.00 T    0.03 0.03 0.02 0.05 0.02 0.03 0.03 0.01 0.01 T    0.00 0.00 0.00 0.00 0.00 0.00 0.00 0.00 0.00EQDR01  14697AXW093R02  14697AXW093R03  14697AXW093R04  14697AXW093R05    347OES063
0234726580149222017011106004+44883-093217FM-12+025599999V0202401N005119999999N016000199-01501-01941101371ADDAJ100083100080099GA1999+022501999GE19MSL   +99999+99999GF108991999999022501999999KA1240M-00221KA2240N-01561MA1999999098071MD1310221+9999REMSYN08672658 32866 82410 11150 21194 39807 40137 53022 90553 333 11022 21156 4/008 555 91106=
0013726580149222017011106004+44883-093229SHEF +999999999V020999999999999999999999999999+99999+99999999999ADDAL19900331
0293726580149222017011106537+44883-093229FM-15+0255KMSP V0202805N00365033535MN0160935N5-01505-01945101345ADDAA101000095GA1025+021345999GA2045+025915999GA3085+033535999GD11991+0213459GD22991+0259159GD34991+0335359GE19MSL   +99999+99999GF199999999999021341999999MA1101195098165REMMET11401/11/17 00:53:02 METAR KMSP 110653Z 28007KT 10SM FEW070 SCT085 OVC110 M15/M19 A2988 RMK AO2 SLP134 T11501194 (PL)
0242726580149222017011107227+44883-093229FM-16+0255KMSP V0202405N00415011585MN0032195N5-01505-01945999999ADDAA101000021AU110030015AW1715GA1085+011585999GD14991+0115859GE19MSL   +99999+99999GF199999999999011581999999MA1101155098135REMMET10801/11/17 01:22:02 SPECI KMSP 110722Z 24008KT 2SM -SN OVC038 M15/M19 A2987 RMK AO2 SNB17 P0000 T11501194 (PL)
0256726580149222017011107297+44883-093229FM-16+0255KMSP V0202305N00315008535MN0028165N5-01505-01895999999ADDAA101000021AU110030015AW1715GA1085+008535999GD14991+0085359GE19MSL   +99999+99999GF199999999999008531999999MA1101125098095REMMET12201/11/17 01:29:02 SPECI KMSP 110729Z 23006KT 1 3/4SM -SN OVC028 M15/M19 A2986 RMK AO2 TWR VIS 2 SNB17 P0000 T11501189 (PL)
0272726580149222017011107347+44883-093229FM-16+0255KMSP V0202305N00315006715MN0012075N5-01505-01895999999ADDAA101000021AU110030015AW1715GA1085+006715999GD14991+0067159GE19MSL   +99999+99999GF199999999999006711999999MA1101195098165REMMET13801/11/17 01:34:02 SPECI KMSP 110734Z 23006KT 3/4SM R30L/4500VP6000FT -SN OVC022 M15/M19 A2988 RMK AO2 SFC VIS 1 SNB17 P0000 T11501189 (PL)
0283726580149222017011107497+44883-093229FM-16+0255KMSP V0202405N00265003055WN0008055N5-01605-01805999999ADDAA101000531AU120030015AU208002015AW1355AW2725GA1095+003055999GD15991+0030559GE19MSL   +99999+99999GF109991999999003051999999MA1101155098135REMMET13201/11/17 01:49:02 SPECI KMSP 110749Z 24005KT 1/2SM R30L/4000V5500FT SN FZFG VV010 M16/M18 A2987 RMK AO2 TWR VIS 3/4 SNB17 P0002 (PL)
0287726580149222017011107537+44883-093229FM-15+0255KMSP V0202305N00215002745WN0012075N5-01565-01785101305ADDAA101000895AU110030015AU200001015AW1105AW2715GA1095+002745999GD15991+0027459GE19MSL   +99999+99999GF109991999999002741999999MA1101125098095REMMET13601/11/17 01:53:02 METAR KMSP 110753Z 23004KT 3/4SM R30L/4000V5500FT -SN BR VV009 M16/M18 A2986 RMK AO2 SNB17 SLP130 P0002 T11561178 (PL)
0267726580149222017011108067+44883-093229FM-16+0255KMSP V0202305N00215003055WN0016095N5-01505-01785999999ADDAA101000531AU110030015AW1715GA1095+003055999GD15991+0030559GE19MSL   +99999+99999GF109991999999003051999999MA1101155098135REMMET13301/11/17 02:06:02 SPECI KMSP 110806Z 23004KT 1SM R30L/6000VP6000FT -SN VV010 M15/M18 A2987 RMK AO2 TWR VIS 1 1/2 P0002 T11501178 (PL)
0298726580149222017011108317+44883-093229FM-16+0255KMSP V0202805N00155005185MN0024145N5-01505-01725999999ADDAA101000731AU110030015AU200001015AW1105AW2715GA1075+005185999GA2085+018295999GD13991+0051859GD24991+0182959GE19MSL   +99999+99999GF199999999999005181999999MA1101125098095REMMET11601/11/17 02:31:02 SPECI KMSP 110831Z 28003KT 1 1/2SM -SN BR BKN017 OVC060 M15/M17 A2986 RMK AO2 P0003 T11501172 (PL)
0374726580149222017011108537+44883-093229FM-15+0255KMSP V0203405N00155015245MN0024145N5-01505-01785101235ADDAA101000595AA203001391AJ100109100102099AL10199999GA1025+011585999GA2085+015245999GD11991+0115859GD24991+0152459GE19MSL   +99999+99999GF199999999999011581999999MA1101055098035MD1890129+9999REMMET15501/11/17 02:53:02 METAR KMSP 110853Z 34003KT 1 1/2SM FEW038 OVC050 M15/M18 A2984 RMK AO2 SFC VIS 9 SNE50 SLP123 SNINCR 1/4 P0003 60005 T11501178 58012 (PL)EQDQ01  00128PRCP03
0198726580149222017011109516+44883-093229FM-16+0255KMSP V0209999C00005013115MN0144845N5-01405-01805999999ADDGA1025+008235999GA2085+013115999GD11991+0082359GD24991+0131159MA1100985097965REMMET10901/11/17 03:51:02 SPECI KMSP 110951Z 00000KT 9SM FEW027 OVC043 M14/M18 A2982 RMK AO2 SNB01E12 P0000 FIBI (PL)
0270726580149222017011109537+44883-093229FM-15+0255KMSP V0209999C00005013115MN0160935N5-01505-01785101175ADDAA101000025GA1045+008235999GA2085+013115999GD12991+0082359GD24991+0131159GE19MSL   +99999+99999GF199999999999008231999999MA1100985097965REMMET12201/11/17 03:53:02 METAR KMSP 110953Z 00000KT 10SM SCT027 OVC043 M15/M18 A2982 RMK AO2 SNB01E12 SLP117 P0000 T11501178 (PL)
0244726580149222017011110047+44883-093229FM-16+0255KMSP V0200505N00155008235MN0160935N5-01445-01835999999ADDGA1075+008235999GA2085+013115999GD13991+0082359GD24991+0131159GE19MSL   +99999+99999GF199999999999008231999999MA1100955097935REMMET10701/11/17 04:04:02 SPECI KMSP 111004Z 05003KT 10SM BKN027 OVC043 M14/M18 A2981 RMK AO2 PRESFR T11441183 (PL)
0255726580149222017011110537+44883-093229FM-15+0255KMSP V0209999C00005008535MN0160935N5-01445-01785101135ADDAA101000095GA1075+008535999GA2085+011895999GD13991+0085359GD24991+0118959GE19MSL   +99999+99999GF199999999999008531999999MA1100955097935REMMET10701/11/17 04:53:02 METAR KMSP 111053Z 00000KT 10SM BKN028 OVC039 M14/M18 A2981 RMK AO2 SLP113 T11441178 (PL)
0389726580149222017011111537+44883-093229FM-15+0255KMSP V0203105N00365008535MN0160935N5-01445-01785101295ADDAA101000095AA206001391AA324006491AJ100109500102099GA1025+004275999GA2085+008535999GD11991+0042759GD24991+0085359GE19MSL   +99999+99999GF199999999999004271999999KA1060M-01441KA2060N-01561MA1101085098065MD1390049+9999REMMET14301/11/17 05:53:02 METAR KMSP 111153Z 31007KT 10SM FEW014 OVC028 M14/M18 A2985 RMK AO2 SLP129 4/004 60005 70025 T11441178 11144 21156 53004 (PL)EQDQ01  00638PRCP24
0268726580149222017011112004+44883-093217FM-12+025599999V0203101N003619999999N016000199-01441-01781101291ADDAA106001031AA224006431AJ100103100100099GA1999+004501999GE19MSL   +99999+99999GF108991999999004501999999KA1240M-00221KA2240N-01561MA1999999097941MD1310041+9999REMSYN09872658 12466 83107 11144 21178 39794 40129 53004 60011 91153 333 11022 21156 4/010 70064 555 91112=
0013726580149222017011112004+44883-093229SHEF +999999999V020999999999999999999999999999+99999+99999999999ADDAL19900331
0256726580149222017011112287+44883-093229FM-16+0255KMSP V0203105N00265009455MN0040235N5-01445-01785999999ADDAA101000231AU110030015AW1715GA1085+009455999GD14991+0094559GE19MSL   +99999+99999GF199999999999009451999999MA1101085098065REMMET12201/11/17 06:28:02 SPECI KMSP 111228Z 31005KT 2 1/2SM -SN OVC031 M14/M18 A2985 RMK AO2 TWR VIS 3 SNB05 P0001 T11441178 (NK)
0242726580149222017011112467+44883-093229FM-16+0255KMSP V0203105N00215009455MN0048285N5-01445-01785999999ADDAA101000231AU110030015AW1715GA1085+009455999GD14991+0094559GE19MSL   +99999+99999GF199999999999009451999999MA1101055098035REMMET10801/11/17 06:46:02 SPECI KMSP 111246Z 31004KT 3SM -SN OVC031 M14/M18 A2984 RMK AO2 SNB05 P0001 T11441178 (NK)
0259726580149222017011112537+44883-093229FM-15+0255KMSP V0209999V00155009455MN0048285N5-01445-01785101255ADDAA101000395AU110030015AW1715GA1085+009455999GD14991+0094559GE19MSL   +99999+99999GF199999999999009451999999MA1101055098035REMMET12501/11/17 06:53:02 METAR KMSP 111253Z VRB03KT 3SM -SN OVC031 M14/M18 A2984 RMK AO2 SFC VIS 5 SNB05 SLP125 P0001 T11441178 (NK)
0288726580149222017011113197+44883-093229FM-16+0255KMSP V0209999C00005008235MN0028165N5-01445-01785999999ADDAA101000231AU110030015AW1715GA1075+008235999GA2085+010365999GD13991+0082359GD24991+0103659GE19MSL   +99999+99999GF199999999999008231999999MA1101085098065REMMET12301/11/17 07:19:02 SPECI KMSP 111319Z 00000KT 1 3/4SM -SN BKN027 OVC034 M14/M18 A2985 RMK AO2 TWR VIS 2 P0001 T11441178 (NK)
0257726580149222017011113537+44883-093229FM-15+0255KMSP V0209999C00005005795MN0024145N5-01445-01725101225ADDAA101000895AU110030015AW1715GA1085+005795999GD14991+0057959GE19MSL   +99999+99999GF199999999999005791999999MA1101025098005REMMET12301/11/17 07:53:02 METAR KMSP 111353Z 00000KT 1 1/2SM -SN OVC019 M14/M17 A2983 RMK AO2 TWR VIS 2 SLP122 P0002 T11441172 (NK)
0268726580149222017011114467+44883-093229FM-16+0255KMSP V0203205N00515009755MN0028165N5-01445-01725999999ADDAA101000531AU110030015AW1715GA1085+009755999GD14991+0097559GE19MSL   +99999+99999GF199999999999009751999999MA1101125098095REMMET13401/11/17 08:46:02 SPECI KMSP 111446Z 32010KT 1 3/4SM R30L/6000VP6000FT -SN OVC032 M14/M17 A2986 RMK AO2 SFC VIS 2 P0002 T11441172 (NK)
0172726580149222017011114516+44883-093229FM-16+0255KMSP V0203105N00415010365MN0032195N5-01405-01805999999ADDAU110030015AW1715GA1085+010365999GD14991+0103659MA1101155098135REMMET09701/11/17 08:51:02 SPECI KMSP 111451Z 31008KT 2SM -SN OVC034 M14/M18 A2987 RMK AO2 P0002 FIBI (NK)
0299726580149222017011114537+44883-093229FM-15+0255KMSP V0203105N00415010365MN0032195N5-01445-01725101355ADDAA101000395AA203001391AU110030015AW1715GA1085+010365999GD14991+0103659GE19MSL   +99999+99999GF199999999999010361999999MA1101155098135MD1390049+9999REMMET12101/11/17 08:53:02 METAR KMSP 111453Z 31008KT 2SM -SN OVC034 M14/M17 A2987 RMK AO2 SLP135 P0002 60005 T11441172 53004 (NK)EQDQ01  00128PRCP03
0275726580149222017011115537+44883-093229FM-15+0255KMSP V0203405N00415009455MN0024145N5-01445-01835101495ADDAA101000395AU110030015AW1715GA1085+009455999GD14991+0094559GE19MSL   +99999+99999GF199999999999009451999999MA1101295098265REMMET14101/11/17 09:53:02 METAR KMSP 111553Z 34008KT 1 1/2SM R30L/3500VP6000FT -SN OVC031 M14/M18 A2991 RMK AO2 TWR VIS 2 SLP149 P0001 T11441183 (NK)
0268726580149222017011116027+44883-093229FM-16+0255KMSP V0203405N00515008845MN0024145N5-01445-01785999999ADDAA101000021AU110030015AW1715GA1085+008845999GD14991+0088459GE19MSL   +99999+99999GF199999999999008841999999MA1101255098235REMMET13401/11/17 10:02:02 SPECI KMSP 111602Z 34010KT 1 1/2SM R30L/3500VP6000FT -SN OVC029 M14/M18 A2990 RMK AO2 TWR VIS 2 P0000 T11441178 (NK)
0344726580149222017011116307+44883-093229FM-16+0255KMSP V0203405N00365018295MN0024145N5-01445-01785999999ADDAA101000231AU110030015AW1715GA1045+007015999GA2045+010975999GA3085+018295999GD12991+0070159GD22991+0109759GD34991+0182959GE19MSL   +99999+99999GF199999999999007011999999MA1101295098265REMMET14801/11/17 10:30:02 SPECI KMSP 111630Z 34007KT 1 1/2SM R30L/5000VP6000FT -SN SCT023 SCT036 OVC060 M14/M18 A2991 RMK AO2 TWR VIS 2 P0001 T11441178 (NK)
0220726580149222017011116516+44883-093229FM-16+0255KMSP V0203505N00415018295MN0032195N5-01405-01805999999ADDAU110030015AW1715GA1045+007015999GA2085+018295999GD12991+0070159GD24991+0182959MA1101295098265REMMET11401/11/17 10:51:02 SPECI KMSP 111651Z 35008KT 2SM -SN SCT023 OVC060 M14/M18 A2991 RMK AO2 SFC VIS 5 P0001 FIBI (NK)
0281726580149222017011116537+44883-093229FM-15+0255KMSP V0203505N00315018295MN0080475N5-01395-01785101515ADDAA101000395AU110030015AW1715GA1045+007015999GA2085+018295999GD12991+0070159GD24991+0182959GE19MSL   +99999+99999GF199999999999007011999999MA1101295098265REMMET11601/11/17 10:53:02 METAR KMSP 111653Z 35006KT 5SM -SN SCT023 OVC060 M14/M18 A2991 RMK AO2 SLP151 P0001 T11391178 (NK)
0436726580149222017011117537+44883-093229FM-15+0255KMSP V0200105N00315021345MN0112655N5-01285-01725101395ADDAA101000025AA206001891AJ100109500102099AU110030015AW1715GA1025+004885999GA2075+021345999GA3075+033535999GD11991+0048859GD23991+0213459GD33991+0335359GE19MSL   +99999+99999GF199999999999004881999999KA1060M-01281KA2060N-01501MA1101195098165MD1090069+9999REMMET15301/11/17 11:53:02 METAR KMSP 111753Z 01006KT 7SM -SN FEW016 BKN070 BKN110 M13/M17 A2988 RMK AO2 SLP139 4/004 P0000 60007 T11281172 11128 21150 50006 (NK)EQDQ01  00178PRCP06
0263726580149222017011118004+44883-093217FM-12+025599999V0200101N003119999999N011000199-01281-01721101391ADDAA106002031AJ100103100100099GA1999+004501999GE19MSL   +99999+99999GF106991999999004501999999KA1120M-01281KA2120N-01501MA1999999098041MD1990061+9999MW1711REMSYN09872658 11461 60106 11128 21172 39804 40139 50006 60021 771// 91753 333 11128 21150 4/010 555 91118=
0312726580149222017011118057+44883-093229FM-16+0255KMSP V0203605N00215021345MN0096565N5-01335-01785999999ADDAA101000021AU110030015AW1715GA1025+002445999GA2045+005185999GA3075+021345999GD11991+0024459GD22991+0051859GD33991+0213459GE19MSL   +99999+99999GF199999999999002441999999MA1101195098165REMMET11601/11/17 12:05:02 SPECI KMSP 111805Z 36004KT 6SM -SN FEW008 SCT017 BKN070 M13/M18 A2988 RMK AO2 P0000 T11331178 (NK)
0304726580149222017011118537+44883-093229FM-15+0255KMSP V0203505N00415042675MN0128755N5-01285-01725101365ADDAA101000025GA1025+005185999GA2045+027435999GA3075+042675999GD11991+0051859GD22991+0274359GD33991+0426759GE19MSL   +99999+99999GF199999999999005181999999MA1101195098165REMMET12501/11/17 12:53:02 METAR KMSP 111853Z 35008KT 8SM FEW017 SCT090 BKN140 M13/M17 A2988 RMK AO2 SNE48 SLP136 P0000 T11281172 (NK)
0293726580149222017011119537+44883-093229FM-15+0255KMSP V0203505N00415036585MN0160935N5-01285-01725101365ADDAA101000095GA1025+005185999GA2045+027435999GA3075+036585999GD11991+0051859GD22991+0274359GD33991+0365859GE19MSL   +99999+99999GF199999999999005181999999MA1101155098135REMMET11401/11/17 13:53:02 METAR KMSP 111953Z 35008KT 10SM FEW017 SCT090 BKN120 M13/M17 A2987 RMK AO2 SLP136 T11281172 (NK)
0346726580149222017011120537+44883-093229FM-15+0255KMSP V0203605N005752200059N0160935N5-01285-01785101315ADDAA101000095AA203000021GA1025+005495999GA2025+039625999GA3045+060965999GD11991+0054959GD21991+0396259GD32991+0609659GD43991+0762019GE19MSL   +99999+99999GF199999999999005491999999MA1101125098095MD1890089+9999REMMET12701/11/17 14:53:02 METAR KMSP 112053Z 36011KT 10SM FEW018 FEW130 SCT200 M13/M18 A2986 RMK AO2 SLP131 60000 T11281178 58008 (JDB)
0294726580149222017011121537+44883-093229FM-15+0255KMSP V0203505N00415091445MN0160935N5-01335-01835101355ADDAA101000095GA1025+039625999GA2025+060965999GA3075+091445999GD11991+0396259GD21991+0609659GD33991+0914459GE19MSL   +99999+99999GF199999999999039621999999MA1101155098135REMMET11501/11/17 15:53:02 METAR KMSP 112153Z 35008KT 10SM FEW130 FEW200 BKN300 M13/M18 A2987 RMK AO2 SLP135 T11331183 (JDB)
0294726580149222017011122537+44883-093229FM-15+0255KMSP V0203505N00265073155MN0160935N5-01335-01835101455ADDAA101000095GA1045+051825999GA2075+073155999GA3085+091445999GD12991+0518259GD23991+0731559GD34991+0914459GE19MSL   +99999+99999GF199999999999051821999999MA1101255098235REMMET11501/11/17 16:53:02 METAR KMSP 112253Z 35005KT 10SM SCT170 BKN240 OVC300 M13/M18 A2990 RMK AO2 SLP145 T11331183 (JDB)
0392726580149222017011123537+44883-093229FM-15+0255KMSP V0203405N00365051825MN0160935N5-01395-01835101555ADDAA101000095AA206000021AJ100109500102099GA1075+051825999GA2075+067065999GA3085+076205999GD13991+0518259GD23991+0670659GD34991+0762059GE19MSL   +99999+99999GF199999999999051821999999KA1060M-01221KA2060N-01391MA1101355098335MD1390239+9999REMMET14501/11/17 17:53:02 METAR KMSP 112353Z 34007KT 10SM BKN170 BKN220 OVC250 M14/M18 A2993 RMK AO2 SLP155 4/004 60000 T11391183 11122 21139 53023 (JDB)
0235726580149222017011200004+44883-093217FM-12+025599999V0203401N003619999999N016000199-01391-01831101551ADDAA106000021AJ100103100100099GE19MSL   +99999+99999GF108991999999999999999999KA1120M-01221KA2120N-01561MA1999999098211MD1310231+9999REMSYN09272658 12966 83407 11139 21183 39821 40155 53023 69901 92353 333 11122 21156 4/010 555 91200=
0250726580149222017011200537+44883-093229FM-15+0255KMSP V0203205N00315051825MN0160935N5-01445-01895101705ADDAA101000095GA1075+051825999GA2085+076205999GD13991+0518259GD24991+0762059GE19MSL   +99999+99999GF199999999999051821999999MA1101495098465REMMET10201/11/17 18:53:01 METAR KMSP 120053Z 32006KT 10SM BKN170 OVC250 M14/M19 A2997 RMK AO2 SLP170 T11441189
0261726580149222017011201537+44883-093229FM-15+0255KMSP V0203205N00415054865MN0160935N5-01445-01945101755ADDAA101000095GA1045+039625999GA2085+054865999GD12991+0396259GD24991+0548659GE19MSL   +99999+99999GF199999999999039621999999MA1101565098525REMMET11301/11/17 19:53:01 METAR KMSP 120153Z 32008KT 10SM SCT130 OVC180 M14/M19 A2999 RMK AO2 SLP175 VIRGA NW-N T11441194
0314726580149222017011202537+44883-093229FM-15+0255KMSP V0203405N00315048775MN0160935N5-01445-01945101835ADDAA101000095GA1045+039625999GA2075+048775999GA3085+076205999GD12991+0396259GD23991+0487759GD34991+0762059GE19MSL   +99999+99999GF199999999999039621999999MA1101635098595MD1190269+9999REMMET12101/11/17 20:53:01 METAR KMSP 120253Z 34006KT 10SM SCT130 BKN160 OVC250 M14/M19 A3001 RMK AO2 SLP183 VIRGA T11441194 51026
0218726580149222017011203537+44883-093229FM-15+0255KMSP V0203405N00465030485MN0160935N5-01445-01945101885ADDAA101000095GA1085+030485999GD14991+0304859GE19MSL   +99999+99999GF199999999999030481999999MA1101665098625REMMET10101/11/17 21:53:02 METAR KMSP 120353Z 34009KT 10SM OVC100 M14/M19 A3002 RMK AO2 SLP188 VIRGA T11441194
0218726580149222017011204537+44883-093229FM-15+0255KMSP V0202905N00265028965MN0160935N5-01445-01945101915ADDAA101000095GA1085+028965999GD14991+0289659GE19MSL   +99999+99999GF199999999999028961999999MA1101735098695REMMET10101/11/17 22:53:02 METAR KMSP 120453Z 29005KT 10SM OVC095 M14/M19 A3004 RMK AO2 SLP191 VIRGA T11441194
0329726580149222017011205537+44883-093229FM-15+0255KMSP V0203105N00315024385MN0160935N5-01445-01945101935ADDAA101000095AJ100109500102099GA1085+024385999GD14991+0243859GE19MSL   +99999+99999GF199999999999024381999999KA1060M-01391KA2060N-01501KA3240M-01221KA4240N-01561MA1101735098695MD1190119+9999REMMET12901/11/17 23:53:02 METAR KMSP 120553Z 31006KT 10SM OVC080 M14/M19 A3004 RMK AO2 SLP193 4/004 T11441194 11139 21150 411221156 51011
1045726580149222017011205596+44883-093229SOD  +0255KMSP V020999999999999999999999999999+99999+99999999999ADDAA124003095AJ100109599999999AL12405395AN1024005395AT1AU18SN  5AT2AU22FZFG5AT3AU13BR  5AT4AW01FG  5AX1016246AX2086246KA1240M-01215KA2240N-01555MG1098294101084OE11240093935099995OE22240062632099995OE33240029199999995REMSOD78424 HR PRECIPITATION (IN): 0.12 SNOW DEPTH (IN):4     24 HR SNOWFALL (IN):2.1  WEATHER(CODE):18  24 HR MAX TEMP (F): 1024 HR MIN TEMP (F):  4AVERAGE STATION PRESSURE:29.025 MINIMUM SEA LEVEL PRESSURE:29.85 TIME OF OCCURRENCE:0427 PEAK WIND SPEED (MPH): 21 PEAK WIND DIR (DEG):350 PEAK WIND TIME (LST):      FASTEST 2MIN SPEED (MPH): 14FASTEST 2MIN DIR (DEG):320 FASTEST 2MIN TIME (LST):     AVERAGE WIND SPEED (MPH): 6.5 24 HR AVG TEMP (F):  7DEPART FROM NORMAL: -8  SKY COVER SR-SS (TENTHS): 1HEATING DEGREE DAYS: 58 COOLING DEGREE DAYS:  0 LATEST DAY MAX TEMP (0700-1900 LST):10  LATEST NIGHT MIN TEMP(1900-0800 LST):4  HOURLY INCREMENTAL PRECIPITATION VALUES (IN):.00 0.03 0.02 T    0.00 0.00 0.01 0.03 0.01 0.01 0.01 T    T    0.00 0.00 0.00 0.00 0.00 0.00 0.00 0.00 0.00 0.00 0.00EQDR01    187AXW093R02    187AXW093
0234726580149222017011206004+44883-093217FM-12+025599999V0203101N003119999999N016000199-01441-01941101931ADDAJ100103100100099GA1999+022501999GE19MSL   +99999+99999GF108991999999022501999999KA1240M-01391KA2240N-01561MA1999999098571MD1110111+9999REMSYN08672658 32866 83106 11144 21194 39857 40193 51011 90553 333 11139 21156 4/010 555 91206=
0217726580149222017011206537+44883-093229FM-15+0255KMSP V0203205N00265024385MN0160935N5-01445-01945101915ADDAA101000095GA1085+024385999GD14991+0243859GE19MSL   +99999+99999GF199999999999024381999999MA1101735098695REMMET10001/12/17 00:53:02 METAR KMSP 120653Z 32005KT 10SM OVC080 M14/M19 A3004 RMK AO2 SLP191 T11441194 (PL)
0217726580149222017011207537+44883-093229FM-15+0255KMSP V0203105N00315028965MN0160935N5-01445-01945101905ADDAA101000095GA1085+028965999GD14991+0289659GE19MSL   +99999+99999GF199999999999028961999999MA1101695098665REMMET10001/12/17 01:53:02 METAR KMSP 120753Z 31006KT 10SM OVC095 M14/M19 A3003 RMK AO2 SLP190 T11441194 (PL)
0313726580149222017011208537+44883-093229FM-15+0255KMSP V0203105N00215027435MN0160935N5-01505-02005101955ADDAA101000095GA1025+022865999GA2075+027435999GA3085+033535999GD11991+0228659GD23991+0274359GD34991+0335359GE19MSL   +99999+99999GF199999999999022861999999MA1101765098725MD1390029+9999REMMET12001/12/17 02:53:02 METAR KMSP 120853Z 31004KT 10SM FEW075 BKN090 OVC110 M15/M20 A3005 RMK AO2 SLP195 T11501200 53002 (PL)
0217726580149222017011209537+44883-093229FM-15+0255KMSP V0203005N00215022865MN0160935N5-01565-02005101965ADDAA101000095GA1085+022865999GD14991+0228659GE19MSL   +99999+99999GF199999999999022861999999MA1101765098725REMMET10001/12/17 03:53:02 METAR KMSP 120953Z 30004KT 10SM OVC075 M16/M20 A3005 RMK AO2 SLP196 T11561200 (PL)
0217726580149222017011210537+44883-093229FM-15+0255KMSP V0203005N00215021345MN0160935N5-01505-02005102015ADDAA101000095GA1085+021345999GD14991+0213459GE19MSL   +99999+99999GF199999999999021341999999MA1101795098765REMMET10001/12/17 04:53:02 METAR KMSP 121053Z 30004KT 10SM OVC070 M15/M20 A3006 RMK AO2 SLP201 T11501200 (PL)
0315726580149222017011211537+44883-093229FM-15+0255KMSP V0202505N00215024385MN0160935N5-01505-02005102105ADDAA101000095AA224001891AJ100109500102099GA1085+024385999GD14991+0243859GE19MSL   +99999+99999GF199999999999024381999999KA1060M-01441KA2060N-01561MA1101905098855MD1390149+9999REMMET13001/12/17 05:53:02 METAR KMSP 121153Z 25004KT 10SM OVC080 M15/M20 A3009 RMK AO2 SLP210 4/004 70007 T11501200 11144 21156 53014 (PL)
0251726580149222017011212004+44883-093217FM-12+025599999V0202501N002119999999N016000199-01501-02001102101ADDAA124001831AJ100103100100099GA1999+022501999GE19MSL   +99999+99999GF108991999999022501999999KA1240M-01221KA2240N-01561MA1999999098731MD1310141+9999REMSYN09272658 32866 82504 11150 21200 39873 40210 53014 91153 333 11122 21156 4/010 70018 555 91212=
0217726580149222017011212537+44883-093229FM-15+0255KMSP V0202605N00415022865MN0160935N5-01505-02005102225ADDAA101000095GA1085+022865999GD14991+0228659GE19MSL   +99999+99999GF199999999999022861999999MA1102005098955REMMET10001/12/17 06:53:02 METAR KMSP 121253Z 26008KT 10SM OVC075 M15/M20 A3012 RMK AO2 SLP222 T11501200 (PL)
0218726580149222017011213537+44883-093229FM-15+0255KMSP V0202505N00465022865MN0160935N5-01565-02115102295ADDAA101000095GA1085+022865999GD14991+0228659GE19MSL   +99999+99999GF199999999999022861999999MA1102075099025REMMET10101/12/17 07:53:02 METAR KMSP 121353Z 25009KT 10SM OVC075 M16/M21 A3014 RMK AO2 SLP229 T11561211 (CLB)
0238726580149222017011214537+44883-093229FM-15+0255KMSP V0202205N00415021345MN0160935N5-01505-02115102335ADDAA101000095GA1075+021345999GD13991+0213459GE19MSL   +99999+99999GF199999999999021341999999MA1102105099055MD1190229+9999REMMET10701/12/17 08:53:02 METAR KMSP 121453Z 22008KT 10SM BKN070 M15/M21 A3015 RMK AO2 SLP233 T11501211 51022 (CLB)
0237726580149222017011215537+44883-093229FM-15+0255KMSP V0202305N004652200059N0160935N5-01445-02065102415ADDAA101000095GA1025+021345999GD11991+0213459GE19AGL   +99999+99999GF102995999999021341999999MA1102205099155REMMET10101/12/17 09:53:02 METAR KMSP 121553Z 23009KT 10SM FEW070 M14/M21 A3018 RMK AO2 SLP241 T11441206 (CLB)EQDD01      0ADE726
0204726580149222017011216537+44883-093229FM-15+0255KMSP V0202505N005752200059N0160935N5-01285-01945102435ADDAA101000095GA1005+999999999GD10991+9999999GF100991999999999999999999MA1102245099195OC100985REMMET10101/12/17 10:53:02 METAR KMSP 121653Z 25011G19KT 10SM CLR M13/M19 A3019 RMK AO2 SLP243 T11281194 (CLB)
0285726580149222017011217537+44883-093229FM-15+0255KMSP V0202605N007752200059N0160935N5-01065-01785102425ADDAA101000095AJ100109500102099GA1005+999999999GD10991+9999999GF100991999999999999999999KA1060M-01061KA2060N-01561MA1102245099195MD1190119+9999OC101245REMMET12501/12/17 11:53:02 METAR KMSP 121753Z 26015G24KT 10SM CLR M11/M18 A3019 RMK AO2 SLP242 4/004 T11061178 11106 21156 51011 (CLB)
0190726580149222017011218004+44883-093217FM-12+025599999V0202601N007719999999N016000199-01061-01781102421ADDAJ100103100100099KA1120M-01061KA2120N-01561MA1999999099061MD1110111+9999OD149901241999REMSYN09272658 32966 02615 11106 21178 39906 40242 51011 91753 333 11106 21156 4/010 91024 555 91218=
0204726580149222017011218537+44883-093229FM-15+0255KMSP V0202805N009852200059N0160935N5-01005-01675102475ADDAA101000095GA1005+999999999GD10991+9999999GF100991999999999999999999MA1102275099225OC101295REMMET10101/12/17 12:53:02 METAR KMSP 121853Z 28019G25KT 10SM CLR M10/M17 A3020 RMK AO2 SLP247 T11001167 (CLB)
0236726580149222017011219537+44883-093229FM-15+0255KMSP V0202905N009852200059N0160935N5-01005-01725102555ADDAA101000095GA1005+999999999GD10991+9999999GF100991999999999999999999MA1102375099325OC101295OD149901331280REMMET11901/12/17 13:53:02 METAR KMSP 121953Z 29019G25KT 10SM CLR M10/M17 A3023 RMK AO2 PK WND 28026/1937 SLP255 T11001172 (CLB)
0248726580149222017011220437+44883-093229FM-16+0255KMSP V0202805N007752200059N0160935N5-01065-01785999999ADDGA1025+076205999GD11991+0762059GE19AGL   +99999+99999GF102995999999076201999999MA1102545099485OC101295REMMET11501/12/17 14:43:02 SPECI KMSP 122043Z 28015G25KT 10SM FEW250 M11/M18 A3028 RMK AO2 PK WND 28028/2027 T11061178 (CLB)EQDD01      0ADE726
0286726580149222017011220537+44883-093229FM-15+0255KMSP V0203005N009352200059N0160935N5-01115-01835102745ADDAA101000095GA1025+076205999GD11991+0762059GE19AGL   +99999+99999GF102995999999076201999999MA1102545099485MD1390309+9999OC101395REMMET12801/12/17 14:53:02 METAR KMSP 122053Z 30018G27KT 10SM FEW250 M11/M18 A3028 RMK AO2 PK WND 28028/2027 SLP274 T11111183 53030 (CLB)EQDD01      0ADE726
0278726580149222017011221537+44883-093229FM-15+0255KMSP V0203005N008252200059N0160935N5-01285-02175102945ADDAA101000095GA1025+091445999GD11991+0914459GE19AGL   +99999+99999GF102995999999091441999999MA1102745099685OC101295REMMET13401/12/17 15:53:02 METAR KMSP 122153Z 30016G25KT 10SM FEW300 M13/M22 A3034 RMK AO2 PK WND 30027/2140 PRESRR SLP294 DRSN T11281217 (JDB)EQDD01      0ADE726
0253726580149222017011222537+44883-093229FM-15+0255KMSP V0203005N009852200059N0160935N5-01445-02285103125ADDAA101000095GA1025+091445999GD11991+0914459GE19AGL   +99999+99999GF102995999999091441999999MA1102915099855OC101295REMMET10901/12/17 16:53:02 METAR KMSP 122253Z 30019G25KT 10SM FEW300 M14/M23 A3039 RMK AO2 SLP312 DRSN T11441228 (JDB)EQDD01      0ADE726
0253726580149222017011223427+44883-093229FM-16+0255KMSP V0203105N006252200059N0160935N5-01565-02285999999ADDGA1025+091445999GD11991+0914459GE19AGL   +99999+99999GF102995999999091441999999MA1103055099985OC101185REMMET12001/12/17 17:42:02 SPECI KMSP 122342Z 31012G23KT 10SM FEW300 M16/M23 A3043 RMK AO2 PK WND 30027/2254 DRSN T11561228 (JDB)EQDD01      0ADE726
0350726580149222017011223537+44883-093229FM-15+0255KMSP V0202905N004652200059N0160935N5-01615-02285103335ADDAA101000095AJ100109500102099GA1025+091445999GD11991+0914459GE19AGL   +99999+99999GF102995999999091441999999KA1060M-01001KA2060N-01611MA1103125100045MD1390559+9999OD149901391300REMMET14301/12/17 17:53:02 METAR KMSP 122353Z 29009KT 10SM FEW300 M16/M23 A3045 RMK AO2 PK WND 30027/2254 SLP333 4/004 T11611228 11100 21161 53055 (JDB)EQDD01      0ADE726
0218726580149222017011300004+44883-093217FM-12+025599999V0202901N004619999999N016000199-01611-02281103331ADDAJ100103100100099GE19MSL   +99999+99999GF102991999999999999999999KA1120M-01001KA2120N-01611MA1999999099921MD1310551+9999REMSYN08672658 32966 22909 11161 21228 39992 40333 53055 92353 333 11100 21161 4/010 555 91300=
0231726580149222017011300537+44883-093229FM-15+0255KMSP V0203105N005752200059N0160935N5-01725-02395103485ADDAA101000095GA1025+091445999GD11991+0914459GE19AGL   +99999+99999GF102995999999091441999999MA1103255100185REMMET09501/12/17 18:53:01 METAR KMSP 130053Z 31011KT 10SM FEW300 M17/M24 A3049 RMK AO2 SLP348 T11721239EQDD01      0ADE726
0212726580149222017011301537+44883-093229FM-15+0255KMSP V0203005N00725091445MN0160935N5-01785-02395103565ADDAA101000095GA1075+091445999GD13991+0914459GE19MSL   +99999+99999GF199999999999091441999999MA1103325100245REMMET09501/12/17 19:53:01 METAR KMSP 130153Z 30014KT 10SM BKN300 M18/M24 A3051 RMK AO2 SLP356 T11781239
0232726580149222017011302537+44883-093229FM-15+0255KMSP V0203105N00465091445MN0160935N5-01895-02395103675ADDAA101000095GA1075+091445999GD13991+0914459GE19MSL   +99999+99999GF199999999999091441999999MA1103425100345MD1190329+9999REMMET10101/12/17 20:53:02 METAR KMSP 130253Z 31009KT 10SM BKN300 M19/M24 A3054 RMK AO2 SLP367 T11891239 51032
0194726580149222017011303437+44883-093229FM-16+0255KMSP V0203005N00415091445MN0160935N5-01945-02445999999ADDGA1085+091445999GD14991+0914459GE19MSL   +99999+99999GF199999999999091441999999MA1103595100515REMMET08801/12/17 21:43:02 SPECI KMSP 130343Z 30008KT 10SM OVC300 M19/M24 A3059 RMK AO2 T11941244
0231726580149222017011303537+44883-093229FM-15+0255KMSP V0203105N005152200059N0160935N5-01945-02445103825ADDAA101000095GA1045+091445999GD12991+0914459GE19AGL   +99999+99999GF104995999999091441999999MA1103595100515REMMET09501/12/17 21:53:02 METAR KMSP 130353Z 31010KT 10SM SCT300 M19/M24 A3059 RMK AO2 SLP382 T11941244EQDD01      0ADE726
0169726580149222017011304536+44883-093229FM-15+0255KMSP V0203005N005152200059N0160935N5-02005-02505104015ADDAA101000095GA1045+091445999GD12991+0914459MA1103765100675REMMET10001/12/17 22:53:03 METAR KMSP 130453Z 30010KT 10SM SCT300 M20/M25 A3064 RMK AO2 SLP401 T12001250 (PL)
0386726580149222017011305537+44883-093229FM-15+0255KMSP V0203405N004152200059N0160935N5-02115-02565104045ADDAA101000095AJ100109500102099GA1025+060965999GA2045+091445999GD11991+0609659GD22991+0914459GE19AGL   +99999+99999GF104995999999060961999999KA1060M-01561KA2060N-02111KA3240M-01001KA4240N-02111MA1103835100745MD1190379+9999REMMET13601/12/17 23:53:02 METAR KMSP 130553Z 34008KT 10SM FEW200 SCT300 M21/M26 A3066 RMK AO2 SLP404 4/004 T12111256 11156 21211 411001211 51037EQDD01      0ADE726
0944726580149222017011305596+44883-093229SOD  +0255KMSP V020999999999999999999999999999+99999+99999999999ADDAA124000095AJ100109599999999AL12400095AN1024000095AX1086246KA1240M-00995KA2240N-02105MG1099684101864OE11240143128099995OE22240111830099995OE33240053299999995REMSOD75624 HR PRECIPITATION (IN): 0.00 SNOW DEPTH (IN):4     24 HR SNOWFALL (IN):0.0  WEATHER(CODE):8  24 HR MAX TEMP (F): 1424 HR MIN TEMP (F): -6AVERAGE STATION PRESSURE:29.435 MINIMUM SEA LEVEL PRESSURE:30.08 TIME OF OCCURRENCE:0143 PEAK WIND SPEED (MPH): 32 PEAK WIND DIR (DEG):280 PEAK WIND TIME (LST):      FASTEST 2MIN SPEED (MPH): 25FASTEST 2MIN DIR (DEG):300 FASTEST 2MIN TIME (LST):     AVERAGE WIND SPEED (MPH):11.9 24 HR AVG TEMP (F):  4DEPART FROM NORMAL:-11  HEATING DEGREE DAYS: 61 COOLING DEGREE DAYS:  0 LATEST DAY MAX TEMP (0700-1900 LST):14  LATEST NIGHT MIN TEMP(1900-0800 LST):4  HOURLY INCREMENTAL PRECIPITATION VALUES (IN):.00 0.00 0.00 0.00 0.00 0.00 0.00 0.00 0.00 0.00 0.00 0.00 0.00 0.00 0.00 0.00 0.00 0.00 0.00 0.00 0.00 0.00 0.00 0.00EQDR01     87AXW093
0218726580149222017011306004+44883-093217FM-12+025599999V0203401N004119999999N016000199-02111-02561104041ADDAJ100103100100099GE19MSL   +99999+99999GF104991999999999999999999KA1240M-01441KA2240N-02111MA1999999100621MD1110371+9999REMSYN08672658 32966 43408 11211 21256 30062 40404 51037 90553 333 11144 21211 4/010 555 91306=
0236726580149222017011306537+44883-093229FM-15+0255KMSP V0203005N004152200059N0160935N5-02175-02615104195ADDAA101000095GA1045+091445999GD12991+0914459GE19AGL   +99999+99999GF104995999999091441999999MA1103965100875REMMET10001/13/17 00:53:02 METAR KMSP 130653Z 30008KT 10SM SCT300 M22/M26 A3070 RMK AO2 SLP419 T12171261 (PL)EQDD01      0ADE726
0192726580149222017011307537+44883-093229FM-15+0255KMSP V0209999C000052200059N0160935N5-02175-02615104235ADDAA101000095GA1005+999999999GD10991+9999999GF100991999999999999999999MA1104005100905REMMET09701/13/17 01:53:02 METAR KMSP 130753Z 00000KT 10SM CLR M22/M26 A3071 RMK AO2 SLP423 T12171261 (PL)
0237726580149222017011308537+44883-093229FM-15+0255KMSP V0200105N00265091445MN0160935N5-02175-02615104285ADDAA101000095GA1075+091445999GD13991+0914459GE19MSL   +99999+99999GF199999999999091441999999MA1104035100945MD1190229+9999REMMET10601/13/17 02:53:02 METAR KMSP 130853Z 01005KT 10SM BKN300 M22/M26 A3072 RMK AO2 SLP428 T12171261 51022 (PL)
0217726580149222017011309537+44883-093229FM-15+0255KMSP V0203505N00155076205MN0160935N5-02175-02675104405ADDAA101000095GA1075+076205999GD13991+0762059GE19MSL   +99999+99999GF199999999999076201999999MA1104175101075REMMET10001/13/17 03:53:02 METAR KMSP 130953Z 35003KT 10SM BKN250 M22/M27 A3076 RMK AO2 SLP440 T12171267 (PL)
0217726580149222017011310537+44883-093229FM-15+0255KMSP V0203505N00215076205MN0160935N5-02115-02615104455ADDAA101000095GA1075+076205999GD13991+0762059GE19MSL   +99999+99999GF199999999999076201999999MA1104205101105REMMET10001/13/17 04:53:02 METAR KMSP 131053Z 35004KT 10SM BKN250 M21/M26 A3077 RMK AO2 SLP445 T12111261 (PL)
0298726580149222017011311537+44883-093229FM-15+0255KMSP V0200305N00265048775MN0160935N5-02065-02565104435ADDAA101000095AJ100109500102099GA1085+048775999GD14991+0487759GE19MSL   +99999+99999GF199999999999048771999999KA1060M-02061KA2060N-02171MA1104175101075MD1090139+9999REMMET12401/13/17 05:53:02 METAR KMSP 131153Z 03005KT 10SM OVC160 M21/M26 A3076 RMK AO2 SLP443 4/004 T12061256 11206 21217 50013 (PL)
0218726580149222017011312004+44883-093217FM-12+025599999V0200301N002619999999N016000199-02061-02561104431ADDAJ100103100100099GE19MSL   +99999+99999GF108991999999999999999999KA1240M-01001KA2240N-02171MA1999999100951MD1990131+9999REMSYN08672658 32966 80305 11206 21256 30095 40443 50013 91153 333 11100 21217 4/010 555 91312=
0255726580149222017011312537+44883-093229FM-15+0255KMSP V0209999C00005033535MN0160935N5-02065-02565104555ADDAA101000095GA1075+033535999GA2085+042675999GD13991+0335359GD24991+0426759GE19MSL   +99999+99999GF199999999999033531999999MA1104305101205REMMET10701/13/17 06:53:02 METAR KMSP 131253Z 00000KT 10SM BKN110 OVC140 M21/M26 A3080 RMK AO2 SLP455 T12061256 (PL)
0218726580149222017011313537+44883-093229FM-15+0255KMSP V0209999V00155033535MN0160935N5-02005-02565104595ADDAA101000095GA1085+033535999GD14991+0335359GE19MSL   +99999+99999GF199999999999033531999999MA1104335101235REMMET10101/13/17 07:53:02 METAR KMSP 131353Z VRB03KT 10SM OVC110 M20/M26 A3081 RMK AO2 SLP459 T12001256 (CLB)
0276726580149222017011314537+44883-093229FM-15+0255KMSP V0200805N00215076205MN0160935N5-02005-02505104655ADDAA101000095GA1025+030485999GA2075+076205999GD11991+0304859GD23991+0762059GE19MSL   +99999+99999GF199999999999030481999999MA1104375101275MD1190209+9999REMMET11401/13/17 08:53:02 METAR KMSP 131453Z 08004KT 10SM FEW100 BKN250 M20/M25 A3082 RMK AO2 SLP465 T12001250 51020 (CLB)
0256726580149222017011315537+44883-093229FM-15+0255KMSP V0200905N00215076205MN0160935N5-01945-02505104655ADDAA101000095GA1025+030485999GA2075+076205999GD11991+0304859GD23991+0762059GE19MSL   +99999+99999GF199999999999030481999999MA1104375101275REMMET10801/13/17 09:53:02 METAR KMSP 131553Z 09004KT 10SM FEW100 BKN250 M19/M25 A3082 RMK AO2 SLP465 T11941250 (CLB)
0218726580149222017011316537+44883-093229FM-15+0255KMSP V0209999C00005027435MN0160935N5-01835-02335104605ADDAA101000095GA1085+027435999GD14991+0274359GE19MSL   +99999+99999GF199999999999027431999999MA1104335101235REMMET10101/13/17 10:53:02 METAR KMSP 131653Z 00000KT 10SM OVC090 M18/M23 A3081 RMK AO2 SLP460 T11831233 (CLB)
0375726580149222017011317537+44883-093229FM-15+0255KMSP V0201505N00315025915MN0160935N5-01725-02335104565ADDAA101000095AJ100089500076099GA1075+025915999GA2075+042675999GA3085+076205999GD13991+0259159GD23991+0426759GD34991+0762059GE19MSL   +99999+99999GF199999999999025911999999KA1060M-01721KA2060N-02111MA1104305101205MD1890079+9999REMMET13901/13/17 11:53:02 METAR KMSP 131753Z 15006KT 10SM BKN085 BKN140 OVC250 M17/M23 A3080 RMK AO2 SLP456 4/003 T11721233 11172 21211 58007 (CLB)
0218726580149222017011318004+44883-093217FM-12+025599999V0201501N003119999999N016000199-01721-02331104561ADDAJ100083100080099GE19MSL   +99999+99999GF108991999999999999999999KA1120M-01721KA2120N-02111MA1999999101081MD1810071+9999REMSYN08672658 32966 81506 11172 21233 30108 40456 58007 91753 333 11172 21211 4/008 555 91318=
0262726580149222017011318537+44883-093229FM-15+0255KMSP V0202005N00215021345MN0160935N5-01675-02285104495ADDAA101000095GA1075+021345999GA2085+024385999GD13991+0213459GD24991+0243859GE19MSL   +99999+99999GF199999999999021341999999MA1104235101135REMMET11401/13/17 12:53:02 METAR KMSP 131853Z 20004KT 10SM BKN070 OVC080 M17/M23 A3078 RMK AO2 SLP449 VIRGA T11671228 (CLB)
0224726580149222017011319537+44883-093229FM-15+0255KMSP V0201505N00265021345MN0160935N5-01615-02285104385ADDAA101000095GA1085+021345999GD14991+0213459GE19MSL   +99999+99999GF199999999999021341999999MA1104135101045REMMET10701/13/17 13:53:02 METAR KMSP 131953Z 15005KT 10SM OVC070 M16/M23 A3075 RMK AO2 SLP438 VIRGA T11611228 (CLB)
0244726580149222017011320537+44883-093229FM-15+0255KMSP V0201405N00315018295MN0160935N5-01565-02175104355ADDAA101000095GA1085+018295999GD14991+0182959GE19MSL   +99999+99999GF199999999999018291999999MA1104105101005MD1690219+9999REMMET11301/13/17 14:53:02 METAR KMSP 132053Z 14006KT 10SM OVC060 M16/M22 A3074 RMK AO2 SLP435 VIRGA T11561217 56021 (CLB)
0261726580149222017011321537+44883-093229FM-15+0255KMSP V0201405N00315022865MN0160935N5-01505-02175104335ADDAA101000095GA1045+018295999GA2085+022865999GD12991+0182959GD24991+0228659GE19MSL   +99999+99999GF199999999999018291999999MA1104065100975REMMET11301/13/17 15:53:02 METAR KMSP 132153Z 14006KT 10SM SCT060 OVC075 M15/M22 A3073 RMK AO2 SLP433 VIRGA T11501217 (NK)
0255726580149222017011322537+44883-093229FM-15+0255KMSP V0201405N00365033535MN0160935N5-01505-02115104275ADDAA101000095GA1025+022865999GA2075+033535999GD11991+0228659GD23991+0335359GE19MSL   +99999+99999GF199999999999022861999999MA1104035100945REMMET10701/13/17 16:53:02 METAR KMSP 132253Z 14007KT 10SM FEW075 BKN110 M15/M21 A3072 RMK AO2 SLP427 T11501211 (NK)
0336726580149222017011323537+44883-093229FM-15+0255KMSP V0201305N00265030485MN0160935N5-01445-02065104245ADDAA101000095AJ100089500076099GA1025+014635999GA2075+030485999GD11991+0146359GD23991+0304859GE19MSL   +99999+99999GF199999999999014631999999KA1060M-01441KA2060N-01721MA1104005100905MD1890109+9999REMMET13101/13/17 17:53:02 METAR KMSP 132353Z 13005KT 10SM FEW048 BKN100 M14/M21 A3071 RMK AO2 SLP424 4/003 T11441206 11144 21172 58010 (NK)
0234726580149222017011400004+44883-093217FM-12+025599999V0201301N002619999999N016000199-01441-02061104241ADDAJ100083100080099GA1999+012501999GE19MSL   +99999+99999GF106991999999012501999999KA1120M-01441KA2120N-02171MA1999999100781MD1810101+9999REMSYN08672658 32666 61305 11144 21206 30078 40424 58010 92353 333 11144 21217 4/008 555 91400=
0212726580149222017011400537+44883-093229FM-15+0255KMSP V0201305N00315013725MN0160935N5-01395-02005104175ADDAA101000095GA1085+013725999GD14991+0137259GE19MSL   +99999+99999GF199999999999013721999999MA1103935100845REMMET09501/13/17 18:53:01 METAR KMSP 140053Z 13006KT 10SM OVC045 M14/M20 A3069 RMK AO2 SLP417 T11391200
0212726580149222017011401537+44883-093229FM-15+0255KMSP V0201205N00365012805MN0160935N5-01395-02005104085ADDAA101000095GA1085+012805999GD14991+0128059GE19MSL   +99999+99999GF199999999999012801999999MA1103835100745REMMET09501/13/17 19:53:01 METAR KMSP 140153Z 12007KT 10SM OVC042 M14/M20 A3066 RMK AO2 SLP408 T11391200
0232726580149222017011402537+44883-093229FM-15+0255KMSP V0201705N00315011585MN0160935N5-01335-01945104035ADDAA101000095GA1085+011585999GD14991+0115859GE19MSL   +99999+99999GF199999999999011581999999MA1103795100715MD1690209+9999REMMET10101/13/17 20:53:02 METAR KMSP 140253Z 17006KT 10SM OVC038 M13/M19 A3065 RMK AO2 SLP403 T11331194 56020
0250726580149222017011403537+44883-093229FM-15+0255KMSP V0201505N00265014335MN0160935N5-01335-01895103965ADDAA101000095GA1025+011285999GA2085+014335999GD11991+0112859GD24991+0143359GE19MSL   +99999+99999GF199999999999011281999999MA1103735100645REMMET10201/13/17 21:53:02 METAR KMSP 140353Z 15005KT 10SM FEW037 OVC047 M13/M19 A3063 RMK AO2 SLP396 T11331189
0212726580149222017011404537+44883-093229FM-15+0255KMSP V0201505N00315021345MN0160935N5-01335-01835103885ADDAA101000095GA1085+021345999GD14991+0213459GE19MSL   +99999+99999GF199999999999021341999999MA1103665100575REMMET09501/13/17 22:53:02 METAR KMSP 140453Z 15006KT 10SM OVC070 M13/M18 A3061 RMK AO2 SLP388 T11331183
0329726580149222017011405537+44883-093229FM-15+0255KMSP V0201505N00315021345MN0160935N5-01285-01785103835ADDAA101000095AJ100089500076099GA1085+021345999GD14991+0213459GE19MSL   +99999+99999GF199999999999021341999999KA1060M-01281KA2060N-01441KA3240M-01281KA4240N-02171MA1103625100545MD1690179+9999REMMET12901/13/17 23:53:02 METAR KMSP 140553Z 15006KT 10SM OVC070 M13/M18 A3060 RMK AO2 SLP383 4/003 T11281178 11128 21144 411281217 56017
0944726580149222017011405596+44883-093229SOD  +0255KMSP V020999999999999999999999999999+99999+99999999999ADDAA124000095AJ100109599999999AL12400095AN1024000095AX1086246KA1240M-01275KA2240N-02165MG1100914103834OE11240058132099995OE22240044715099995OE33240023799999995REMSOD75624 HR PRECIPITATION (IN): 0.00 SNOW DEPTH (IN):4     24 HR SNOWFALL (IN):0.0  WEATHER(CODE):8  24 HR MAX TEMP (F):  924 HR MIN TEMP (F): -7AVERAGE STATION PRESSURE:29.800 MINIMUM SEA LEVEL PRESSURE:30.66 TIME OF OCCURRENCE:2359 PEAK WIND SPEED (MPH): 13 PEAK WIND DIR (DEG):320 PEAK WIND TIME (LST):      FASTEST 2MIN SPEED (MPH): 10FASTEST 2MIN DIR (DEG):150 FASTEST 2MIN TIME (LST):     AVERAGE WIND SPEED (MPH): 5.3 24 HR AVG TEMP (F):  1DEPART FROM NORMAL:-14  HEATING DEGREE DAYS: 64 COOLING DEGREE DAYS:  0 LATEST DAY MAX TEMP (0700-1900 LST):7   LATEST NIGHT MIN TEMP(1900-0800 LST):-7 HOURLY INCREMENTAL PRECIPITATION VALUES (IN):.00 0.00 0.00 0.00 0.00 0.00 0.00 0.00 0.00 0.00 0.00 0.00 0.00 0.00 0.00 0.00 0.00 0.00 0.00 0.00 0.00 0.00 0.00 0.00EQDR01     87AXW093
0234726580149222017011406004+44883-093217FM-12+025599999V0201501N003119999999N016000199-01281-01781103831ADDAJ100083100080099GA1999+022501999GE19MSL   +99999+99999GF108991999999022501999999KA1240M-01281KA2240N-02171MA1999999100421MD1610171+9999REMSYN08672658 32866 81506 11128 21178 30042 40383 56017 90553 333 11128 21217 4/008 555 91406=
0217726580149222017011406537+44883-093229FM-15+0255KMSP V0201505N00315019815MN0160935N5-01335-01835103755ADDAA101000095GA1075+019815999GD13991+0198159GE19MSL   +99999+99999GF199999999999019811999999MA1103525100445REMMET10001/14/17 00:53:02 METAR KMSP 140653Z 15006KT 10SM BKN065 M13/M18 A3057 RMK AO2 SLP375 T11331183 (PL)
0192726580149222017011407537+44883-093229FM-15+0255KMSP V0201505N002652200059N0160935N5-01395-01835103715ADDAA101000095GA1005+999999999GD10991+9999999GF100991999999999999999999MA1103495100415REMMET09701/14/17 01:53:02 METAR KMSP 140753Z 15005KT 10SM CLR M14/M18 A3056 RMK AO2 SLP371 T11391183 (PL)
0212726580149222017011408537+44883-093229FM-15+0255KMSP V0201505N002152200059N0160935N5-01505-01835103705ADDAA101000095GA1005+999999999GD10991+9999999GF100991999999999999999999MA1103495100415MD1690139+9999REMMET10301/14/17 02:53:02 METAR KMSP 140853Z 15004KT 10SM CLR M15/M18 A3056 RMK AO2 SLP370 T11501183 56013 (PL)
0192726580149222017011409537+44883-093229FM-15+0255KMSP V0201705N002152200059N0160935N5-01395-01785103625ADDAA101000095GA1005+999999999GD10991+9999999GF100991999999999999999999MA1103395100315REMMET09701/14/17 03:53:02 METAR KMSP 140953Z 17004KT 10SM CLR M14/M18 A3053 RMK AO2 SLP362 T11391178 (PL)
0217726580149222017011410537+44883-093229FM-15+0255KMSP V0201905N00155012195MN0160935N5-01395-01785103595ADDAA101000095GA1075+012195999GD13991+0121959GE19MSL   +99999+99999GF199999999999012191999999MA1103355100285REMMET10001/14/17 04:53:02 METAR KMSP 141053Z 19003KT 10SM BKN040 M14/M18 A3052 RMK AO2 SLP359 T11391178 (PL)
0317726580149222017011411537+44883-093229FM-15+0255KMSP V0201905N002152200059N0160935N5-01335-01725103505ADDAA101000095AJ100089500076099GA1025+011285999GD11991+0112859GE19AGL   +99999+99999GF102995999999011281999999KA1060M-01281KA2060N-01561MA1103285100215MD1690189+9999REMMET12401/14/17 05:53:02 METAR KMSP 141153Z 19004KT 10SM FEW037 M13/M17 A3050 RMK AO2 SLP350 4/003 T11331172 11128 21156 56018 (PL)EQDD01      0ADE726
0234726580149222017011412004+44883-093217FM-12+025599999V0201901N002119999999N016000199-01331-01721103501ADDAJ100083100080099GA1999+012501999GE19MSL   +99999+99999GF102991999999012501999999KA1240M-01281KA2240N-01561MA1999999100091MD1610181+9999REMSYN08672658 32666 21904 11133 21172 30009 40350 56018 91153 333 11128 21156 4/008 555 91412=
0236726580149222017011412537+44883-093229FM-15+0255KMSP V0201805N002152200059N0160935N5-01395-01725103465ADDAA101000095GA1025+011285999GD11991+0112859GE19AGL   +99999+99999GF102995999999011281999999MA1103255100185REMMET10001/14/17 06:53:02 METAR KMSP 141253Z 18004KT 10SM FEW037 M14/M17 A3049 RMK AO2 SLP346 T11391172 (PL)EQDD01      0ADE726
0193726580149222017011413537+44883-093229FM-15+0255KMSP V0209999C000052200059N0160935N5-01445-01725103465ADDAA101000095GA1005+999999999GD10991+9999999GF100991999999999999999999MA1103255100185REMMET09801/14/17 07:53:02 METAR KMSP 141353Z 00000KT 10SM CLR M14/M17 A3049 RMK AO2 SLP346 T11441172 (TNP)
0213726580149222017011414537+44883-093229FM-15+0255KMSP V0209999C000052200059N0160935N5-01395-01615103485ADDAA101000095GA1005+999999999GD10991+9999999GF100991999999999999999999MA1103285100215MD1590029+9999REMMET10401/14/17 08:53:02 METAR KMSP 141453Z 00000KT 10SM CLR M14/M16 A3050 RMK AO2 SLP348 T11391161 55002 (TNP)
0193726580149222017011415537+44883-093229FM-15+0255KMSP V0202405N002152200059N0160935N5-01115-01565103525ADDAA101000095GA1005+999999999GD10991+9999999GF100991999999999999999999MA1103325100245REMMET09801/14/17 09:53:02 METAR KMSP 141553Z 24004KT 10SM CLR M11/M16 A3051 RMK AO2 SLP352 T11111156 (TNP)
0193726580149222017011416537+44883-093229FM-15+0255KMSP V0202605N003652200059N0160935N5-00945-01505103505ADDAA101000095GA1005+999999999GD10991+9999999GF100991999999999999999999MA1103325100245REMMET09801/14/17 10:53:02 METAR KMSP 141653Z 26007KT 10SM CLR M09/M15 A3051 RMK AO2 SLP350 T10941150 (TNP)
0274726580149222017011417537+44883-093229FM-15+0255KMSP V0202605N002152200059N0160935N5-00785-01395103435ADDAA101000095AJ100089500076099GA1005+999999999GD10991+9999999GF100991999999999999999999KA1060M-00781KA2060N-01501MA1103255100185MD1890029+9999REMMET12201/14/17 11:53:02 METAR KMSP 141753Z 26004KT 10SM CLR M08/M14 A3049 RMK AO2 SLP343 4/003 T10781139 11078 21150 58002 (TNP)
0170726580149222017011418004+44883-093217FM-12+025599999V0202601N002119999999N016000199-00781-01391103431ADDAJ100083100080099KA1120M-00781KA2120N-01721MA1999999100051MD1810021+9999REMSYN08672658 32966 02604 11078 21139 30005 40343 58002 91753 333 11078 21172 4/008 555 91418=
0193726580149222017011418537+44883-093229FM-15+0255KMSP V0202905N002152200059N0160935N5-00565-01285103375ADDAA101000095GA1005+999999999GD10991+9999999GF100991999999999999999999MA1103185100115REMMET09801/14/17 12:53:02 METAR KMSP 141853Z 29004KT 10SM CLR M06/M13 A3047 RMK AO2 SLP337 T10561128 (TNP)
0193726580149222017011419537+44883-093229FM-15+0255KMSP V0202705N002152200059N0160935N5-00505-01225103335ADDAA101000095GA1005+999999999GD10991+9999999GF100991999999999999999999MA1103155100085REMMET09801/14/17 13:53:02 METAR KMSP 141953Z 27004KT 10SM CLR M05/M12 A3046 RMK AO2 SLP333 T10501122 (TNP)
0213726580149222017011420537+44883-093229FM-15+0255KMSP V0202505N001552200059N0160935N5-00445-01225103275ADDAA101000095GA1005+999999999GD10991+9999999GF100991999999999999999999MA1103085100015MD1890159+9999REMMET10401/14/17 14:53:02 METAR KMSP 142053Z 25003KT 10SM CLR M04/M12 A3044 RMK AO2 SLP327 T10441122 58015 (TNP)
0192726580149222017011421537+44883-093229FM-15+0255KMSP V0202405N002652200059N0160935N5-00445-01225103265ADDAA101000095GA1005+999999999GD10991+9999999GF100991999999999999999999MA1103085100015REMMET09701/14/17 15:53:02 METAR KMSP 142153Z 24005KT 10SM CLR M04/M12 A3044 RMK AO2 SLP326 T10441122 (NK)
0192726580149222017011422537+44883-093229FM-15+0255KMSP V0202305N003652200059N0160935N5-00615-01285103265ADDAA101000095GA1005+999999999GD10991+9999999GF100991999999999999999999MA1103085100015REMMET09701/14/17 16:53:02 METAR KMSP 142253Z 23007KT 10SM CLR M06/M13 A3044 RMK AO2 SLP326 T10611128 (NK)
0273726580149222017011423537+44883-093229FM-15+0255KMSP V0202405N002152200059N0160935N5-00785-01285103285ADDAA101000095AJ100059500051099GA1005+999999999GD10991+9999999GF100991999999999999999999KA1060M-00441KA2060N-00781MA1103085100015MD1390009+9999REMMET12101/14/17 17:53:02 METAR KMSP 142353Z 24004KT 10SM CLR M08/M13 A3044 RMK AO2 SLP328 4/002 T10781128 11044 21078 53000 (NK)
0175726580149222017011500004+44883-093217FM-12+025599999V0202401N002119999999N016000199-00781-01281103281ADDAJ100053100050099KA1120M-00441KA2120N-01561MA1999999099891REMSYN08672658 32966 02404 11078 21128 39989 40328 53000 92353 333 11044 21156 4/005 555 91500=EQDQ013     3APCTEN
0187726580149222017011500537+44883-093229FM-15+0255KMSP V0202305N002152200059N0160935N5-00835-01335103345ADDAA101000095GA1005+999999999GD10991+9999999GF100991999999999999999999MA1103155100085REMMET09201/14/17 18:53:01 METAR KMSP 150053Z 23004KT 10SM CLR M08/M13 A3046 RMK AO2 SLP334 T10831133
0187726580149222017011501537+44883-093229FM-15+0255KMSP V0202505N002652200059N0160935N5-01005-01395103355ADDAA101000095GA1005+999999999GD10991+9999999GF100991999999999999999999MA1103155100085REMMET09201/14/17 19:53:01 METAR KMSP 150153Z 25005KT 10SM CLR M10/M14 A3046 RMK AO2 SLP335 T11001139
0207726580149222017011502537+44883-093229FM-15+0255KMSP V0202305N003152200059N0160935N5-01065-01395103345ADDAA101000095GA1005+999999999GD10991+9999999GF100991999999999999999999MA1103155100085MD1090049+9999REMMET09801/14/17 20:53:01 METAR KMSP 150253Z 23006KT 10SM CLR M11/M14 A3046 RMK AO2 SLP334 T11061139 50004
0187726580149222017011503537+44883-093229FM-15+0255KMSP V0202405N002152200059N0160935N5-01115-01505103315ADDAA101000095GA1005+999999999GD10991+9999999GF100991999999999999999999MA1103125100045REMMET09201/14/17 21:53:02 METAR KMSP 150353Z 24004KT 10SM CLR M11/M15 A3045 RMK AO2 SLP331 T11111150
0187726580149222017011504537+44883-093229FM-15+0255KMSP V0203005N001552200059N0160935N5-01285-01505103295ADDAA101000095GA1005+999999999GD10991+9999999GF100991999999999999999999MA1103085100015REMMET09201/14/17 22:53:02 METAR KMSP 150453Z 30003KT 10SM CLR M13/M15 A3044 RMK AO2 SLP329 T11281150
0304726580149222017011505537+44883-093229FM-15+0255KMSP V0202205N002152200059N0160935N5-01285-01505103325ADDAA101000095AJ100059500051099GA1005+999999999GD10991+9999999GF100991999999999999999999KA1060M-00781KA2060N-01331KA3240M-00441KA4240N-01561MA1103155100085MD1590009+9999REMMET12601/14/17 23:53:02 METAR KMSP 150553Z 22004KT 10SM CLR M13/M15 A3046 RMK AO2 SLP332 4/002 T11281150 11078 21133 410441156 55000
0899726580149222017011505596+44883-093229SOD  +0255KMSP V020999999999999999999999999999+99999+99999999999ADDAA124000095AJ100089599999999AL12400095AN1024000095KA1240M-00435KA2240N-01555MG1100104103254OE11240058128099995OE22240044727099995OE33240021099999995REMSOD73924 HR PRECIPITATION (IN): 0.00 SNOW DEPTH (IN):3     24 HR SNOWFALL (IN):0.0  24 HR MAX TEMP (F): 2424 HR MIN TEMP (F):  4AVERAGE STATION PRESSURE:29.560 MINIMUM SEA LEVEL PRESSURE:30.49 TIME OF OCCURRENCE:1732 PEAK WIND SPEED (MPH): 13 PEAK WIND DIR (DEG):280 PEAK WIND TIME (LST):      FASTEST 2MIN SPEED (MPH): 10FASTEST 2MIN DIR (DEG):270 FASTEST 2MIN TIME (LST):     AVERAGE WIND SPEED (MPH): 4.7 24 HR AVG TEMP (F): 14DEPART FROM NORMAL: -1  HEATING DEGREE DAYS: 51 COOLING DEGREE DAYS:  0 LATEST DAY MAX TEMP (0700-1900 LST):24  LATEST NIGHT MIN TEMP(1900-0800 LST):4  HOURLY INCREMENTAL PRECIPITATION VALUES (IN):.00 0.00 0.00 0.00 0.00 0.00 0.00 0.00 0.00 0.00 0.00 0.00 0.00 0.00 0.00 0.00 0.00 0.00 0.00 0.00 0.00 0.00 0.00 0.00
0170726580149222017011506004+44883-093217FM-12+025599999V0202201N002119999999N016000199-01281-01501103321ADDAJ100053100050099KA1240M-00781KA2240N-01561MA1999999099961MD1510001+9999REMSYN08672658 32966 02204 11128 21150 39996 40332 55000 90553 333 11078 21156 4/005 555 91506=
0192726580149222017011506537+44883-093229FM-15+0255KMSP V0202305N001552200059N0160935N5-01285-01565103265ADDAA101000095GA1005+999999999GD10991+9999999GF100991999999999999999999MA1103085100015REMMET09701/15/17 00:53:02 METAR KMSP 150653Z 23003KT 10SM CLR M13/M16 A3044 RMK AO2 SLP326 T11281156 (AP)
0192726580149222017011507537+44883-093229FM-15+0255KMSP V0202205N001552200059N0160935N5-01335-01615103215ADDAA101000095GA1005+999999999GD10991+9999999GF100991999999999999999999MA1103055099985REMMET09701/15/17 01:53:02 METAR KMSP 150753Z 22003KT 10SM CLR M13/M16 A3043 RMK AO2 SLP321 T11331161 (AP)
0233726580149222017011508537+44883-093229FM-15+0255KMSP V0209999C000052200059N0160935N5-01505-01675103195ADDAA101000095GA1005+999999999GD10991+9999999GF100991999999999999999999MA1103015099955MD1690129+9999WA1900099REMMET11501/15/17 02:53:02 METAR KMSP 150853Z 00000KT 10SM CLR M15/M17 A3042 RMK AO2 SLP319 I1000 I3000 T11501167 56012 (AP)
0207726580149222017011509537+44883-093229FM-15+0255KMSP V0209999C000052200059N0160935N5-01565-01835103155ADDAA101000095GA1005+999999999GD10991+9999999GF100991999999999999999999MA1102985099915WA1900099REMMET10301/15/17 03:53:02 METAR KMSP 150953Z 00000KT 10SM CLR M16/M18 A3041 RMK AO2 SLP315 I1000 T11561183 (AP)
0207726580149222017011510537+44883-093229FM-15+0255KMSP V0209999C000052200059N0160935N5-01505-01725103135ADDAA101000095GA1005+999999999GD10991+9999999GF100991999999999999999999MA1102955099885WA1900099REMMET10301/15/17 04:53:02 METAR KMSP 151053Z 00000KT 10SM CLR M15/M17 A3040 RMK AO2 SLP313 I1000 T11501172 (AP)
0306726580149222017011511537+44883-093229FM-15+0255KMSP V0209999C000052200059N0160935N5-01505-01785103085ADDAA101000095AJ100059500051099GA1005+999999999GD10991+9999999GF100991999999999999999999KA1060M-01281KA2060N-01561MA1102885099815MD1890129+9999WA1900099REMMET14501/15/17 05:53:02 METAR KMSP 151153Z 00000KT 10SM R30L/5500VP6000FT CLR M15/M18 A3038 RMK AO2 SLP308 4/002 I6000 T11501178 11128 21156 58012 (AP)
0170726580149222017011512004+44883-093217FM-12+025599999V0209999C000019999999N016000199-01501-01781103081ADDAJ100053100050099KA1240M-00441KA2240N-01561MA1999999099691MD1810121+9999REMSYN08672658 32966 00000 11150 21178 39969 40308 58012 91153 333 11044 21156 4/005 555 91512=
0192726580149222017011512537+44883-093229FM-15+0255KMSP V0201505N001552200059N0160935N5-01675-01835103015ADDAA101000095GA1005+999999999GD10991+9999999GF100991999999999999999999MA1102815099755REMMET09701/15/17 06:53:02 METAR KMSP 151253Z 15003KT 10SM CLR M17/M18 A3036 RMK AO2 SLP301 T11671183 (NK)
0192726580149222017011513537+44883-093229FM-15+0255KMSP V0209999C000052200059N0160935N5-01565-01785102965ADDAA101000095GA1005+999999999GD10991+9999999GF100991999999999999999999MA1102785099715REMMET09701/15/17 07:53:02 METAR KMSP 151353Z 00000KT 10SM CLR M16/M18 A3035 RMK AO2 SLP296 T11561178 (NK)
0212726580149222017011514537+44883-093229FM-15+0255KMSP V0209999C000052200059N0160935N5-01505-01675102975ADDAA101000095GA1005+999999999GD10991+9999999GF100991999999999999999999MA1102785099715MD1590129+9999REMMET10301/15/17 08:53:02 METAR KMSP 151453Z 00000KT 10SM CLR M15/M17 A3035 RMK AO2 SLP297 T11501167 55012 (NK)
0192726580149222017011515537+44883-093229FM-15+0255KMSP V0209999V001552200059N0160935N5-01175-01445102995ADDAA101000095GA1005+999999999GD10991+9999999GF100991999999999999999999MA1102815099755REMMET09701/15/17 09:53:02 METAR KMSP 151553Z VRB03KT 10SM CLR M12/M14 A3036 RMK AO2 SLP299 T11171144 (NK)
0192726580149222017011516537+44883-093229FM-15+0255KMSP V0209999C000052200059N0160935N5-00895-01285102925ADDAA101000095GA1005+999999999GD10991+9999999GF100991999999999999999999MA1102745099685REMMET09701/15/17 10:53:02 METAR KMSP 151653Z 00000KT 10SM CLR M09/M13 A3034 RMK AO2 SLP292 T10891128 (NK)
0273726580149222017011517537+44883-093229FM-15+0255KMSP V0202005N001552200059N0160935N5-00505-00945102735ADDAA101000095AJ100059500051099GA1005+999999999GD10991+9999999GF100991999999999999999999KA1060M-00441KA2060N-01721MA1102575099525MD1890209+9999REMMET12101/15/17 11:53:02 METAR KMSP 151753Z 20003KT 10SM CLR M05/M09 A3029 RMK AO2 SLP273 4/002 T10501094 11044 21172 58020 (NK)
0170726580149222017011518004+44883-093217FM-12+025599999V0202001N001519999999N016000199-00501-00941102731ADDAJ100053100050099KA1120M-00441KA2120N-01721MA1999999099391MD1810201+9999REMSYN08672658 32966 02003 11050 21094 39939 40273 58020 91753 333 11044 21172 4/005 555 91518=
0192726580149222017011518537+44883-093229FM-15+0255KMSP V0202105N002152200059N0160935N5-00225-00785102675ADDAA101000095GA1005+999999999GD10991+9999999GF100991999999999999999999MA1102515099455REMMET09701/15/17 12:53:02 METAR KMSP 151853Z 21004KT 10SM CLR M02/M08 A3027 RMK AO2 SLP267 T10221078 (NK)
0236726580149222017011519537+44883-093229FM-15+0255KMSP V0209999V001552200059N0160935N5+00005-00725102565ADDAA101000095GA1025+076205999GD11991+0762059GE19AGL   +99999+99999GF102995999999076201999999MA1102405099355REMMET10001/15/17 13:53:02 METAR KMSP 151953Z VRB03KT 10SM FEW250 00/M07 A3024 RMK AO2 SLP256 T00001072 (JDB)EQDD01      0ADE726
0256726580149222017011520537+44883-093229FM-15+0255KMSP V0202205N005152200059N0160935N5+00065-00725102535ADDAA101000095GA1045+091445999GD12991+0914459GE19AGL   +99999+99999GF104995999999091441999999MA1102375099325MD1690199+9999REMMET10601/15/17 14:53:02 METAR KMSP 152053Z 22010KT 10SM SCT300 01/M07 A3023 RMK AO2 SLP253 T00061072 56019 (JDB)EQDD01      0ADE726
0236726580149222017011521537+44883-093229FM-15+0255KMSP V0202005N002652200059N0160935N5+00065-00675102495ADDAA101000095GA1045+091445999GD12991+0914459GE19AGL   +99999+99999GF104995999999091441999999MA1102345099285REMMET10001/15/17 15:53:02 METAR KMSP 152153Z 20005KT 10SM SCT300 01/M07 A3022 RMK AO2 SLP249 T00061067 (JDB)EQDD01      0ADE726
0217726580149222017011522537+44883-093229FM-15+0255KMSP V0202005N00215091445MN0160935N5+00005-00725102495ADDAA101000095GA1075+091445999GD13991+0914459GE19MSL   +99999+99999GF199999999999091441999999MA1102345099285REMMET10001/15/17 16:53:02 METAR KMSP 152253Z 20004KT 10SM BKN300 00/M07 A3022 RMK AO2 SLP249 T00001072 (JDB)
0299726580149222017011523537+44883-093229FM-15+0255KMSP V0201405N00215091445MN0160935N5-00225-00785102525ADDAA101000095AJ100059500051099GA1075+091445999GD13991+0914459GE19MSL   +99999+99999GF199999999999091441999999KA1060M+00111KA2060N-00501MA1102345099285MD1590029+9999REMMET12501/15/17 17:53:02 METAR KMSP 152353Z 14004KT 10SM BKN300 M02/M08 A3022 RMK AO2 SLP252 4/002 T10221078 10011 21050 55002 (JDB)
0218726580149222017011600004+44883-093217FM-12+025599999V0201401N002119999999N016000199-00221-00781102521ADDAJ100053100050099GE19MSL   +99999+99999GF106991999999999999999999KA1120M+00111KA2120N-01561MA1999999099161MD1510021+9999REMSYN08672658 32966 61404 11022 21078 39916 40252 55002 92353 333 10011 21156 4/005 555 91600=
0212726580149222017011600537+44883-093229FM-15+0255KMSP V0201705N00315091445MN0160935N5-00395-00785102525ADDAA101000095GA1075+091445999GD13991+0914459GE19MSL   +99999+99999GF199999999999091441999999MA1102345099285REMMET09501/15/17 18:53:01 METAR KMSP 160053Z 17006KT 10SM BKN300 M04/M08 A3022 RMK AO2 SLP252 T10391078
0211726580149222017011601537+44883-093229FM-15+0255KMSP V0201605N00215091445MN0144845N5-00445-00785102505ADDAA101000095GA1075+091445999GD13991+0914459GE19MSL   +99999+99999GF199999999999091441999999MA1102345099285REMMET09401/15/17 19:53:01 METAR KMSP 160153Z 16004KT 9SM BKN300 M04/M08 A3022 RMK AO2 SLP250 T10441078
0232726580149222017011602537+44883-093229FM-15+0255KMSP V0201505N00215091445MN0160935N5-00565-00895102505ADDAA101000095GA1085+091445999GD14991+0914459GE19MSL   +99999+99999GF199999999999091441999999MA1102345099285MD1690029+9999REMMET10101/15/17 20:53:02 METAR KMSP 160253Z 15004KT 10SM OVC300 M06/M09 A3022 RMK AO2 SLP250 T10561089 56002
0212726580149222017011603537+44883-093229FM-15+0255KMSP V0201505N00265091445MN0160935N5-00675-00895102525ADDAA101000095GA1085+091445999GD14991+0914459GE19MSL   +99999+99999GF199999999999091441999999MA1102375099325REMMET09501/15/17 21:53:02 METAR KMSP 160353Z 15005KT 10SM OVC300 M07/M09 A3023 RMK AO2 SLP252 T10671089
0212726580149222017011604537+44883-093229FM-15+0255KMSP V0201505N00215091445MN0160935N5-00675-00945102505ADDAA101000095GA1075+091445999GD13991+0914459GE19MSL   +99999+99999GF199999999999091441999999MA1102345099285REMMET09501/15/17 22:53:02 METAR KMSP 160453Z 15004KT 10SM BKN300 M07/M09 A3022 RMK AO2 SLP250 T10671094
0329726580149222017011605537+44883-093229FM-15+0255KMSP V0201705N00315091445MN0160935N5-00725-01005102435ADDAA101000095AJ100059500051099GA1075+091445999GD13991+0914459GE19MSL   +99999+99999GF199999999999091441999999KA1060M-00221KA2060N-00721KA3240M+00111KA4240N-01721MA1102275099225MD1890049+9999REMMET12901/15/17 23:53:02 METAR KMSP 160553Z 17006KT 10SM BKN300 M07/M10 A3020 RMK AO2 SLP243 4/002 T10721100 11022 21072 400111172 58004
0944726580149222017011605596+44883-093229SOD  +0255KMSP V020999999999999999999999999999+99999+99999999999ADDAA124000095AJ100059599999999AL12400095AN1024000095AX1016246KA1240M+00115KA2240N-01715MG1099464102444OE11240067121099995OE22240044723099995OE33240015699999995REMSOD75624 HR PRECIPITATION (IN): 0.00 SNOW DEPTH (IN):2     24 HR SNOWFALL (IN):0.0  WEATHER(CODE):1  24 HR MAX TEMP (F): 3424 HR MIN TEMP (F):  1AVERAGE STATION PRESSURE:29.370 MINIMUM SEA LEVEL PRESSURE:30.25 TIME OF OCCURRENCE:2359 PEAK WIND SPEED (MPH): 15 PEAK WIND DIR (DEG):210 PEAK WIND TIME (LST):      FASTEST 2MIN SPEED (MPH): 10FASTEST 2MIN DIR (DEG):230 FASTEST 2MIN TIME (LST):     AVERAGE WIND SPEED (MPH): 3.5 24 HR AVG TEMP (F): 18DEPART FROM NORMAL:  3  HEATING DEGREE DAYS: 47 COOLING DEGREE DAYS:  0 LATEST DAY MAX TEMP (0700-1900 LST):34  LATEST NIGHT MIN TEMP(1900-0800 LST):1  HOURLY INCREMENTAL PRECIPITATION VALUES (IN):.00 0.00 0.00 0.00 0.00 0.00 0.00 0.00 0.00 0.00 0.00 0.00 0.00 0.00 0.00 0.00 0.00 0.00 0.00 0.00 0.00 0.00 0.00 0.00EQDR01     17AXW093
0218726580149222017011606004+44883-093217FM-12+025599999V0201701N003119999999N016000199-00721-01001102431ADDAJ100053100050099GE19MSL   +99999+99999GF106991999999999999999999KA1240M-00221KA2240N-01561MA1999999099101MD1810041+9999REMSYN08672658 32966 61706 11072 21100 39910 40243 58004 90553 333 11022 21156 4/005 555 91606=
0217726580149222017011606537+44883-093229FM-15+0255KMSP V0201805N00265091445MN0160935N5-00565-00945102395ADDAA101000095GA1075+091445999GD13991+0914459GE19MSL   +99999+99999GF199999999999091441999999MA1102275099225REMMET10001/16/17 00:53:02 METAR KMSP 160653Z 18005KT 10SM BKN300 M06/M09 A3020 RMK AO2 SLP239 T10561094 (NK)
0217726580149222017011607537+44883-093229FM-15+0255KMSP V0201305N00155091445MN0160935N5-00725-01005102385ADDAA101000095GA1075+091445999GD13991+0914459GE19MSL   +99999+99999GF199999999999091441999999MA1102275099225REMMET10001/16/17 01:53:02 METAR KMSP 160753Z 13003KT 10SM BKN300 M07/M10 A3020 RMK AO2 SLP238 T10721100 (NK)
0237726580149222017011608537+44883-093229FM-15+0255KMSP V0201305N00215091445MN0160935N5-00835-01065102395ADDAA101000095GA1075+091445999GD13991+0914459GE19MSL   +99999+99999GF199999999999091441999999MA1102275099225MD1690039+9999REMMET10601/16/17 02:53:02 METAR KMSP 160853Z 13004KT 10SM BKN300 M08/M11 A3020 RMK AO2 SLP239 T10831106 56003 (NK)
0217726580149222017011609537+44883-093229FM-15+0255KMSP V0200705N00215091445MN0160935N5-00895-01175102385ADDAA101000095GA1075+091445999GD13991+0914459GE19MSL   +99999+99999GF199999999999091441999999MA1102245099195REMMET10001/16/17 03:53:02 METAR KMSP 160953Z 07004KT 10SM BKN300 M09/M12 A3019 RMK AO2 SLP238 T10891117 (NK)
0235726580149222017011610537+44883-093229FM-15+0255KMSP V0201605N003152200059N0128755N5-00835-01065102325ADDAA101000095GA1045+091445999GD12991+0914459GE19AGL   +99999+99999GF104995999999091441999999MA1102205099155REMMET09901/16/17 04:53:02 METAR KMSP 161053Z 16006KT 8SM SCT300 M08/M11 A3018 RMK AO2 SLP232 T10831106 (NK)EQDD01      0ADE726
0316726580149222017011611537+44883-093229FM-15+0255KMSP V0201305N002152200059N0128755N5-00785-01065102305ADDAA101000095AJ100059500051099GA1045+091445999GD12991+0914459GE19AGL   +99999+99999GF104995999999091441999999KA1060M-00561KA2060N-01001MA1102175099125MD1890089+9999REMMET12301/16/17 05:53:02 METAR KMSP 161153Z 13004KT 8SM SCT300 M08/M11 A3017 RMK AO2 SLP230 4/002 T10781106 11056 21100 58008 (NK)EQDD01      0ADE726
0218726580149222017011612004+44883-093217FM-12+025599999V0201301N002119999999N012000199-00781-01061102301ADDAJ100053100050099GE19MSL   +99999+99999GF104991999999999999999999KA1240M+00111KA2240N-01001MA1999999099001MD1810081+9999REMSYN08672658 32962 41304 11078 21106 39900 40230 58008 91153 333 10011 21100 4/005 555 91612=
0217726580149222017011612537+44883-093229FM-15+0255KMSP V0200805N00265076205MN0160935N5-00785-01065102345ADDAA101000095GA1075+076205999GD13991+0762059GE19MSL   +99999+99999GF199999999999076201999999MA1102205099155REMMET10001/16/17 06:53:02 METAR KMSP 161253Z 08005KT 10SM BKN250 M08/M11 A3018 RMK AO2 SLP234 T10781106 (NK)
0217726580149222017011613537+44883-093229FM-15+0255KMSP V0201105N00215076205MN0128755N5-00835-01115102345ADDAA101000095GA1075+076205999GD13991+0762059GE19MSL   +99999+99999GF199999999999076201999999MA1102205099155REMMET10001/16/17 07:53:02 METAR KMSP 161353Z 11004KT 8SM BKN250 M08/M11 A3018 RMK AO2 SLP234 T10831111 (CLB)
0184726580149222017011614516+44883-093229FM-16+0255KMSP V0209999C00005076205MN0128755N5-00805-01105999999ADDGA1045+002745999GA2075+076205999GD12991+0027459GD23991+0762059MA1102175099125REMMET09501/16/17 08:51:02 SPECI KMSP 161451Z 00000KT 8SM SCT009 BKN250 M08/M11 A3017 RMK AO2 FIBI (CLB)
0313726580149222017011614537+44883-093229FM-15+0255KMSP V0209999C00005076205MN0128755N5-00785-01065102325ADDAA101000095GA1025+002745999GA2025+067065999GA3075+076205999GD11991+0027459GD21991+0670659GD33991+0762059GE19MSL   +99999+99999GF199999999999002741999999MA1102175099125MD1090009+9999REMMET12001/16/17 08:53:02 METAR KMSP 161453Z 00000KT 8SM FEW009 FEW220 BKN250 M08/M11 A3017 RMK AO2 SLP232 T10781106 50000 (CLB)
0237726580149222017011615347+44883-093229FM-16+0255KMSP V0209999C00005003055MN0128755N5-00675-01005999999ADDGA1075+003055999GA2075+076205999GD13991+0030559GD23991+0762059GE19MSL   +99999+99999GF199999999999003051999999MA1102175099125REMMET10001/16/17 09:34:02 SPECI KMSP 161534Z 00000KT 8SM BKN010 BKN250 M07/M10 A3017 RMK AO2 T10671100 (CLB)
0217726580149222017011615537+44883-093229FM-15+0255KMSP V0201005N00215003055MN0128755N5-00615-00945102315ADDAA101000095GA1085+003055999GD14991+0030559GE19MSL   +99999+99999GF199999999999003051999999MA1102175099125REMMET10001/16/17 09:53:02 METAR KMSP 161553Z 10004KT 8SM OVC010 M06/M09 A3017 RMK AO2 SLP231 T10611094 (CLB)
0217726580149222017011616537+44883-093229FM-15+0255KMSP V0209999V00215003055MN0128755N5-00445-00895102275ADDAA101000095GA1085+003055999GD14991+0030559GE19MSL   +99999+99999GF199999999999003051999999MA1102135099095REMMET10001/16/17 10:53:02 METAR KMSP 161653Z VRB04KT 8SM OVC010 M04/M09 A3016 RMK AO2 SLP227 T10441089 (CLB)
0305726580149222017011617537+44883-093229FM-15+0255KMSP V0200805N00265003055MN0128755N5-00285-00835102185ADDAA101000095AJ100059500051099GA1085+003055999GD14991+0030559GE19MSL   +99999+99999GF199999999999003051999999KA1060M-00281KA2060N-01001MA1102075099025MD1890129+9999REMMET13101/16/17 11:53:02 METAR KMSP 161753Z 08005KT 8SM OVC010 M03/M08 A3014 RMK AO2 SLP218 4/002 933003 T10281083 11028 21100 58012 (CLB)
0234726580149222017011618004+44883-093217FM-12+025599999V0200801N002619999999N012000199-00281-00831102181ADDAJ100053100050099GA1999+004501999GE19MSL   +99999+99999GF108991999999004501999999KA1120M-00281KA2120N-01001MA1999999098901MD1810121+9999REMSYN08672658 32462 80805 11028 21083 39890 40218 58012 91753 333 11028 21100 4/005 555 91618=
0199726580149222017011618347+44883-093229FM-16+0255KMSP V0200605N00215002745MN0144845N5-00285-00785999999ADDGA1085+002745999GD14991+0027459GE19MSL   +99999+99999GF199999999999002741999999MA1101965098925REMMET09301/16/17 12:34:02 SPECI KMSP 161834Z 06004KT 9SM OVC009 M03/M08 A3011 RMK AO2 T10281078 (CLB)
0255726580149222017011618537+44883-093229FM-15+0255KMSP V0200605N00265002745MN0144845N5-00225-00785102055ADDAA101000095GA1075+002745999GA2085+009755999GD13991+0027459GD24991+0097559GE19MSL   +99999+99999GF199999999999002741999999MA1101935098895REMMET10701/16/17 12:53:02 METAR KMSP 161853Z 06005KT 9SM BKN009 OVC032 M02/M08 A3010 RMK AO2 SLP205 T10221078 (CLB)
0199726580149222017011619027+44883-093229FM-16+0255KMSP V0200705N00215003055MN0144845N5-00175-00785999999ADDGA1085+003055999GD14991+0030559GE19MSL   +99999+99999GF199999999999003051999999MA1101905098855REMMET09301/16/17 13:02:02 SPECI KMSP 161902Z 07004KT 9SM OVC010 M02/M08 A3009 RMK AO2 T10171078 (CLB)
0199726580149222017011619257+44883-093229FM-16+0255KMSP V0200605N00215002745MN0144845N5-00175-00725999999ADDGA1085+002745999GD14991+0027459GE19MSL   +99999+99999GF199999999999002741999999MA1101865098825REMMET09301/16/17 13:25:02 SPECI KMSP 161925Z 06004KT 9SM OVC009 M02/M07 A3008 RMK AO2 T10171072 (CLB)
0237726580149222017011619357+44883-093229FM-16+0255KMSP V0200605N00265003055MN0144845N5-00175-00725999999ADDGA1075+003055999GA2085+010065999GD13991+0030559GD24991+0100659GE19MSL   +99999+99999GF199999999999003051999999MA1101835098795REMMET10001/16/17 13:35:02 SPECI KMSP 161935Z 06005KT 9SM BKN010 OVC033 M02/M07 A3007 RMK AO2 T10171072 (CLB)
0222726580149222017011619516+44883-093229FM-16+0255KMSP V0200605N00265006105MN0144845N5-00105-00705999999ADDGA1045+003055999GA2075+006105999GA3085+010365999GD12991+0030559GD23991+0061059GD34991+0103659MA1101835098795REMMET10201/16/17 13:51:02 SPECI KMSP 161951Z 06005KT 9SM SCT010 BKN020 OVC034 M01/M07 A3007 RMK AO2 FIBI (CLB)
0293726580149222017011619537+44883-093229FM-15+0255KMSP V0200705N00265006105MN0144845N5-00115-00725101955ADDAA101000095GA1025+003055999GA2075+006105999GA3085+010365999GD11991+0030559GD23991+0061059GD34991+0103659GE19MSL   +99999+99999GF199999999999003051999999MA1101835098795REMMET11401/16/17 13:53:02 METAR KMSP 161953Z 07005KT 9SM FEW010 BKN020 OVC034 M01/M07 A3007 RMK AO2 SLP195 T10111072 (CLB)
0237726580149222017011620537+44883-093229FM-15+0255KMSP V0200605N00265005795MN0112655N5-00065-00615101905ADDAA101000095GA1085+005795999GD14991+0057959GE19MSL   +99999+99999GF199999999999005791999999MA1101765098725MD1690279+9999REMMET10601/16/17 14:53:02 METAR KMSP 162053Z 06005KT 7SM OVC019 M01/M06 A3005 RMK AO2 SLP190 T10061061 56027 (CLB)
0217726580149222017011621537+44883-093229FM-15+0255KMSP V0200705N00265005495MN0128755N5-00065-00565101875ADDAA101000095GA1085+005495999GD14991+0054959GE19MSL   +99999+99999GF199999999999005491999999MA1101765098725REMMET10001/16/17 15:53:02 METAR KMSP 162153Z 07005KT 8SM OVC018 M01/M06 A3005 RMK AO2 SLP187 T10061056 (JDB)
0216726580149222017011622537+44883-093229FM-15+0255KMSP V0200605N00315006405MN0128755N5+00005-00565101845ADDAA101000095GA1085+006405999GD14991+0064059GE19MSL   +99999+99999GF199999999999006401999999MA1101735098695REMMET09901/16/17 16:53:02 METAR KMSP 162253Z 06006KT 8SM OVC021 00/M06 A3004 RMK AO2 SLP184 T00001056 (JDB)
0275726580149222017011623157+44883-093229FM-16+0255KMSP V0200405N00265013415MN0144845N5-00065-00505999999ADDGA1045+006405999GA2045+010975999GA3085+013415999GD12991+0064059GD22991+0109759GD34991+0134159GE19MSL   +99999+99999GF199999999999006401999999MA1101735098695REMMET10701/16/17 17:15:02 SPECI KMSP 162315Z 04005KT 9SM SCT021 SCT036 OVC044 M01/M05 A3004 RMK AO2 T10061050 (JDB)
0300726580149222017011623317+44883-093229FM-16+0255KMSP V0200405N00265011285MN0144845N5-00065-00505999999ADDAA101000021AU118020015AW1645GA1075+011285999GA2085+013415999GD13991+0112859GD24991+0134159GE19MSL   +99999+99999GF199999999999011281999999MA1101735098695WA1900099REMMET12601/16/17 17:31:02 SPECI KMSP 162331Z 04005KT 9SM -FZRA BKN037 OVC044 M01/M05 A3004 RMK AO2 FZRAB31 P0000 I1000 T10061050 (JDB)
0392726580149222017011623537+44883-093229FM-15+0255KMSP V0200405N00315010975MN0096565N5-00065-00505101835ADDAA101000025AA206000021AJ100059500051099AU118020015AW1645GA1085+010975999GD14991+0109759GE19MSL   +99999+99999GF199999999999010971999999KA1060M+00001KA2060N-00281MA1101695098665MD1690069+9999WA1900099REMMET16201/16/17 17:53:02 METAR KMSP 162353Z 04006KT 6SM -FZRA OVC036 M01/M05 A3003 RMK AO2 FZRAB31 SLP183 4/002 P0000 60000 I1000 I6000 T10061050 10000 21028 56006 (JDB)EQDQ01  00008PRCP06
0251726580149222017011700004+44883-093217FM-12+025599999V0200401N003119999999N009000199-00061-00501101831ADDAA106000021AJ100053100050099GA1999+012501999GE19MSL   +99999+99999GF108991999999012501999999KA1120M+00001KA2120N-01001MA1999999098541MD1610061+9999REMSYN09272658 11659 80406 11006 21050 39854 40183 56006 69901 92353 333 10000 21100 4/005 555 91700=
0293726580149222017011700537+44883-093229FM-15+0255KMSP V0200605N00315011285MN0096565N5-00065-00395101775ADDAA101000595AU118020015AW1645GA1075+011285999GA2085+014025999GD13991+0112859GD24991+0140259GE19MSL   +99999+99999GF199999999999011281999999MA1101665098625WA1900199REMMET11901/16/17 18:53:01 METAR KMSP 170053Z 06006KT 6SM -FZRA BKN037 OVC046 M01/M04 A3002 RMK AO2 SLP177 P0002 I1002 T10061039
0293726580149222017011701537+44883-093229FM-15+0255KMSP V0200305N00265014025MN0096565N5-00115-00395101725ADDAA101000395AU118020015AW1645GA1025+004885999GA2085+014025999GD11991+0048859GD24991+0140259GE19MSL   +99999+99999GF199999999999004881999999MA1101595098565WA1900199REMMET11901/16/17 19:53:01 METAR KMSP 170153Z 03005KT 6SM -FZRA FEW016 OVC046 M01/M04 A3000 RMK AO2 SLP172 P0001 I1001 T10111039
0355726580149222017011702537+44883-093229FM-15+0255KMSP V0200105N00365013115MN0080475N5-00065-00335101675ADDAA101000595AA203001391AU118020015AW1645GA1025+008845999GA2085+013115999GD11991+0088459GD24991+0131159GE19MSL   +99999+99999GF199999999999008841999999MA1101525098495MD1790169+9999WA1900299REMMET13701/16/17 20:53:02 METAR KMSP 170253Z 01007KT 5SM -FZRA FEW029 OVC043 M01/M03 A2998 RMK AO2 SLP167 P0002 60005 I1003 I3006 T10061033 57016EQDQ01  00128PRCP03
0324726580149222017011703127+44883-093229FM-16+0255KMSP V0200205N00315003055MN0064375N5-00065-00335999999ADDAA101000231AU118020015AW1645GA1075+003055999GA2075+008845999GA3085+011895999GD13991+0030559GD23991+0088459GD34991+0118959GE19MSL   +99999+99999GF199999999999003051999999MA1101525098495WA1900099REMMET11901/16/17 21:12:02 SPECI KMSP 170312Z 02006KT 4SM -FZRA BKN010 BKN029 OVC039 M01/M03 A2998 RMK AO2 P0001 I1000 T10061033
0275726580149222017011703537+44883-093229FM-15+0255KMSP V0200105N00265003055MN0064375N5-00065-00285101615ADDAA101000895AU118020015AU200001015AW1105AW2645GA1085+003055999GD14991+0030559GE19MSL   +99999+99999GF199999999999003051999999MA1101495098465WA1900199REMMET11501/16/17 21:53:02 METAR KMSP 170353Z 01005KT 4SM -FZRA BR OVC010 M01/M03 A2997 RMK AO2 SLP161 P0002 I1002 T10061028
0268726580149222017011704247+44883-093229FM-16+0255KMSP V0203505N00315002745MN0080475N5-00065-00285999999ADDAA101000231AU118020015AU200001015AW1105AW2645GA1085+002745999GD14991+0027459GE19MSL   +99999+99999GF199999999999002741999999MA1101495098465WA1900199REMMET10801/16/17 22:24:02 SPECI KMSP 170424Z 35006KT 5SM -FZRA BR OVC009 M01/M03 A2997 RMK AO2 P0001 I1001 T10061028
0275726580149222017011704537+44883-093229FM-15+0255KMSP V0203605N00365002135MN0064375N5-00115-00335101595ADDAA101000395AU118020015AU200001015AW1105AW2645GA1085+002135999GD14991+0021359GE19MSL   +99999+99999GF199999999999002131999999MA1101495098465WA1900199REMMET11501/16/17 22:53:02 METAR KMSP 170453Z 36007KT 4SM -FZRA BR OVC007 M01/M03 A2997 RMK AO2 SLP159 P0002 I1002 T10111033
0211726580149222017011705516+44883-093229FM-16+0255KMSP V0203605N00415002745MN0080475N5-00105-00405999999ADDAU118020025AU220060035AW1645AW2745GA1085+002745999GD14991+0027459MA1101465098435REMMET11901/16/17 23:51:03 SPECI KMSP 170551Z 36008KT 5SM -FZRAPL OVC009 M01/M04 A2996 RMK AO2 PLB49 4/002 P0002 I1001 FIBI (AP)
0394726580149222017011705537+44883-093229FM-15+0255KMSP V0203605N00315002745MN0080475N5-00115-00395101575ADDAA101000895AA206002891AJ100059500051099AU118020025AU220060035AW1645AW2745GA1085+002745999GD14991+0027459KA1060M+00001KA2240M+00001KA3240N-01001MA1101465098435MD1690089+9999WA1900399REMMET16601/16/17 23:53:02 METAR KMSP 170553Z 36006KT 5SM -FZRAPL OVC009 M01/M04 A2996 RMK AO2 PLB49 SLP157 4/002 P0002 60011 I1001 I6011 T10111039 10000 21011 400001100 56008EQDQ01  00278PRCP06D01      0ADE735
1058726580149222017011705596+44883-093229SOD  +0255KMSP V020999999999999999999999999999+99999+99999999999ADDAA124003095AJ100059599999999AL12400035AN1024000035AT1AU17FZRA5AT2AU04PL  5AT3AU13BR  5AX1016246AX2046246AX3066246AX4086246KA1240M+00005KA2240N-00995MG1098784101564OE11240067105099995OE22240053636099995OE33240025099999995REMSOD75924 HR PRECIPITATION (IN): 0.12 SNOW DEPTH (IN):2     24 HR SNOWFALL (IN):T    WEATHER(CODE):1468  24 HR MAX TEMP (F): 3224 HR MIN TEMP (F): 14AVERAGE STATION PRESSURE:29.170 MINIMUM SEA LEVEL PRESSURE:29.99 TIME OF OCCURRENCE:2359 PEAK WIND SPEED (MPH): 15 PEAK WIND DIR (DEG): 50 PEAK WIND TIME (LST):      FASTEST 2MIN SPEED (MPH): 12FASTEST 2MIN DIR (DEG):360 FASTEST 2MIN TIME (LST):     AVERAGE WIND SPEED (MPH): 5.6 24 HR AVG TEMP (F): 23DEPART FROM NORMAL:  8  HEATING DEGREE DAYS: 42 COOLING DEGREE DAYS:  0 LATEST DAY MAX TEMP (0700-1900 LST):32  LATEST NIGHT MIN TEMP(1900-0800 LST):14 HOURLY INCREMENTAL PRECIPITATION VALUES (IN):.00 0.00 0.00 0.00 0.00 0.00 0.00 0.00 0.00 0.00 0.00 0.00 0.00 0.00 0.00 0.00 0.00 T    0.02 0.01 0.02 0.03 0.01 0.03EQDR01  14687AXW093R02  14687AXW093R03  14687AXW093R04  14687AXW093
0269726580149222017011706004+44883-093217FM-12+025599999V0203601N003119999999N008000199-00111-00391101571ADDAA106003031AJ100053100050099GA1999+002501999GE19MSL   +99999+99999GF108991999999002501999999KA1240M+00001KA2240N-01001MA1999999098311MD1610081+9999MW1791REMSYN10472658 11358 83606 11011 21039 39831 40157 56008 60031 779// 90553 333 10000 21100 4/005 96079 555 91706=
0013726580149222017011706004+44883-093229SHEF +999999999V020999999999999999999999999999+99999+99999999999ADDAL19900231
0305726580149222017011706097+44883-093229FM-16+0255KMSP V0200105N00365003055MN0040235N5-00115-00335999999ADDAA101000531AU118020025AU220060035AU300001015AW1105AW2645AW3745GA1075+003055999GA2085+005185999GD13991+0030559GD24991+0051859MA1101465098435WA1900099REMMET12601/17/17 00:09:02 SPECI KMSP 170609Z 01007KT 2 1/2SM -FZRAPL BR BKN010 OVC017 M01/M03 A2996 RMK AO2 P0002 I1000 T10111033 (AP)EQDD01      0ADE735
0301726580149222017011706197+44883-093229FM-16+0255KMSP V0203605N00365009145MN0048285N5-00115-00335999999ADDAA101000531AU118020025AU220060035AU300001015AW1105AW2645AW3745GA1045+003055999GA2085+009145999GD12991+0030559GD24991+0091459MA1101425098395WA1900099REMMET12201/17/17 00:19:02 SPECI KMSP 170619Z 36007KT 3SM -FZRAPL BR SCT010 OVC030 M01/M03 A2995 RMK AO2 P0002 I1000 T10111033 (AP)EQDD01      0ADE735
0257726580149222017011706516+44883-093229FM-16+0255KMSP V0203605N00315003965MN0064375N5-00105-00305999999ADDAU118020025AU220060035AU300001015AW1105AW2645AW3745GA1075+003965999GA2085+014025999GD13991+0039659GD24991+0140259MA1101425098395REMMET11701/17/17 00:51:02 SPECI KMSP 170651Z 36006KT 4SM -FZRAPL BR BKN013 OVC046 M01/M03 A2995 RMK AO2 P0003 I1000 FIBI (AP)
0308726580149222017011706537+44883-093229FM-15+0255KMSP V0203605N00215003965MN0064375N5-00115-00335101525ADDAA101000595AU118020025AU220060035AU300001015AW1105AW2645AW3745GA1075+003965999GA2085+014635999GD13991+0039659GD24991+0146359MA1101425098395WA1900099REMMET12901/17/17 00:53:02 METAR KMSP 170653Z 36004KT 4SM -FZRAPL BR BKN013 OVC048 M01/M03 A2995 RMK AO2 SLP152 P0003 I1000 T10111033 (AP)EQDD01      0ADE735
0305726580149222017011707147+44883-093229FM-16+0255KMSP V0203605N00215012505MN0040235N5-00115-00335999999ADDAA101000231AU118020025AU220060035AU300001015AW1105AW2645AW3745GA1045+003965999GA2085+012505999GD12991+0039659GD24991+0125059MA1101425098395WA1900099REMMET12601/17/17 01:14:02 SPECI KMSP 170714Z 36004KT 2 1/2SM -FZRAPL BR SCT013 OVC041 M01/M03 A2995 RMK AO2 P0001 I1000 T10111033 (AP)EQDD01      0ADE735
0301726580149222017011707197+44883-093229FM-16+0255KMSP V0203605N00215003965MN0048285N5-00115-00285999999ADDAA101000231AU118020025AU220060035AU300001015AW1105AW2645AW3745GA1075+003965999GA2085+011895999GD13991+0039659GD24991+0118959MA1101425098395WA1900099REMMET12201/17/17 01:19:02 SPECI KMSP 170719Z 36004KT 3SM -FZRAPL BR BKN013 OVC039 M01/M03 A2995 RMK AO2 P0001 I1000 T10111028 (AP)EQDD01      0ADE735
0331726580149222017011707287+44883-093229FM-16+0255KMSP V0203605N00265010675MN0040235N5-00115-00285999999ADDAA101000231AU110030015AU200001015AW1105AW2715GA1045+004275999GA2085+010675999GD12991+0042759GD24991+0106759GE19MSL   +99999+99999GF199999999999004271999999MA1101395098365WA1900099REMMET14001/17/17 01:28:02 SPECI KMSP 170728Z 36005KT 2 1/2SM -SN BR SCT014 OVC035 M01/M03 A2994 RMK AO2 FZRAE26PLE26SNB26 P0001 I1000 T10111028 (AP)
0296726580149222017011707537+44883-093229FM-15+0255KMSP V0203405N00265010675MN0048285N5-00115-00285101505ADDAA101000595AU110030015AU200001015AW1105AW2715GA1085+010675999GD14991+0106759GE19MSL   +99999+99999GF199999999999010671999999MA1101395098365WA1900099REMMET13601/17/17 01:53:02 METAR KMSP 170753Z 34005KT 3SM -SN BR OVC035 M01/M03 A2994 RMK AO2 FZRAE26PLE26SNB26 SLP150 P0002 I1000 T10111028 (AP)
0332726580149222017011708107+44883-093229FM-16+0255KMSP V0203405N00265007925MN0064375N5-00065-00285999999ADDAA101000231AU110030015AU200001015AW1105AW2715GA1045+002135999GA2075+007925999GA3085+011285999GD12991+0021359GD23991+0079259GD34991+0112859GE19MSL   +99999+99999GF199999999999002131999999MA1101395098365REMMET11901/17/17 02:10:02 SPECI KMSP 170810Z 34005KT 4SM -SN BR SCT007 BKN026 OVC037 M01/M03 A2994 RMK AO2 P0001 T10061028 (AP)
0332726580149222017011708227+44883-093229FM-16+0255KMSP V0203505N00415002445MN0048285N5-00065-00285999999ADDAA101000231AU110030015AU200001015AW1105AW2715GA1075+002445999GA2075+008235999GA3085+011285999GD13991+0024459GD23991+0082359GD34991+0112859GE19MSL   +99999+99999GF199999999999002441999999MA1101395098365REMMET11901/17/17 02:22:02 SPECI KMSP 170822Z 35008KT 3SM -SN BR BKN008 BKN027 OVC037 M01/M03 A2994 RMK AO2 P0001 T10061028 (AP)
0256726580149222017011708327+44883-093229FM-16+0255KMSP V0203405N00365002445MN0032195N5-00065-00225999999ADDAA101000531AU110030015AU200001015AW1105AW2715GA1085+002445999GD14991+0024459GE19MSL   +99999+99999GF199999999999002441999999MA1101395098365REMMET10501/17/17 02:32:02 SPECI KMSP 170832Z 34007KT 2SM -SN BR OVC008 M01/M02 A2994 RMK AO2 P0002 T10061022 (AP)
0260726580149222017011708467+44883-093229FM-16+0255KMSP V0203405N00415002445MN0028165N5-00065-00225999999ADDAA101000731AU110030015AU200001015AW1105AW2715GA1085+002445999GD14991+0024459GE19MSL   +99999+99999GF199999999999002441999999MA1101395098365REMMET10901/17/17 02:46:02 SPECI KMSP 170846Z 34008KT 1 3/4SM -SN BR OVC008 M01/M02 A2994 RMK AO2 P0003 T10061022 (AP)
0192726580149222017011708516+44883-093229FM-16+0255KMSP V0203405N00415002445MN0032195N5-00105-00205999999ADDAU110030015AU200001015AW1105AW2715GA1085+002445999GD14991+0024459MA1101395098365REMMET10001/17/17 02:51:02 SPECI KMSP 170851Z 34008KT 2SM -SN BR OVC008 M01/M02 A2994 RMK AO2 P0003 FIBI (AP)
0372726580149222017011708537+44883-093229FM-15+0255KMSP V0203305N00415002445MN0032195N5-00065-00225101495ADDAA101000895AA203002091AU110030015AU200001015AW1105AW2715GA1075+002445999GA2085+004885999GD13991+0024459GD24991+0048859GE19MSL   +99999+99999GF199999999999002441999999MA1101395098365MD1590069+9999WA1900099REMMET13701/17/17 02:53:02 METAR KMSP 170853Z 33008KT 2SM -SN BR BKN008 OVC016 M01/M02 A2994 RMK AO2 SLP149 P0003 60008 I3000 T10061022 55006 (AP)EQDQ01  00208PRCP03
0256726580149222017011709357+44883-093229FM-16+0255KMSP V0203505N00315003055MN0048285N5-00115-00285999999ADDAA101000231AU110030015AU200001015AW1105AW2715GA1085+003055999GD14991+0030559GE19MSL   +99999+99999GF199999999999003051999999MA1101425098395REMMET10501/17/17 03:35:02 SPECI KMSP 170935Z 35006KT 3SM -SN BR OVC010 M01/M03 A2995 RMK AO2 P0001 T10111028 (AP)
0301726580149222017011709537+44883-093229FM-15+0255KMSP V0203505N00365005495MN0064375N5-00115-00285101505ADDAA101000395AU110030015AU200001015AW1105AW2715GA1045+003055999GA2085+005495999GD12991+0030559GD24991+0054959GE19MSL   +99999+99999GF199999999999003051999999MA1101395098365REMMET11901/17/17 03:53:02 METAR KMSP 170953Z 35007KT 4SM -SN BR SCT010 OVC018 M01/M03 A2994 RMK AO2 SLP150 P0001 T10111028 (AP)
0241726580149222017011710516+44883-093229FM-16+0255KMSP V0203505N00315014025MN0080475N5-00105-00205999999ADDAU110030015AU200001015AW1105AW2715GA1045+004575999GA2085+014025999GD12991+0045759GD24991+0140259MA1101355098335REMMET11801/17/17 04:51:02 SPECI KMSP 171051Z 35006KT 5SM -SN BR SCT015 OVC046 M01/M02 A2993 RMK AO2 SNE00SNB41 P0001 FIBI (AP)
0312726580149222017011710537+44883-093229FM-15+0255KMSP V0203505N00265014025MN0080475N5-00065-00225101455ADDAA101000395AU110030015AU200001015AW1105AW2715GA1045+004575999GA2085+014025999GD12991+0045759GD24991+0140259GE19MSL   +99999+99999GF199999999999004571999999MA1101355098335REMMET13001/17/17 04:53:02 METAR KMSP 171053Z 35005KT 5SM -SN BR SCT015 OVC046 M01/M02 A2993 RMK AO2 SLP145 SNE00SNB41 P0001 T10061022 (AP)
0294726580149222017011711397+44883-093229FM-16+0255KMSP V0203305N00315013115MN0096565N5-00065-00225999999ADDAA101000021AU110030015AU200001015AW1105AW2715GA1045+002135999GA2085+013115999GD12991+0021359GD24991+0131159GE19MSL   +99999+99999GF199999999999002131999999MA1101355098335REMMET11201/17/17 05:39:02 SPECI KMSP 171139Z 33006KT 6SM -SN BR SCT007 OVC043 M01/M02 A2993 RMK AO2 P0000 T10061022 (AP)
0362726580149222017011711417+44883-093229FM-16+0255KMSP V0203405N00315012805MN0080475N5-00065-00225999999ADDAA101000021AU118010015AU200001015AW1105AW2545GA1045+002135999GA2045+003965999GA3085+012805999GD12991+0021359GD22991+0039659GD34991+0128059GE19MSL   +99999+99999GF199999999999002131999999MA1101355098335WA1900099REMMET14001/17/17 05:41:02 SPECI KMSP 171141Z 34006KT 5SM -FZDZ BR SCT007 SCT013 OVC042 M01/M02 A2993 RMK AO2 FZDZB41SNE41 P0000 I1000 T10061022 (AP)
0352726580149222017011711487+44883-093229FM-16+0255KMSP V0203405N00265003965MN0080475N5-00105-00205999999ADDAA101000021AU118010015AU200001015AW1105AW2545GA1025+002135999GA2075+003965999GA3085+021345999GD11991+0021359GD23991+0039659GD34991+0213459GE19MSL   +99999+99999GF199999999999002131999999MA1101355098335WA1900099REMMET13001/17/17 05:48:02 SPECI KMSP 171148Z 34005KT 5SM -FZDZ BR FEW007 BKN013 OVC070 M01/M02 A2993 RMK AO2 FZDZB41SNE41 P0000 I1000 (AP)
0295726580149222017011711516+44883-093229FM-16+0255KMSP V0203405N00265012195MN0096565N5-00105-00205999999ADDAU118010015AU200001015AW1105AW2545GA1025+002135999GA2075+012195999GA3085+021345999GD11991+0021359GD23991+0121959GD34991+0213459MA1101355098335REMMET14101/17/17 05:51:02 SPECI KMSP 171151Z 34005KT 6SM -FZDZ BR FEW007 BKN040 OVC070 M01/M02 A2993 RMK AO2 FZDZB41SNE41 4/002 P0000 I1000 FIBI (AP)
0525726580149222017011711537+44883-093229FM-15+0255KMSP V0203405N00265012195MN0096565N5-00065-00225101465ADDAA101000025AA206002591AA324005391AJ100059500051099AU118010015AU200001015AW1105AW2545GA1025+002135999GA2075+012195999GA3085+019815999GD11991+0021359GD23991+0121959GD34991+0198159GE19MSL   +99999+99999GF199999999999002131999999KA1060M-00061KA2060N-00111MA1101355098335MD1690049+9999WA1900099REMMET18901/17/17 05:53:02 METAR KMSP 171153Z 34005KT 6SM -FZDZ BR FEW007 BKN040 OVC065 M01/M02 A2993 RMK AO2 FZDZB41SNE41 SLP146 4/002 P0000 60010 70021 I1000 I6000 T10061022 11006 21011 56004 (AP)EQDQ01  00258PRCP06Q02  00538PRCP24
0286726580149222017011712004+44883-093217FM-12+025599999V0203401N002619999999N009000199-00061-00221101461ADDAA106003031AA224005331AJ100053100050099GA1999+002501999GE19MSL   +99999+99999GF108991999999002501999999KA1240M+00001KA2240N-00111MA1999999098211MD1610041+9999MW1101REMSYN11072658 11359 83405 11006 21022 39821 40146 56004 60031 710// 91153 333 10000 21011 4/005 70053 96010 555 91712=
0311726580149222017011712377+44883-093229FM-16+0255KMSP V0203205N00365004575MN0080475N5-00065-00225999999ADDAA101000021AU118010015AU200001015AW1105AW2545GA1075+004575999GA2085+024385999GD13991+0045759GD24991+0243859GE19MSL   +99999+99999GF199999999999004571999999MA1101425098395WA1900099REMMET12001/17/17 06:37:02 SPECI KMSP 171237Z 32007KT 5SM -FZDZ BR BKN015 OVC080 M01/M02 A2995 RMK AO2 P0000 I1000 T10061022 (AP)
0318726580149222017011712537+44883-093229FM-15+0255KMSP V0203305N00315004575MN0064375N5-00065-00225101495ADDAA101000025AU118010015AU200001015AW1105AW2545GA1075+004575999GA2085+013725999GD13991+0045759GD24991+0137259GE19MSL   +99999+99999GF199999999999004571999999MA1101395098365WA1900099REMMET12701/17/17 06:53:02 METAR KMSP 171253Z 33006KT 4SM -FZDZ BR BKN015 OVC045 M01/M02 A2994 RMK AO2 SLP149 P0000 I1000 T10061022 (AP)
0327726580149222017011713017+44883-093229FM-16+0255KMSP V0203305N00315013725MN0080475N5-00065-00225999999ADDAA101000021AU118020015AU200001015AW1105AW2645GA1045+004575999GA2085+013725999GD12991+0045759GD24991+0137259GE19MSL   +99999+99999GF199999999999004571999999MA1101395098365WA1900099REMMET13601/17/17 07:01:02 SPECI KMSP 171301Z 33006KT 5SM -FZRA BR SCT015 OVC045 M01/M02 A2994 RMK AO2 FZDZE01FZRAB01 P0000 I1000 T10061022 (CLB)
0345726580149222017011713117+44883-093229FM-16+0255KMSP V0203305N00315013725MN0112655N5-00065-00225999999ADDAA101000021AU118020015AW1645GA1045+002135999GA2045+004575999GA3085+013725999GD12991+0021359GD22991+0045759GD34991+0137259GE19MSL   +99999+99999GF199999999999002131999999MA1101395098365WA1900099REMMET14001/17/17 07:11:02 SPECI KMSP 171311Z 33006KT 7SM -FZRA SCT007 SCT015 OVC045 M01/M02 A2994 RMK AO2 FZDZE01FZRAB01 P0000 I1000 T10061022 (CLB)
0307726580149222017011713207+44883-093229FM-16+0255KMSP V0203505N00315002445MN0112655N5-00065-00225999999ADDAA101000021AU118020015AW1645GA1075+002445999GA2085+013725999GD13991+0024459GD24991+0137259GE19MSL   +99999+99999GF199999999999002441999999MA1101395098365WA1900099REMMET13301/17/17 07:20:02 SPECI KMSP 171320Z 35006KT 7SM -FZRA BKN008 OVC045 M01/M02 A2994 RMK AO2 FZDZE01FZRAB01 P0000 I1000 T10061022 (CLB)
0345726580149222017011713407+44883-093229FM-16+0255KMSP V0203405N00365005185MN0112655N5-00065-00225999999ADDAA101000531AU118020015AW1645GA1045+002445999GA2075+005185999GA3085+022865999GD12991+0024459GD23991+0051859GD34991+0228659GE19MSL   +99999+99999GF199999999999002441999999MA1101395098365WA1900099REMMET14001/17/17 07:40:02 SPECI KMSP 171340Z 34007KT 7SM -FZRA SCT008 BKN017 OVC075 M01/M02 A2994 RMK AO2 FZDZE01FZRAB01 P0002 I1000 T10061022 (CLB)
0326726580149222017011713497+44883-093229FM-16+0255KMSP V0203505N00465004275MN0112655N5-00105-00205999999ADDAA101000531GA1045+002445999GA2075+004275999GA3085+022865999GD12991+0024459GD23991+0042759GD34991+0228659GE19MSL   +99999+99999GF199999999999002441999999MA1101425098395OC100935WA1900099REMMET13001/17/17 07:49:02 SPECI KMSP 171349Z 35009G18KT 7SM SCT008 BKN014 OVC075 M01/M02 A2995 RMK AO2 FZDZE01FZRAB01E49 P0002 I1000 (CLB)
0343726580149222017011713537+44883-093229FM-15+0255KMSP V0203505N00415003355MN0112655N5-00065-00225101525ADDAA101000595GA1075+003355999GA2075+005185999GA3085+022865999GD13991+0033559GD23991+0051859GD34991+0228659GE19MSL   +99999+99999GF199999999999003351999999MA1101425098395OC100935WA1900099REMMET14701/17/17 07:53:02 METAR KMSP 171353Z 35008G18KT 7SM BKN011 BKN017 OVC075 M01/M02 A2995 RMK AO2 FZDZE01FZRAB01E49 SLP152 P0002 I1000 T10061022 (CLB)
0269726580149222017011714537+44883-093229FM-15+0255KMSP V0203405N00415004275MN0128755N5-00065-00395101595ADDAA101000095AA203000591GA1085+004275999GD14991+0042759GE19MSL   +99999+99999GF199999999999004271999999MA1101495098465MD1390139+9999WA1900099REMMET11801/17/17 08:53:02 METAR KMSP 171453Z 34008KT 8SM OVC014 M01/M04 A2997 RMK AO2 SLP159 60002 I3000 T10061039 53013 (CLB)
0199726580149222017011715117+44883-093229FM-16+0255KMSP V0203305N00515004575MN0112655N5-00065-00395999999ADDGA1085+004575999GD14991+0045759GE19MSL   +99999+99999GF199999999999004571999999MA1101525098495REMMET09301/17/17 09:11:02 SPECI KMSP 171511Z 33010KT 7SM OVC015 M01/M04 A2998 RMK AO2 T10061039 (CLB)
0217726580149222017011715537+44883-093229FM-15+0255KMSP V0203405N00315004575MN0128755N5-00115-00445101625ADDAA101000095GA1085+004575999GD14991+0045759GE19MSL   +99999+99999GF199999999999004571999999MA1101525098495REMMET10001/17/17 09:53:02 METAR KMSP 171553Z 34006KT 8SM OVC015 M01/M04 A2998 RMK AO2 SLP162 T10111044 (CLB)
0217726580149222017011716537+44883-093229FM-15+0255KMSP V0203305N00315004885MN0128755N5-00115-00505101635ADDAA101000095GA1085+004885999GD14991+0048859GE19MSL   +99999+99999GF199999999999004881999999MA1101525098495REMMET10001/17/17 10:53:02 METAR KMSP 171653Z 33006KT 8SM OVC016 M01/M05 A2998 RMK AO2 SLP163 T10111050 (CLB)
0200726580149222017011717157+44883-093229FM-16+0255KMSP V0203305N00315005185MN0160935N5-00065-00445999999ADDGA1075+005185999GD13991+0051859GE19MSL   +99999+99999GF199999999999005181999999MA1101495098465REMMET09401/17/17 11:15:02 SPECI KMSP 171715Z 33006KT 10SM BKN017 M01/M04 A2997 RMK AO2 T10061044 (CLB)
0330726580149222017011717537+44883-093229FM-15+0255KMSP V0203405N00315005795MN0160935N5+00065-00395101595ADDAA101000095AA206000591AJ100059500051099GA1075+005795999GD13991+0057959GE19MSL   +99999+99999GF199999999999005791999999KA1060M+00061KA2060N-00111MA1101495098465MD1090019+9999WA1900099REMMET13601/17/17 11:53:02 METAR KMSP 171753Z 34006KT 10SM BKN019 01/M04 A2997 RMK AO2 SLP159 60002 I6000 4/002 T00061039 10006 21011 50001 (CLB)
0251726580149222017011718004+44883-093217FM-12+025599999V0203401N003119999999N016000199+00061-00391101591ADDAA106000531AJ100053100050099GA1999+004501999GE19MSL   +99999+99999GF106991999999004501999999KA1120M+00061KA2120N-00281MA1999999098341MD1990011+9999REMSYN09272658 12466 63406 10006 21039 39834 40159 50001 69951 91753 333 10006 21028 4/005 555 91718=
0255726580149222017011718537+44883-093229FM-15+0255KMSP V0203105N00315006405MN0160935N5+00175-00175101535ADDAA101000095GA1045+003355999GA2075+006405999GD12991+0033559GD23991+0064059GE19MSL   +99999+99999GF199999999999003351999999MA1101465098435REMMET10701/17/17 12:53:02 METAR KMSP 171853Z 31006KT 10SM SCT011 BKN021 02/M02 A2996 RMK AO2 SLP153 T00171017 (CLB)
0236726580149222017011719087+44883-093229FM-16+0255KMSP V0203005N00515003355MN0128755N5+00175-00225999999ADDGA1075+003355999GA2085+006405999GD13991+0033559GD24991+0064059GE19MSL   +99999+99999GF199999999999003351999999MA1101465098435REMMET09901/17/17 13:08:02 SPECI KMSP 171908Z 30010KT 8SM BKN011 OVC021 02/M02 A2996 RMK AO2 T00171022 (CLB)
0242726580149222017011719537+44883-093229FM-15+0255KMSP V0203105N00465003665MN0096565N5+00175-00175101585ADDAA101000095AU100007015AW1051GA1085+003665999GD14991+0036659GE19MSL   +99999+99999GF199999999999003661999999MA1101495098465MW1055REMMET10201/17/17 13:53:02 METAR KMSP 171953Z 31009KT 6SM HZ OVC012 02/M02 A2997 RMK AO2 SLP158 T00171017 (CLB)
0236726580149222017011720537+44883-093229FM-15+0255KMSP V0203105N00215003055MN0144845N5+00175-00115101605ADDAA101000095GA1085+003055999GD14991+0030559GE19MSL   +99999+99999GF199999999999003051999999MA1101525098495MD1390019+9999REMMET10501/17/17 14:53:02 METAR KMSP 172053Z 31004KT 9SM OVC010 02/M01 A2998 RMK AO2 SLP160 T00171011 53001 (CLB)
0217726580149222017011721537+44883-093229FM-15+0255KMSP V0202805N00265003055MN0160935N5+00175-00115101625ADDAA101000095GA1085+003055999GD14991+0030559GE19MSL   +99999+99999GF199999999999003051999999MA1101525098495REMMET10001/17/17 15:53:02 METAR KMSP 172153Z 28005KT 10SM OVC010 02/M01 A2998 RMK AO2 SLP162 T00171011 (JDB)
0199726580149222017011722027+44883-093229FM-16+0255KMSP V0202705N00415002745MN0160935N5+00175-00115999999ADDGA1085+002745999GD14991+0027459GE19MSL   +99999+99999GF199999999999002741999999MA1101525098495REMMET09301/17/17 16:02:02 SPECI KMSP 172202Z 27008KT 10SM OVC009 02/M01 A2998 RMK AO2 T00171011 (JDB)
0217726580149222017011722537+44883-093229FM-15+0255KMSP V0202705N00415002445MN0160935N5+00115-00115101665ADDAA101000095GA1085+002445999GD14991+0024459GE19MSL   +99999+99999GF199999999999002441999999MA1101565098525REMMET10001/17/17 16:53:02 METAR KMSP 172253Z 27008KT 10SM OVC008 01/M01 A2999 RMK AO2 SLP166 T00111011 (JDB)
0199726580149222017011723337+44883-093229FM-16+0255KMSP V0202705N00265002135MN0160935N5+00065-00115999999ADDGA1085+002135999GD14991+0021359GE19MSL   +99999+99999GF199999999999002131999999MA1101565098525REMMET09301/17/17 17:33:02 SPECI KMSP 172333Z 27005KT 10SM OVC007 01/M01 A2999 RMK AO2 T00061011 (JDB)
0298726580149222017011723537+44883-093229FM-15+0255KMSP V0202605N00365001835MN0160935N5+00065-00115101665ADDAA101000095AJ100059500051099GA1085+001835999GD14991+0018359GE19MSL   +99999+99999GF199999999999001831999999KA1060M+00171KA2060N+00061MA1101565098525MD1090059+9999REMMET12401/17/17 17:53:02 METAR KMSP 172353Z 26007KT 10SM OVC006 01/M01 A2999 RMK AO2 SLP166 4/002 T00061011 10017 20006 50005 (JDB)
0234726580149222017011800004+44883-093217FM-12+025599999V0202601N003619999999N016000199+00061-00111101661ADDAJ100053100050099GA1999+001501999GE19MSL   +99999+99999GF108991999999001501999999KA1120M+00171KA2120N-00101MA1999999098401MD1990051+9999REMSYN08672658 32266 82607 10006 21011 39840 40166 50005 92353 333 10017 21010 4/005 555 91800=
0210726580149222017011800537+44883-093229FM-15+0255KMSP V0202505N00415002135MN0144845N5+00065-00175101655ADDAA101000095GA1085+002135999GD14991+0021359GE19MSL   +99999+99999GF199999999999002131999999MA1101565098525REMMET09301/17/17 18:53:01 METAR KMSP 180053Z 25008KT 9SM OVC007 01/M02 A2999 RMK AO2 SLP165 T00061017
0165726580149222017011801516+44883-093229FM-16+0255KMSP V0202305N00415001225MN0080475N5+00005-00205999999ADDAU100001015AW1105GA1085+001225999GD14991+0012259MA1101565098525REMMET09001/17/17 19:51:03 SPECI KMSP 180151Z 23008KT 5SM BR OVC004 00/M02 A2999 RMK AO2 FIBI (JDB)
0230726580149222017011801537+44883-093229FM-15+0255KMSP V0202405N00415001225MN0080475N5+00005-00175101655ADDAA101000095AU100001015AW1105GA1085+001225999GD14991+0012259GE19MSL   +99999+99999GF199999999999001221999999MA1101565098525REMMET09601/17/17 19:53:01 METAR KMSP 180153Z 24008KT 5SM BR OVC004 00/M02 A2999 RMK AO2 SLP165 T00001017
0151726580149222017011802326+44883-093229FM-16+0255KMSP V0202405N00515001525MN0128755N5-00065-00225999999ADDGA1085+001525999GD14991+0015259MA1101595098565REMMET09301/17/17 20:32:03 SPECI KMSP 180232Z 24010KT 8SM OVC005 M01/M02 A3000 RMK AO2 T10061022 (JDB)
0193726580149222017011802367+44883-093229FM-16+0255KMSP V0202605N00465001525MN0112655N5-00065-00285999999ADDGA1085+001525999GD14991+0015259GE19MSL   +99999+99999GF199999999999001521999999MA1101595098565REMMET08701/17/17 20:36:01 SPECI KMSP 180236Z 26009KT 7SM OVC005 M01/M03 A3000 RMK AO2 T10061028
0251726580149222017011802537+44883-093229FM-15+0255KMSP V0202605N00515001525MN0096565N5-00115-00285101685ADDAA101000095AU100001015AW1105GA1085+001525999GD14991+0015259GE19MSL   +99999+99999GF199999999999001521999999MA1101595098565MD1390029+9999REMMET10301/17/17 20:53:02 METAR KMSP 180253Z 26010KT 6SM BR OVC005 M01/M03 A3000 RMK AO2 SLP168 T10111028 53002
0211726580149222017011803537+44883-093229FM-15+0255KMSP V0202105N00415002135MN0112655N5-00115-00335101695ADDAA101000095GA1085+002135999GD14991+0021359GE19MSL   +99999+99999GF199999999999002131999999MA1101595098565REMMET09401/17/17 21:53:02 METAR KMSP 180353Z 21008KT 7SM OVC007 M01/M03 A3000 RMK AO2 SLP169 T10111033
0231726580149222017011804537+44883-093229FM-15+0255KMSP V0202205N00265001835MN0096565N5-00175-00335101685ADDAA101000095AU100001015AW1105GA1085+001835999GD14991+0018359GE19MSL   +99999+99999GF199999999999001831999999MA1101565098525REMMET09701/17/17 22:53:02 METAR KMSP 180453Z 22005KT 6SM BR OVC006 M02/M03 A2999 RMK AO2 SLP168 T10171033
0328726580149222017011805537+44883-093229FM-15+0255KMSP V0201905N00415001835MN0112655N5-00115-00285101615ADDAA101000095AJ100059500051099GA1085+001835999GD14991+0018359GE19MSL   +99999+99999GF199999999999001831999999KA1060M+00061KA2060N-00171KA3240M+00171KA4240N-00171MA1101525098495MD1890079+9999REMMET12801/17/17 23:53:02 METAR KMSP 180553Z 19008KT 7SM OVC006 M01/M03 A2998 RMK AO2 SLP161 4/002 T10111028 10006 21017 400171017 58007
1110726580149222017011805596+44883-093229SOD  +0255KMSP V020999999999999999999999999999+99999+99999999999ADDAA124002895AJ100059599999999AL12401595AN1024001595AT1AU17FZRA5AT2AU15FZDZ5AT3AU18SN  5AT4AU04PL  5AT5AU13BR  5AT6AU08HZ  5AX1016246AX2046246AX3066246AX4086246KA1240M+00175KA2240N-00165MG1098434101424OE11240089435099996OE22240062623099995OE33240034499999995REMSOD75924 HR PRECIPITATION (IN): 0.11 SNOW DEPTH (IN):2     24 HR SNOWFALL (IN):0.6  WEATHER(CODE):1468  24 HR MAX TEMP (F): 3524 HR MIN TEMP (F): 29AVERAGE STATION PRESSURE:29.065 MINIMUM SEA LEVEL PRESSURE:29.95 TIME OF OCCURRENCE:0500 PEAK WIND SPEED (MPH): 20 PEAK WIND DIR (DEG):350 PEAK WIND TIME (LST):      FASTEST 2MIN SPEED (MPH): 14FASTEST 2MIN DIR (DEG):230 FASTEST 2MIN TIME (LST):     AVERAGE WIND SPEED (MPH): 7.7 24 HR AVG TEMP (F): 32DEPART FROM NORMAL: 17  HEATING DEGREE DAYS: 33 COOLING DEGREE DAYS:  0 LATEST DAY MAX TEMP (0700-1900 LST):35  LATEST NIGHT MIN TEMP(1900-0800 LST):30 HOURLY INCREMENTAL PRECIPITATION VALUES (IN):.02 0.02 0.03 0.01 0.01 T    T    0.02 0.00 0.00 0.00 0.00 0.00 0.00 0.00 0.00 0.00 0.00 0.00 0.00 0.00 0.00 0.00 0.00EQDR01  14687AXW093R02  14687AXW093R03  14687AXW093R04  14687AXW093R05    207OES063
0234726580149222017011806004+44883-093217FM-12+025599999V0201901N004119999999N011000199-00111-00281101611ADDAJ100053100050099GA1999+001501999GE19MSL   +99999+99999GF108991999999001501999999KA1240M+00061KA2240N-00171MA1999999098371MD1810071+9999REMSYN08672658 32261 81908 11011 21028 39837 40161 58007 90553 333 10006 21017 4/005 555 91806=
0216726580149222017011806537+44883-093229FM-15+0255KMSP V0202005N00315002445MN0112655N5-00115-00335101615ADDAA101000095GA1085+002445999GD14991+0024459GE19MSL   +99999+99999GF199999999999002441999999MA1101525098495REMMET09901/18/17 00:53:02 METAR KMSP 180653Z 20006KT 7SM OVC008 M01/M03 A2998 RMK AO2 SLP161 T10111033 (PL)
0237726580149222017011807317+44883-093229FM-16+0255KMSP V0201905N002652200059N0096565N5-00175-00335999999ADDAU100001015AW1105GA1045+002445999GD12991+0024459GE19AGL   +99999+99999GF104995999999002441999999MA1101495098465REMMET09501/18/17 01:31:02 SPECI KMSP 180731Z 19005KT 6SM BR SCT008 M02/M03 A2997 RMK AO2 T10171033 (PL)EQDD01      0ADE726
0211726580149222017011807537+44883-093229FM-15+0255KMSP V0201805N003652200059N0096565N5-00175-00395101575ADDAA101000095AU100001015AW1105GA1005+999999999GD10991+9999999GF100991999999999999999999MA1101495098465REMMET09901/18/17 01:53:02 METAR KMSP 180753Z 18007KT 6SM BR CLR M02/M04 A2997 RMK AO2 SLP157 T10171039 (PL)
0185726580149222017011808536+44883-093229FM-15+0255KMSP V0202005N003152200059N0112655N5-00225-00445101575ADDAA101000095GA1005+999999999GD10991+9999999MA1101465098435MD1890049+9999REMMET10201/18/17 02:53:02 METAR KMSP 180853Z 20006KT 7SM CLR M02/M04 A2996 RMK AO2 SLP157 T10221044 58004 (PL)
0191726580149222017011809537+44883-093229FM-15+0255KMSP V0202005N003652200059N0112655N5-00225-00505101515ADDAA101000095GA1005+999999999GD10991+9999999GF100991999999999999999999MA1101425098395REMMET09601/18/17 03:53:02 METAR KMSP 180953Z 20007KT 7SM CLR M02/M05 A2995 RMK AO2 SLP151 T10221050 (PL)
0211726580149222017011810537+44883-093229FM-15+0255KMSP V0209999C000052200059N0096565N5-00335-00565101525ADDAA101000095AU100001015AW1105GA1005+999999999GD10991+9999999GF100991999999999999999999MA1101425098395REMMET09901/18/17 04:53:02 METAR KMSP 181053Z 00000KT 6SM BR CLR M03/M06 A2995 RMK AO2 SLP152 T10331056 (PL)
0309726580149222017011811537+44883-093229FM-15+0255KMSP V0201905N003652200059N0080475N5-00225-00445101505ADDAA101000095AA224000591AJ100059500051099AU100001015AW1105GA1005+999999999GD10991+9999999GF100991999999999999999999KA1060M-00111KA2060N-00391MA1101395098365MD1690069+9999REMMET12901/18/17 05:53:02 METAR KMSP 181153Z 19007KT 5SM BR CLR M02/M04 A2994 RMK AO2 SLP150 4/002 70002 T10221044 11011 21039 56006 (PL)
0199726580149222017011812004+44883-093217FM-12+025599999V0201901N003619999999N008000199-00221-00441101501ADDAA124000531AJ100053100050099KA1240M+00171KA2240N-00391MA1999999098241MD1610061+9999MW1101REMSYN09872658 31958 01907 11022 21044 39824 40150 56006 710// 91153 333 10017 21039 4/005 70005 555 91812=
0261726580149222017011812537+44883-093229FM-15+0255KMSP V0202005N003652200059N0096565N5-00115-00395101445ADDAA101000095AU100007015AW1051GA1025+060965999GD11991+0609659GE19AGL   +99999+99999GF102995999999060961999999MA1101355098335MW1055REMMET10201/18/17 06:53:02 METAR KMSP 181253Z 20007KT 6SM HZ FEW200 M01/M04 A2993 RMK AO2 SLP144 T10111039 (PL)EQDD01      0ADE726
0236726580149222017011813537+44883-093229FM-15+0255KMSP V0202005N004152200059N0128755N5-00065-00335101355ADDAA101000095GA1025+076205999GD11991+0762059GE19AGL   +99999+99999GF102995999999076201999999MA1101255098235REMMET10001/18/17 07:53:02 METAR KMSP 181353Z 20008KT 8SM FEW250 M01/M03 A2990 RMK AO2 SLP135 T10061033 (CLB)EQDD01      0ADE726
0256726580149222017011814537+44883-093229FM-15+0255KMSP V0201905N002652200059N0144845N5-00065-00335101395ADDAA101000095GA1025+076205999GD11991+0762059GE19AGL   +99999+99999GF102995999999076201999999MA1101295098265MD1590109+9999REMMET10601/18/17 08:53:02 METAR KMSP 181453Z 19005KT 9SM FEW250 M01/M03 A2991 RMK AO2 SLP139 T10061033 55010 (CLB)EQDD01      0ADE726
0235726580149222017011815537+44883-093229FM-15+0255KMSP V0202005N004152200059N0144845N5+00065-00285101405ADDAA101000095GA1025+076205999GD11991+0762059GE19AGL   +99999+99999GF102995999999076201999999MA1101295098265REMMET09901/18/17 09:53:02 METAR KMSP 181553Z 20008KT 9SM FEW250 01/M03 A2991 RMK AO2 SLP140 T00061028 (CLB)EQDD01      0ADE726
0191726580149222017011816537+44883-093229FM-15+0255KMSP V0202005N004652200059N0144845N5+00225-00225101325ADDAA101000095GA1005+999999999GD10991+9999999GF100991999999999999999999MA1101225098195REMMET09601/18/17 10:53:02 METAR KMSP 181653Z 20009KT 9SM CLR 02/M02 A2989 RMK AO2 SLP132 T00221022 (CLB)
0273726580149222017011817537+44883-093229FM-15+0255KMSP V0202205N004152200059N0160935N5+00335-00175101305ADDAA101000095AJ100059500051099GA1005+999999999GD10991+9999999GF100991999999999999999999KA1060M+00391KA2060N-00221MA1101225098195MD1890089+9999REMMET12101/18/17 11:53:02 METAR KMSP 181753Z 22008KT 10SM CLR 03/M02 A2989 RMK AO2 SLP130 4/002 T00331017 10039 21022 58008 (CLB)
0170726580149222017011818004+44883-093217FM-12+025599999V0202201N004119999999N016000199+00331-00171101301ADDAJ100053100050099KA1120M+00391KA2120N-00221MA1999999098071MD1810081+9999REMSYN08672658 32966 02208 10033 21017 39807 40130 58008 91753 333 10039 21022 4/005 555 91818=
0177726580149222017011818536+44883-093229FM-15+0255KMSP V0202105N005752200059N0160935N5+00445-00115101245ADDAA101000095GA1005+999999999GD10991+9999999MA1101155098135OC100985REMMET10001/18/17 12:53:02 METAR KMSP 181853Z 21011G19KT 10SM CLR 04/M01 A2987 RMK AO2 SLP124 T00441011 (CLB)
0192726580149222017011819537+44883-093229FM-15+0255KMSP V0202105N003652200059N0160935N5+00445-00115101205ADDAA101000095GA1005+999999999GD10991+9999999GF100991999999999999999999MA1101125098095REMMET09701/18/17 13:53:02 METAR KMSP 181953Z 21007KT 10SM CLR 04/M01 A2986 RMK AO2 SLP120 T00441011 (CLB)
0212726580149222017011820537+44883-093229FM-15+0255KMSP V0201905N004152200059N0160935N5+00505-00115101205ADDAA101000095GA1005+999999999GD10991+9999999GF100991999999999999999999MA1101125098095MD1690109+9999REMMET10301/18/17 14:53:02 METAR KMSP 182053Z 19008KT 10SM CLR 05/M01 A2986 RMK AO2 SLP120 T00501011 56010 (CLB)
0192726580149222017011821537+44883-093229FM-15+0255KMSP V0202105N004152200059N0160935N5+00505-00065101215ADDAA101000095GA1005+999999999GD10991+9999999GF100991999999999999999999MA1101125098095REMMET09701/18/17 15:53:02 METAR KMSP 182153Z 21008KT 10SM CLR 05/M01 A2986 RMK AO2 SLP121 T00501006 (JDB)
0192726580149222017011822537+44883-093229FM-15+0255KMSP V0202105N003152200059N0160935N5+00445-00065101205ADDAA101000095GA1005+999999999GD10991+9999999GF100991999999999999999999MA1101125098095REMMET09701/18/17 16:53:02 METAR KMSP 182253Z 21006KT 10SM CLR 04/M01 A2986 RMK AO2 SLP120 T00441006 (JDB)
0273726580149222017011823537+44883-093229FM-15+0255KMSP V0201705N002652200059N0160935N5+00285-00115101215ADDAA101000095AJ100059500051099GA1005+999999999GD10991+9999999GF100991999999999999999999KA1060M+00501KA2060N+00221MA1101125098095MD1190019+9999REMMET12101/18/17 17:53:02 METAR KMSP 182353Z 17005KT 10SM CLR 03/M01 A2986 RMK AO2 SLP121 4/002 T00281011 10050 20022 51001 (JDB)
0170726580149222017011900004+44883-093217FM-12+025599999V0201701N002619999999N016000199+00281-00111101211ADDAJ100053100050099KA1120M+00501KA2120N-00381MA1999999097981MD1110011+9999REMSYN08672658 32966 01705 10028 21011 39798 40121 51001 92353 333 10050 21038 4/005 555 91900=
0185726580149222017011900537+44883-093229FM-15+0255KMSP V0201405N002652200059N0144845N5+00115-00115101225ADDAA101000095GA1005+999999999GD10991+9999999GF100991999999999999999999MA1101125098095REMMET09001/18/17 18:53:01 METAR KMSP 190053Z 14005KT 9SM CLR 01/M01 A2986 RMK AO2 SLP122 T00111011
0185726580149222017011901537+44883-093229FM-15+0255KMSP V0201405N002652200059N0128755N5+00065-00175101185ADDAA101000095GA1005+999999999GD10991+9999999GF100991999999999999999999MA1101085098065REMMET09001/18/17 19:53:01 METAR KMSP 190153Z 14005KT 8SM CLR 01/M02 A2985 RMK AO2 SLP118 T00061017
0205726580149222017011902537+44883-093229FM-15+0255KMSP V0201305N002152200059N0144845N5+00065-00115101155ADDAA101000095GA1005+999999999GD10991+9999999GF100991999999999999999999MA1101055098035MD1890069+9999REMMET09601/18/17 20:53:02 METAR KMSP 190253Z 13004KT 9SM CLR 01/M01 A2984 RMK AO2 SLP115 T00061011 58006
0185726580149222017011903537+44883-093229FM-15+0255KMSP V0201305N002652200059N0144845N5+00005-00175101125ADDAA101000095GA1005+999999999GD10991+9999999GF100991999999999999999999MA1101055098035REMMET09001/18/17 21:53:02 METAR KMSP 190353Z 13005KT 9SM CLR 00/M02 A2984 RMK AO2 SLP112 T00001017
0185726580149222017011904537+44883-093229FM-15+0255KMSP V0201205N002652200059N0128755N5+00005-00175101135ADDAA101000095GA1005+999999999GD10991+9999999GF100991999999999999999999MA1101055098035REMMET09001/18/17 22:53:02 METAR KMSP 190453Z 12005KT 8SM CLR 00/M02 A2984 RMK AO2 SLP113 T00001017
0303726580149222017011905537+44883-093229FM-15+0255KMSP V0201305N002652200059N0128755N5-00115-00225101115ADDAA101000095AJ100059500051099GA1005+999999999GD10991+9999999GF100991999999999999999999KA1060M+00331KA2060N-00111KA3240M+00501KA4240N-00391MA1101025098005MD1690039+9999REMMET12501/18/17 23:53:02 METAR KMSP 190553Z 13005KT 8SM CLR M01/M02 A2983 RMK AO2 SLP111 4/002 T10111022 10033 21011 400501039 56003
0978726580149222017011905596+44883-093229SOD  +0255KMSP V020999999999999999999999999999+99999+99999999999ADDAA124000095AJ100059599999999AL12400095AN1024000095AT1AU13BR  5AT2AU08HZ  5AX1015245AX2085245KA1240M+00505KA2240N-00385MG1098154101124OE11240093922099996OE22240062623099995OE33240032699999995REMSOD75724 HR PRECIPITATION (IN): 0.00 SNOW DEPTH (IN):2     24 HR SNOWFALL (IN):0.0  WEATHER(CODE):18  24 HR MAX TEMP (F): 4124 HR MIN TEMP (F): 25AVERAGE STATION PRESSURE:28.985 MINIMUM SEA LEVEL PRESSURE:29.86 TIME OF OCCURRENCE:2359 PEAK WIND SPEED (MPH): 21 PEAK WIND DIR (DEG):220 PEAK WIND TIME (LST):      FASTEST 2MIN SPEED (MPH): 14FASTEST 2MIN DIR (DEG):230 FASTEST 2MIN TIME (LST):     AVERAGE WIND SPEED (MPH): 7.3 24 HR AVG TEMP (F): 33DEPART FROM NORMAL: 18  HEATING DEGREE DAYS: 32 COOLING DEGREE DAYS:  0 LATEST DAY MAX TEMP (0700-1900 LST):41  LATEST NIGHT MIN TEMP(1900-0800 LST):25 HOURLY INCREMENTAL PRECIPITATION VALUES (IN):.00 0.00 0.00 0.00 0.00 0.00 0.00 0.00 0.00 0.00 0.00 0.00 0.00 0.00 0.00 0.00 0.00 0.00 0.00 0.00 0.00 0.00 0.00 0.00EQDR01    217OES063
0170726580149222017011906004+44883-093217FM-12+025599999V0201301N002619999999N012000199-00111-00221101111ADDAJ100053100050099KA1240M+00331KA2240N-00391MA1999999097881MD1610031+9999REMSYN08672658 32962 01305 11011 21022 39788 40111 56003 90553 333 10033 21039 4/005 555 91906=
0211726580149222017011906537+44883-093229FM-15+0255KMSP V0201405N002652200059N0096565N5-00065-00175101075ADDAA101000095AU100001015AW1105GA1005+999999999GD10991+9999999GF100991999999999999999999MA1100985097965REMMET09901/19/17 00:53:02 METAR KMSP 190653Z 14005KT 6SM BR CLR M01/M02 A2982 RMK AO2 SLP107 T10061017 (PL)
0210726580149222017011907537+44883-093229FM-15+0255KMSP V0201405N002652200059N0096565N5+00005-00175101065ADDAA101000095AU100001015AW1105GA1005+999999999GD10991+9999999GF100991999999999999999999MA1100985097965REMMET09801/19/17 01:53:02 METAR KMSP 190753Z 14005KT 6SM BR CLR 00/M02 A2982 RMK AO2 SLP106 T00001017 (PL)
0232726580149222017011908537+44883-093229FM-15+0255KMSP V0201205N002152200059N0112655N5-00115-00225101055ADDAA101000095GA1005+999999999GD10991+9999999GF100991999999999999999999MA1100985097965MD1690049+9999WA1900099REMMET11401/19/17 02:53:02 METAR KMSP 190853Z 12004KT 7SM CLR M01/M02 A2982 RMK AO2 SLP105 I1000 I3000 T10111022 56004 (PL)
0191726580149222017011909537+44883-093229FM-15+0255KMSP V0201505N003152200059N0128755N5-00065-00175101055ADDAA101000095GA1005+999999999GD10991+9999999GF100991999999999999999999MA1100985097965REMMET09601/19/17 03:53:02 METAR KMSP 190953Z 15006KT 8SM CLR M01/M02 A2982 RMK AO2 SLP105 T10061017 (PL)
0190726580149222017011910537+44883-093229FM-15+0255KMSP V0201605N002652200059N0128755N5+00115-00115101045ADDAA101000095GA1005+999999999GD10991+9999999GF100991999999999999999999MA1100955097935REMMET09501/19/17 04:53:02 METAR KMSP 191053Z 16005KT 8SM CLR 01/M01 A2981 RMK AO2 SLP104 T00111011 (PL)
0286726580149222017011911537+44883-093229FM-15+0255KMSP V0209999V002152200059N0112655N5+00005-00175101075ADDAA101000095AJ100059500051099GA1005+999999999GD10991+9999999GF100991999999999999999999KA1060M+00111KA2060N-00171MA1100985097965MD1390019+9999WA1900099REMMET12501/19/17 05:53:02 METAR KMSP 191153Z VRB04KT 7SM CLR 00/M02 A2982 RMK AO2 SLP107 4/002 I6000 T00001017 10011 21017 53001 (PL)
0170726580149222017011912004+44883-093217FM-12+025599999V0209999N002119999999N011000199+00001-00171101071ADDAJ100053100050099KA1240M+00501KA2240N-00171MA1999999097841MD1310011+9999REMSYN08672658 32961 0//04 10000 21017 39784 40107 53001 91153 333 10050 21017 4/005 555 91912=
0190726580149222017011912537+44883-093229FM-15+0255KMSP V0201505N002652200059N0112655N5+00065-00175101055ADDAA101000095GA1005+999999999GD10991+9999999GF100991999999999999999999MA1100985097965REMMET09501/19/17 06:53:02 METAR KMSP 191253Z 15005KT 7SM CLR 01/M02 A2982 RMK AO2 SLP105 T00061017 (PL)
0192726580149222017011913537+44883-093229FM-15+0255KMSP V0201505N003652200059N0128755N5-00065-00225101065ADDAA101000095GA1005+999999999GD10991+9999999GF100991999999999999999999MA1100985097965REMMET09701/19/17 07:53:02 METAR KMSP 191353Z 15007KT 8SM CLR M01/M02 A2982 RMK AO2 SLP106 T10061022 (CLB)
0211726580149222017011914537+44883-093229FM-15+0255KMSP V0201405N003152200059N0128755N5+00065-00175101025ADDAA101000095GA1005+999999999GD10991+9999999GF100991999999999999999999MA1100955097935MD1890059+9999REMMET10201/19/17 08:53:02 METAR KMSP 191453Z 14006KT 8SM CLR 01/M02 A2981 RMK AO2 SLP102 T00061017 58005 (CLB)
0191726580149222017011915537+44883-093229FM-15+0255KMSP V0201505N004152200059N0128755N5+00225-00115101025ADDAA101000095GA1005+999999999GD10991+9999999GF100991999999999999999999MA1100955097935REMMET09601/19/17 09:53:02 METAR KMSP 191553Z 15008KT 8SM CLR 02/M01 A2981 RMK AO2 SLP102 T00221011 (CLB)
0235726580149222017011916537+44883-093229FM-15+0255KMSP V0201505N004652200059N0112655N5+00225-00065101045ADDAA101000095GA1025+002135999GD11991+0021359GE19AGL   +99999+99999GF102995999999002131999999MA1100955097935REMMET09901/19/17 10:53:02 METAR KMSP 191653Z 15009KT 7SM FEW007 02/M01 A2981 RMK AO2 SLP104 T00221006 (CLB)EQDD01      0ADE726
0316726580149222017011917537+44883-093229FM-15+0255KMSP V0201505N004652200059N0128755N5+00175-00065100935ADDAA101000095AJ100059500051099GA1045+002135999GD12991+0021359GE19AGL   +99999+99999GF104995999999002131999999KA1060M+00221KA2060N-00111MA1100855097835MD1890089+9999REMMET12301/19/17 11:53:02 METAR KMSP 191753Z 15009KT 8SM SCT007 02/M01 A2978 RMK AO2 SLP093 4/002 T00171006 10022 21011 58008 (CLB)EQDD01      0ADE726
0234726580149222017011918004+44883-093217FM-12+025599999V0201501N004619999999N012000199+00171-00061100931ADDAJ100053100050099GA1999+002501999GE19MSL   +99999+99999GF104991999999002501999999KA1120M+00221KA2120N-00111MA1999999097711MD1810081+9999REMSYN08672658 32362 41509 10017 21006 39771 40093 58008 91753 333 10022 21011 4/005 555 91918=
0198726580149222017011918147+44883-093229FM-16+0255KMSP V0201605N00575002135MN0112655N5+00175-00065999999ADDGA1075+002135999GD13991+0021359GE19MSL   +99999+99999GF199999999999002131999999MA1100855097835REMMET09201/19/17 12:14:02 SPECI KMSP 191814Z 16011KT 7SM BKN007 02/M01 A2978 RMK AO2 T00171006 (CLB)
0235726580149222017011918537+44883-093229FM-15+0255KMSP V0201505N004152200059N0128755N5+00175-00065100875ADDAA101000095GA1045+002445999GD12991+0024459GE19AGL   +99999+99999GF104995999999002441999999MA1100785097765REMMET09901/19/17 12:53:02 METAR KMSP 191853Z 15008KT 8SM SCT008 02/M01 A2976 RMK AO2 SLP087 T00171006 (CLB)EQDD01      0ADE726
0215726580149222017011919537+44883-093229FM-15+0255KMSP V0201605N00315024385MN0144845N5+00225+00005100855ADDAA101000095GA1075+024385999GD13991+0243859GE19MSL   +99999+99999GF199999999999024381999999MA1100785097765REMMET09801/19/17 13:53:02 METAR KMSP 191953Z 16006KT 9SM BKN080 02/00 A2976 RMK AO2 SLP085 T00220000 (CLB)
0237726580149222017011920537+44883-093229FM-15+0255KMSP V0201805N00575018295MN0160935N5+00285-00065100865ADDAA101000095GA1075+018295999GD13991+0182959GE19MSL   +99999+99999GF199999999999018291999999MA1100785097765MD1590089+9999REMMET10601/19/17 14:53:02 METAR KMSP 192053Z 18011KT 10SM BKN060 03/M01 A2976 RMK AO2 SLP086 T00281006 55008 (CLB)
0217726580149222017011921537+44883-093229FM-15+0255KMSP V0201605N00315019815MN0160935N5+00285-00065100845ADDAA101000095GA1085+019815999GD14991+0198159GE19MSL   +99999+99999GF199999999999019811999999MA1100755097735REMMET10001/19/17 15:53:02 METAR KMSP 192153Z 16006KT 10SM OVC065 03/M01 A2975 RMK AO2 SLP084 T00281006 (JDB)
0255726580149222017011922537+44883-093229FM-15+0255KMSP V0201305N00315014635MN0160935N5+00285-00065100825ADDAA101000095GA1075+014635999GA2085+021345999GD13991+0146359GD24991+0213459GE19MSL   +99999+99999GF199999999999014631999999MA1100755097735REMMET10701/19/17 16:53:02 METAR KMSP 192253Z 13006KT 10SM BKN048 OVC070 03/M01 A2975 RMK AO2 SLP082 T00281006 (JDB)
0335726580149222017011923537+44883-093229FM-15+0255KMSP V0201305N00365021345MN0144845N5+00225-00065100865ADDAA101000095AJ100059500051099GA1045+014635999GA2085+021345999GD12991+0146359GD24991+0213459GE19MSL   +99999+99999GF199999999999014631999999KA1060M+00281KA2060N+00111MA1100785097765MD1590009+9999REMMET13001/19/17 17:53:02 METAR KMSP 192353Z 13007KT 9SM SCT048 OVC070 02/M01 A2976 RMK AO2 SLP086 4/002 T00221006 10028 20011 55000 (JDB)
0234726580149222017012000004+44883-093217FM-12+025599999V0201301N003619999999N014000199+00221-00061100861ADDAJ100053100050099GA1999+012501999GE19MSL   +99999+99999GF108991999999012501999999KA1120M+00281KA2120N-00161MA1999999097651MD1510001+9999REMSYN08672658 32664 81307 10022 21006 39765 40086 55000 92353 333 10028 21016 4/005 555 92000=
0211726580149222017012000537+44883-093229FM-15+0255KMSP V0201405N00315012195MN0160935N5+00225-00065100805ADDAA101000095GA1085+012195999GD14991+0121959GE19MSL   +99999+99999GF199999999999012191999999MA1100715097705REMMET09401/19/17 18:53:01 METAR KMSP 200053Z 14006KT 10SM OVC040 02/M01 A2974 RMK AO2 SLP080 T00221006
0211726580149222017012001537+44883-093229FM-15+0255KMSP V0201305N00315010975MN0160935N5+00225-00065100765ADDAA101000095GA1085+010975999GD14991+0109759GE19MSL   +99999+99999GF199999999999010971999999MA1100685097675REMMET09401/19/17 19:53:01 METAR KMSP 200153Z 13006KT 10SM OVC036 02/M01 A2973 RMK AO2 SLP076 T00221006
0231726580149222017012002177+44883-093229FM-16+0255KMSP V0201205N00265008845MN0160935N5+00285-00065999999ADDGA1075+008845999GA2085+010675999GD13991+0088459GD24991+0106759GE19MSL   +99999+99999GF199999999999008841999999MA1100715097705REMMET09401/19/17 20:17:01 SPECI KMSP 200217Z 12005KT 10SM BKN029 OVC035 03/M01 A2974 RMK AO2 T00281006
0146726580149222017012002516+44883-093229FM-16+0255KMSP V0201305N00365009145MN0160935N5+00205-00105999999ADDGA1085+009145999GD14991+0091459MA1100645097635REMMET08801/19/17 20:51:03 SPECI KMSP 200251Z 13007KT 10SM OVC030 02/M01 A2972 RMK AO2 FIBI (JDB)
0231726580149222017012002537+44883-093229FM-15+0255KMSP V0201205N00365009145MN0160935N5+00225-00065100715ADDAA101000095GA1085+009145999GD14991+0091459GE19MSL   +99999+99999GF199999999999009141999999MA1100645097635MD1690149+9999REMMET10001/19/17 20:53:02 METAR KMSP 200253Z 12007KT 10SM OVC030 02/M01 A2972 RMK AO2 SLP071 T00221006 56014
0231726580149222017012003187+44883-093229FM-16+0255KMSP V0201205N00365007015MN0160935N5+00225-00065999999ADDGA1075+007015999GA2085+009455999GD13991+0070159GD24991+0094559GE19MSL   +99999+99999GF199999999999007011999999MA1100615097605REMMET09401/19/17 21:18:02 SPECI KMSP 200318Z 12007KT 10SM BKN023 OVC031 02/M01 A2971 RMK AO2 T00221006
0269726580149222017012003427+44883-093229FM-16+0255KMSP V0201105N00415009455MN0160935N5+00285-00065999999ADDGA1025+003965999GA2045+007325999GA3085+009455999GD11991+0039659GD22991+0073259GD34991+0094559GE19MSL   +99999+99999GF199999999999003961999999MA1100585097575REMMET10101/19/17 21:42:02 SPECI KMSP 200342Z 11008KT 10SM FEW013 SCT024 OVC031 03/M01 A2970 RMK AO2 T00281006
0249726580149222017012003537+44883-093229FM-15+0255KMSP V0200905N00315009755MN0160935N5+00285-00065100605ADDAA101000095GA1075+009755999GA2085+014945999GD13991+0097559GD24991+0149459GE19MSL   +99999+99999GF199999999999009751999999MA1100545097535REMMET10101/19/17 21:53:02 METAR KMSP 200353Z 09006KT 10SM BKN032 OVC049 03/M01 A2969 RMK AO2 SLP060 T00281006
0143726580149222017012004516+44883-093229FM-16+0255KMSP V0201205N00215003965MN0128755N5+00205+00005999999ADDGA1085+003965999GD14991+0039659MA1100515097505REMMET08501/19/17 22:51:03 SPECI KMSP 200451Z 12004KT 8SM OVC013 02/00 A2968 RMK AO2 FIBI (PL)
0209726580149222017012004537+44883-093229FM-15+0255KMSP V0201305N00215003965MN0144845N5+00225+00005100585ADDAA101000095GA1085+003965999GD14991+0039659GE19MSL   +99999+99999GF199999999999003961999999MA1100515097505REMMET09201/19/17 22:53:02 METAR KMSP 200453Z 13004KT 9SM OVC013 02/00 A2968 RMK AO2 SLP058 T00220000
0346726580149222017012005537+44883-093229FM-15+0255KMSP V0201305N00265003055MN0064375N5+00225+00065100575ADDAA101000095AJ100059500051099AU100001015AW1105GA1085+003055999GD14991+0030559GE19MSL   +99999+99999GF199999999999003051999999KA1060M+00281KA2060N+00221KA3240M+00281KA4240N-00171MA1100515097505MD1690139+9999REMMET12901/19/17 23:53:02 METAR KMSP 200553Z 13005KT 4SM BR OVC010 02/01 A2968 RMK AO2 SLP057 4/002 T00220006 10028 20022 400281017 56013
0982726580149222017012005596+44883-093229SOD  +0255KMSP V020999999999999999999999999999+99999+99999999999ADDAA124000095AJ100059599999999AL12400095AN1024000095AT1AU13BR  5AX1016246AX2086246KA1240M+00285KA2240N-00165MG1097754100544OE11240076016099995OE22240062616099995OE33240032299999995REMSOD75724 HR PRECIPITATION (IN): 0.00 SNOW DEPTH (IN):2     24 HR SNOWFALL (IN):0.0  WEATHER(CODE):18  24 HR MAX TEMP (F): 3724 HR MIN TEMP (F): 29AVERAGE STATION PRESSURE:28.865 MINIMUM SEA LEVEL PRESSURE:29.69 TIME OF OCCURRENCE:2359 PEAK WIND SPEED (MPH): 17 PEAK WIND DIR (DEG):160 PEAK WIND TIME (LST):      FASTEST 2MIN SPEED (MPH): 14FASTEST 2MIN DIR (DEG):160 FASTEST 2MIN TIME (LST):     AVERAGE WIND SPEED (MPH): 7.2 24 HR AVG TEMP (F): 33DEPART FROM NORMAL: 18  HEATING DEGREE DAYS: 32 COOLING DEGREE DAYS:  0 LATEST DAY MAX TEMP (0700-1900 LST):37  LATEST NIGHT MIN TEMP(1900-0800 LST):29 HOURLY INCREMENTAL PRECIPITATION VALUES (IN):.00 0.00 0.00 0.00 0.00 0.00 0.00 0.00 0.00 0.00 0.00 0.00 0.00 0.00 0.00 0.00 0.00 0.00 0.00 0.00 0.00 0.00 0.00 0.00EQDR01    187AXW093R02    187AXW093
0246726580149222017012006004+44883-093217FM-12+025599999V0201301N002619999999N006000199+00221+00061100571ADDAJ100053100050099GA1999+004501999GE19MSL   +99999+99999GF108991999999004501999999KA1240M+00281KA2240N-00161MA1999999097381MD1610131+9999MW1101REMSYN09272658 31456 81305 10022 20006 39738 40057 56013 710// 90553 333 10028 21016 4/005 555 92006=
0254726580149222017012006067+44883-093229FM-16+0255KMSP V0201205N00365002445MN0048285N5+00225+00005999999ADDAU100001015AW1105GA1075+002445999GA2085+003355999GD13991+0024459GD24991+0033559GE19MSL   +99999+99999GF199999999999002441999999MA1100475097475REMMET10001/20/17 00:06:02 SPECI KMSP 200606Z 12007KT 3SM BR BKN008 OVC011 02/00 A2967 RMK AO2 T00220000 (PL)
0216726580149222017012006157+44883-093229FM-16+0255KMSP V0201305N00315002135MN0032195N5+00225+00065999999ADDAU100001015AW1105GA1085+002135999GD14991+0021359GE19MSL   +99999+99999GF199999999999002131999999MA1100475097475REMMET09301/20/17 00:15:02 SPECI KMSP 200615Z 13006KT 2SM BR OVC007 02/01 A2967 RMK AO2 T00220006 (PL)
0232726580149222017012006517+44883-093229FM-16+0255KMSP V0201205N00465001225MN0032195N5+00205+00105999999ADDAA101000231AU100001015AW1105GA1085+001225999GD14991+0012259GE19MSL   +99999+99999GF199999999999001221999999MA1100445097435REMMET09801/20/17 00:51:02 SPECI KMSP 200651Z 12009KT 2SM BR OVC004 02/01 A2966 RMK AO2 DZB32E51 P0001 (PL)
0249726580149222017012006537+44883-093229FM-15+0255KMSP V0201205N00465001225MN0032195N5+00175+00065100515ADDAA101000395AU100001015AW1105GA1085+001225999GD14991+0012259GE19MSL   +99999+99999GF199999999999001221999999MA1100445097435REMMET11501/20/17 00:53:02 METAR KMSP 200653Z 12009KT 2SM BR OVC004 02/01 A2966 RMK AO2 SLP051 DZB32E51 P0001 T00170006 (PL)
0260726580149222017012007057+44883-093229FM-16+0255KMSP V0201205N00465001525MN0032195N5+00175+00065999999ADDAA101000021AU110010015AU200001015AW1105AW2515GA1085+001525999GD14991+0015259GE19MSL   +99999+99999GF199999999999001521999999MA1100445097435REMMET10901/20/17 01:05:02 SPECI KMSP 200705Z 12009KT 2SM -DZ BR OVC005 02/01 A2966 RMK AO2 DZB54 P0000 T00170006 (PL)
0306726580149222017012007427+44883-093229FM-16+0255KMSP V0201205N00365001525MN0080475N5+00175+00065999999ADDAA101001531AU110020015AU200001015AW1105AW2615GA1075+001525999GA2085+007325999GD13991+0015259GD24991+0073259GE19MSL   +99999+99999GF199999999999001521999999MA1100415097405REMMET12401/20/17 01:42:02 SPECI KMSP 200742Z 12007KT 5SM -RA BR BKN005 OVC024 02/01 A2965 RMK AO2 DZB54E39RAB39 P0006 T00170006 (PL)
0313726580149222017012007537+44883-093229FM-15+0255KMSP V0201305N00365001525MN0080475N5+00175+00065100485ADDAA101001595AU110020015AU200001015AW1105AW2615GA1075+001525999GA2085+006405999GD13991+0015259GD24991+0064059GE19MSL   +99999+99999GF199999999999001521999999MA1100415097405REMMET13101/20/17 01:53:02 METAR KMSP 200753Z 13007KT 5SM -RA BR BKN005 OVC021 02/01 A2965 RMK AO2 SLP048 DZB54E39RAB39 P0006 T00170006 (PL)
0194726580149222017012008516+44883-093229FM-16+0255KMSP V0201205N00415001525MN0040235N5+00205+00105999999ADDAU110020015AU200001015AW1105AW2615GA1085+001525999GD14991+0015259MA1100415097405REMMET10201/20/17 02:51:02 SPECI KMSP 200851Z 12008KT 2 1/2SM -RA BR OVC005 02/01 A2965 RMK AO2 P0002 FIBI (PL)
0317726580149222017012008537+44883-093229FM-15+0255KMSP V0201205N00415001525MN0048285N5+00175+00065100475ADDAA101000595AA203002391AU110020015AU200001015AW1105AW2615GA1085+001525999GD14991+0015259GE19MSL   +99999+99999GF199999999999001521999999MA1100415097405MD1890039+9999REMMET12201/20/17 02:53:02 METAR KMSP 200853Z 12008KT 3SM -RA BR OVC005 02/01 A2965 RMK AO2 SLP047 P0002 60009 T00170006 58003 (PL)EQDQ01  00228PRCP03
0246726580149222017012009537+44883-093229FM-15+0255KMSP V0201305N00215001525MN0064375N5+00175+00115100435ADDAA101000025AU100001015AW1105GA1085+001525999GD14991+0015259GE19MSL   +99999+99999GF199999999999001521999999MA1100375097375REMMET11201/20/17 03:53:02 METAR KMSP 200953Z 13004KT 4SM BR OVC005 02/01 A2964 RMK AO2 RAE50 SLP043 P0000 T00170011 (PL)
0220726580149222017012010227+44883-093229FM-16+0255KMSP V0201505N00265001225MN0040235N5+00175+00115999999ADDAU100001015AW1105GA1085+001225999GD14991+0012259GE19MSL   +99999+99999GF199999999999001221999999MA1100345097335REMMET09701/20/17 04:22:02 SPECI KMSP 201022Z 15005KT 2 1/2SM BR OVC004 02/01 A2963 RMK AO2 T00170011 (PL)
0238726580149222017012010537+44883-093229FM-15+0255KMSP V0201405N00265000915MN0040235N5+00175+00115100405ADDAA101000095AU100001015AW1105GA1085+000915999GD14991+0009159GE19MSL   +99999+99999GF199999999999000911999999MA1100345097335REMMET10401/20/17 04:53:02 METAR KMSP 201053Z 14005KT 2 1/2SM BR OVC003 02/01 A2963 RMK AO2 SLP040 T00170011 (PL)
0216726580149222017012010587+44883-093229FM-16+0255KMSP V0201405N00315000915MN0048285N5+00175+00065999999ADDAU100001015AW1105GA1085+000915999GD14991+0009159GE19MSL   +99999+99999GF199999999999000911999999MA1100345097335REMMET09301/20/17 04:58:02 SPECI KMSP 201058Z 14006KT 3SM BR OVC003 02/01 A2963 RMK AO2 T00170006 (PL)
0368726580149222017012011537+44883-093229FM-15+0255KMSP V0201405N00315001225MN0080475N5+00175+00065100405ADDAA101000095AA206002391AA324002391AJ100039500025099AU100001015AW1105GA1085+001225999GD14991+0012259GE19MSL   +99999+99999GF199999999999001221999999KA1060M+00221KA2060N+00171MA1100345097335MD1690079+9999REMMET13601/20/17 05:53:02 METAR KMSP 201153Z 14006KT 5SM BR OVC004 02/01 A2963 RMK AO2 SLP040 4/001 60009 70009 T00170006 10022 20017 56007 (PL)EQDQ01  00228PRCP24
0280726580149222017012012004+44883-093217FM-12+025599999V0201401N003119999999N008000199+00171+00061100401ADDAA106002031AA224002331AJ100033100030099GA1999+001501999GE19MSL   +99999+99999GF108991999999001501999999KA1240M+00281KA2240N+00171MA1999999097221MD1610071+9999MW1101REMSYN10472658 11258 81406 10017 20006 39722 40040 56007 60021 710// 91153 333 10028 20017 4/003 70023 555 92012=
0254726580149222017012012497+44883-093229FM-16+0255KMSP V0201305N00315001225MN0040235N5+00205+00105999999ADDAA101000021AU110010015AU200001015AW1105AW2515GA1085+001225999GD14991+0012259GE19MSL   +99999+99999GF199999999999001221999999MA1100305097305REMMET10301/20/17 06:49:02 SPECI KMSP 201249Z 13006KT 2 1/2SM -DZ BR OVC004 02/01 A2962 RMK AO2 DZB46 P0000 (NK)
0267726580149222017012012537+44883-093229FM-15+0255KMSP V0201305N00315001225MN0032195N5+00175+00065100395ADDAA101000025AU110010015AU200001015AW1105AW2515GA1085+001225999GD14991+0012259GE19MSL   +99999+99999GF199999999999001221999999MA1100305097305REMMET11601/20/17 06:53:02 METAR KMSP 201253Z 13006KT 2SM -DZ BR OVC004 02/01 A2962 RMK AO2 DZB46 SLP039 P0000 T00170006 (NK)
0254726580149222017012013087+44883-093229FM-16+0255KMSP V0201305N00315001225MN0048285N5+00175+00065999999ADDAA101000021AU110010015AU200001015AW1105AW2515GA1085+001225999GD14991+0012259GE19MSL   +99999+99999GF199999999999001221999999MA1100305097305REMMET10301/20/17 07:08:02 SPECI KMSP 201308Z 13006KT 3SM -DZ BR OVC004 02/01 A2962 RMK AO2 P0000 T00170006 (NK)
0261726580149222017012013537+44883-093229FM-15+0255KMSP V0201305N00315001225MN0064375N5+00175+00065100395ADDAA101000025AU110010015AU200001015AW1105AW2515GA1085+001225999GD14991+0012259GE19MSL   +99999+99999GF199999999999001221999999MA1100305097305REMMET11001/20/17 07:53:02 METAR KMSP 201353Z 13006KT 4SM -DZ BR OVC004 02/01 A2962 RMK AO2 SLP039 P0000 T00170006 (NK)
0317726580149222017012014537+44883-093229FM-15+0255KMSP V0201205N00365001225MN0048285N5+00175+00065100365ADDAA101000025AA203000021AU110010015AU200001015AW1105AW2515GA1085+001225999GD14991+0012259GE19MSL   +99999+99999GF199999999999001221999999MA1100305097305MD1890039+9999REMMET12201/20/17 08:53:02 METAR KMSP 201453Z 12007KT 3SM -DZ BR OVC004 02/01 A2962 RMK AO2 SLP036 P0000 60000 T00170006 58003 (NK)EQDQ01  00008PRCP03
0246726580149222017012015537+44883-093229FM-15+0255KMSP V0201205N00465000915MN0064375N5+00175+00065100335ADDAA101000025AU100001015AW1105GA1085+000915999GD14991+0009159GE19MSL   +99999+99999GF199999999999000911999999MA1100275097275REMMET11201/20/17 09:53:02 METAR KMSP 201553Z 12009KT 4SM BR OVC003 02/01 A2961 RMK AO2 DZE26 SLP033 P0000 T00170006 (NK)
0234726580149222017012016537+44883-093229FM-15+0255KMSP V0201505N00415001225MN0064375N5+00225+00115100345ADDAA101000095AU100001015AW1105GA1085+001225999GD14991+0012259GE19MSL   +99999+99999GF199999999999001221999999MA1100275097275REMMET10001/20/17 10:53:02 METAR KMSP 201653Z 15008KT 4SM BR OVC004 02/01 A2961 RMK AO2 SLP034 T00220011 (NK)
0216726580149222017012017237+44883-093229FM-16+0255KMSP V0201505N00365001525MN0096565N5+00225+00115999999ADDAU100001015AW1105GA1085+001525999GD14991+0015259GE19MSL   +99999+99999GF199999999999001521999999MA1100245097245REMMET09301/20/17 11:23:02 SPECI KMSP 201723Z 15007KT 6SM BR OVC005 02/01 A2960 RMK AO2 T00220011 (NK)
0312726580149222017012017537+44883-093229FM-15+0255KMSP V0201605N00315001525MN0112655N5+00225+00115100295ADDAA101000095AA206000021AJ100039500025099GA1085+001525999GD14991+0015259GE19MSL   +99999+99999GF199999999999001521999999KA1060M+00221KA2060N+00111MA1100205097205MD1890079+9999REMMET12701/20/17 11:53:02 METAR KMSP 201753Z 16006KT 7SM OVC005 02/01 A2959 RMK AO2 SLP029 4/001 60000 T00220011 10022 20011 58007 (NK)
0251726580149222017012018004+44883-093217FM-12+025599999V0201601N003119999999N011000199+00221+00111100291ADDAA106000021AJ100033100030099GA1999+001501999GE19MSL   +99999+99999GF108991999999001501999999KA1120M+00221KA2120N+00111MA1999999097081MD1810071+9999REMSYN09272658 12261 81606 10022 20011 39708 40029 58007 69901 91753 333 10022 20011 4/003 555 92018=
0234726580149222017012018537+44883-093229FM-15+0255KMSP V0201505N00265001525MN0096565N5+00225+00115100185ADDAA101000095AU100001015AW1105GA1085+001525999GD14991+0015259GE19MSL   +99999+99999GF199999999999001521999999MA1100105097105REMMET10001/20/17 12:53:02 METAR KMSP 201853Z 15005KT 6SM BR OVC005 02/01 A2956 RMK AO2 SLP018 T00220011 (NK)
0234726580149222017012019537+44883-093229FM-15+0255KMSP V0201505N00265001525MN0096565N5+00285+00115100135ADDAA101000095AU100001015AW1105GA1085+001525999GD14991+0015259GE19MSL   +99999+99999GF199999999999001521999999MA1100075097075REMMET10001/20/17 13:53:02 METAR KMSP 201953Z 15005KT 6SM BR OVC005 03/01 A2955 RMK AO2 SLP013 T00280011 (NK)
0254726580149222017012020537+44883-093229FM-15+0255KMSP V0201205N00415001835MN0080475N5+00225+00115100115ADDAA101000095AU100001015AW1105GA1085+001835999GD14991+0018359GE19MSL   +99999+99999GF199999999999001831999999MA1100035097045MD1690189+9999REMMET10601/20/17 14:53:02 METAR KMSP 202053Z 12008KT 5SM BR OVC006 02/01 A2954 RMK AO2 SLP011 T00220011 56018 (NK)
0167726580149222017012021516+44883-093229FM-16+0255KMSP V0201405N00365001525MN0040235N5+00205+00105999999ADDAU100001015AW1105GA1085+001525999GD14991+0015259MA1100145097145REMMET09201/20/17 15:51:02 SPECI KMSP 202151Z 14007KT 2 1/2SM BR OVC005 02/01 A2957 RMK AO2 FIBI (RJ)
0238726580149222017012021537+44883-093229FM-15+0255KMSP V0201405N00315001525MN0040235N5+00225+00115100195ADDAA101000095AU100001015AW1105GA1085+001525999GD14991+0015259GE19MSL   +99999+99999GF199999999999001521999999MA1100105097105REMMET10401/20/17 15:53:02 METAR KMSP 202153Z 14006KT 2 1/2SM BR OVC005 02/01 A2956 RMK AO2 SLP019 T00220011 (RJ)
0216726580149222017012022067+44883-093229FM-16+0255KMSP V0201405N00465001225MN0064375N5+00225+00115999999ADDAU100001015AW1105GA1085+001225999GD14991+0012259GE19MSL   +99999+99999GF199999999999001221999999MA1100105097105REMMET09301/20/17 16:06:02 SPECI KMSP 202206Z 14009KT 4SM BR OVC004 02/01 A2956 RMK AO2 T00220011 (RJ)
0261726580149222017012022537+44883-093229FM-15+0255KMSP V0201305N00315000915MN0016095N5+00225+00115100205ADDAA101000095AU100001015AW1105GA1085+000915999GD14991+0009159GE19MSL   +99999+99999GF199999999999000911999999MA1100145097145REMMET12701/20/17 16:53:02 METAR KMSP 202253Z 13006KT 1SM R30L/P6000FT BR OVC003 02/01 A2957 RMK AO2 SFC VIS 1 3/4 SLP020 T00220011 (RJ)
0236726580149222017012023297+44883-093229FM-16+0255KMSP V0201205N00315000615MN0012075N5+00175+00115999999ADDAU100001015AW1105GA1085+000615999GD14991+0006159GE19MSL   +99999+99999GF199999999999000611999999MA1100105097105REMMET11301/20/17 17:29:02 SPECI KMSP 202329Z 12006KT 3/4SM R30L/5500VP6000FT BR OVC002 02/01 A2956 RMK AO2 T00170011 (RJ)
0333726580149222017012023537+44883-093229FM-15+0255KMSP V0201205N00465000615WN0012075N5+00175+00115100185ADDAA101000095AJ100039500025099AU100001015AW1105GA1095+000615999GD15991+0006159GE19MSL   +99999+99999GF109991999999000611999999KA1060M+00281KA2060N+00171MA1100105097105MD1090069+9999REMMET14201/20/17 17:53:02 METAR KMSP 202353Z 12009KT 3/4SM R30L/3500V4500FT BR VV002 02/01 A2956 RMK AO2 SLP018 4/001 T00170011 10028 20017 50006 (RJ)
0246726580149222017012100004+44883-093217FM-12+025599999V0201201N00461002401CN001200199+00171+00111100181ADDAJ100033100030099GA1999+000751999GE19MSL   +99999+99999GF109991999999000751999999KA1120M+00281KA2120N+00171MA1999999096981MD1990061+9999MW1101REMSYN09272658 31112 91209 10017 20011 39698 40018 50006 710// 92353 333 10028 20017 4/003 555 92100=
0247726580149222017012100537+44883-093229FM-15+0255KMSP V0201305N00515000615WN0008055N5+00175+00115100175ADDAA101000095AU100002015AW1305GA1095+000615999GD15991+0006159GE19MSL   +99999+99999GF109991999999000611999999MA1100105097105REMMET11301/20/17 18:53:01 METAR KMSP 210053Z 13010KT 1/2SM R30L/2600V3000FT FG VV002 02/01 A2956 RMK AO2 SLP017 T00170011
0244726580149222017012101537+44883-093229FM-15+0255KMSP V0201405N00465000615MN0012075N5+00175+00115100205ADDAA101000095AU100001015AW1105GA1085+000615999GD14991+0006159GE19MSL   +99999+99999GF199999999999000611999999MA1100145097145REMMET11001/20/17 19:53:01 METAR KMSP 210153Z 14009KT 3/4SM R30L/P6000FT BR OVC002 02/01 A2957 RMK AO2 SLP020 T00170011
0215726580149222017012101587+44883-093229FM-16+0255KMSP V0201405N00415000615MN0024145N5+00175+00115999999ADDAU100001015AW1105GA1085+000615999GD14991+0006159GE19MSL   +99999+99999GF199999999999000611999999MA1100145097145REMMET09201/20/17 19:58:01 SPECI KMSP 210158Z 14008KT 1 1/2SM BR OVC002 02/01 A2957 RMK AO2 T00170011
0211726580149222017012102097+44883-093229FM-16+0255KMSP V0201505N00415000615MN0048285N5+00175+00115999999ADDAU100001015AW1105GA1085+000615999GD14991+0006159GE19MSL   +99999+99999GF199999999999000611999999MA1100105097105REMMET08801/20/17 20:09:01 SPECI KMSP 210209Z 15008KT 3SM BR OVC002 02/01 A2956 RMK AO2 T00170011
0225726580149222017012102357+44883-093229FM-16+0255KMSP V0201505N00515000915MN0024145N5+00175+00115999999ADDAU100001015AW1105GA1085+000915999GD14991+0009159GE19MSL   +99999+99999GF199999999999000911999999MA1100145097145REMMET10201/20/17 20:35:01 SPECI KMSP 210235Z 15010KT 1 1/2SM BR OVC003 02/01 A2957 RMK AO2 SFC VIS 2 T00170011
0226726580149222017012102517+44883-093229FM-16+0255KMSP V0201405N00365000915MN0012075N5+00205+00105999999ADDAU100001015AW1105GA1085+000915999GD14991+0009159GE19MSL   +99999+99999GF199999999999000911999999MA1100145097145REMMET10301/20/17 20:51:01 SPECI KMSP 210251Z 14007KT 3/4SM R30L/P6000FT BR OVC003 02/01 A2957 RMK AO2 SFC VIS 1
0274726580149222017012102537+44883-093229FM-15+0255KMSP V0201405N00315000615MN0012075N5+00175+00065100205ADDAA101000095AU100001015AW1105GA1085+000615999GD14991+0006159GE19MSL   +99999+99999GF199999999999000611999999MA1100145097145MD1090039+9999REMMET12601/20/17 20:53:02 METAR KMSP 210253Z 14006KT 3/4SM R30L/P6000FT BR OVC002 02/01 A2957 RMK AO2 SFC VIS 1 SLP020 T00170006 50003
0224726580149222017012103057+44883-093229FM-16+0255KMSP V0201305N00365000615MN0016095N5+00175+00115999999ADDAU100001015AW1105GA1085+000615999GD14991+0006159GE19MSL   +99999+99999GF199999999999000611999999MA1100145097145REMMET10101/20/17 21:05:02 SPECI KMSP 210305Z 13007KT 1SM R30L/P6000FT BR OVC002 02/01 A2957 RMK AO2 T00170011
0163726580149222017012103516+44883-093229FM-16+0255KMSP V0201205N00365000915MN0032195N5+00205+00105999999ADDAU100001015AW1105GA1085+000915999GD14991+0009159MA1100075097075REMMET08801/20/17 21:51:03 SPECI KMSP 210351Z 12007KT 2SM BR OVC003 02/01 A2955 RMK AO2 FIBI (RJ)
0229726580149222017012103537+44883-093229FM-15+0255KMSP V0201205N00365000915MN0032195N5+00175+00065100155ADDAA101000095AU100001015AW1105GA1085+000915999GD14991+0009159GE19MSL   +99999+99999GF199999999999000911999999MA1100075097075REMMET09501/20/17 21:53:02 METAR KMSP 210353Z 12007KT 2SM BR OVC003 02/01 A2955 RMK AO2 SLP015 T00170006
0239726580149222017012104537+44883-093229FM-15+0255KMSP V0201105N00365000915MN0032195N5+00175+00115100115ADDAA101000095AU100001015AW1105GA1085+000915999GD14991+0009159GE19MSL   +99999+99999GF199999999999000911999999MA1100035097045REMMET10501/20/17 22:53:02 METAR KMSP 210453Z 11007KT 2SM BR OVC003 02/01 A2954 RMK AO2 SFC VIS 3 SLP011 T00170011
0356726580149222017012105537+44883-093229FM-15+0255KMSP V0201205N00415000915MN0032195N5+00175+00065100095ADDAA101000095AJ100039500025099AU100001015AW1105GA1085+000915999GD14991+0009159GE19MSL   +99999+99999GF199999999999000911999999KA1060M+00171KA2060N+00171KA3240M+00281KA4240N+00111MA1100035097045MD1690109+9999REMMET13901/20/17 23:53:02 METAR KMSP 210553Z 12008KT 2SM BR OVC003 02/01 A2954 RMK AO2 SFC VIS 3 SLP009 4/001 T00170006 10017 20017 400280011 56010
1000726580149222017012105596+44883-093229SOD  +0255KMSP V020999999999999999999999999999+99999+99999999999ADDAA124002395AJ100039599999999AL12400095AN1024000095AT1AU16RA  5AT2AU14DZ  5AT3AU01FG  5AT4AU13BR  5AX1015245KA1240M+00285KA2240N+00115MG1097164100104OE11240067111099995OE22240053615099995OE33240035399999995REMSOD78324 HR PRECIPITATION (IN): 0.09 SNOW DEPTH (IN):1     24 HR SNOWFALL (IN):0.0  WEATHER(CODE):1  24 HR MAX TEMP (F): 3724 HR MIN TEMP (F): 34AVERAGE STATION PRESSURE:28.690 MINIMUM SEA LEVEL PRESSURE:29.56 TIME OF OCCURRENCE:2359 PEAK WIND SPEED (MPH): 15 PEAK WIND DIR (DEG):110 PEAK WIND TIME (LST):      FASTEST 2MIN SPEED (MPH): 12FASTEST 2MIN DIR (DEG):150 FASTEST 2MIN TIME (LST):     AVERAGE WIND SPEED (MPH): 7.9 24 HR AVG TEMP (F): 36DEPART FROM NORMAL: 21  SKY COVER SR-SS (TENTHS): 1HEATING DEGREE DAYS: 29 COOLING DEGREE DAYS:  0 LATEST DAY MAX TEMP (0700-1900 LST):37  LATEST NIGHT MIN TEMP(1900-0800 LST):34 HOURLY INCREMENTAL PRECIPITATION VALUES (IN):.01 0.06 0.02 T    0.00 0.00 T    T    T    T    0.00 0.00 0.00 0.00 0.00 0.00 0.00 0.00 0.00 0.00 0.00 0.00 0.00 0.00
0246726580149222017012106004+44883-093217FM-12+025599999V0201201N004119999999N003200199+00171+00061100091ADDAJ100033100030099GA1999+000751999GE19MSL   +99999+99999GF108991999999000751999999KA1240M+00221KA2240N+00171MA1999999096921MD1610101+9999MW1101REMSYN09272658 31132 81208 10017 20006 39692 40009 56010 710// 90553 333 10022 20017 4/003 555 92106=
0244726580149222017012106537+44883-093229FM-15+0255KMSP V0201205N00365000615MN0032195N5+00175+00065100035ADDAA101000095AU100001015AW1105GA1085+000615999GD14991+0006159GE19MSL   +99999+99999GF199999999999000611999999MA1099975096975REMMET11001/21/17 00:53:02 METAR KMSP 210653Z 12007KT 2SM BR OVC002 02/01 A2952 RMK AO2 SFC VIS 3 SLP003 T00170006 (PL)
0244726580149222017012107537+44883-093229FM-15+0255KMSP V0201205N00365000615MN0032195N5+00175+00115099985ADDAA101000095AU100001015AW1105GA1085+000615999GD14991+0006159GE19MSL   +99999+99999GF199999999999000611999999MA1099905096915REMMET11001/21/17 01:53:02 METAR KMSP 210753Z 12007KT 2SM BR OVC002 02/01 A2950 RMK AO2 SFC VIS 3 SLP998 T00170011 (PL)
0264726580149222017012108537+44883-093229FM-15+0255KMSP V0201205N00365000915MN0032195N5+00175+00115099935ADDAA101000095AU100001015AW1105GA1085+000915999GD14991+0009159GE19MSL   +99999+99999GF199999999999000911999999MA1099865096875MD1690169+9999REMMET11601/21/17 02:53:02 METAR KMSP 210853Z 12007KT 2SM BR OVC003 02/01 A2949 RMK AO2 SFC VIS 4 SLP993 T00170011 56016 (PL)
0248726580149222017012109537+44883-093229FM-15+0255KMSP V0200905N00365000615MN0032195N5+00175+00065099825ADDAA101000095AU100001015AW1105GA1085+000615999GD14991+0006159GE19MSL   +99999+99999GF199999999999000611999999MA1099765096775REMMET11401/21/17 03:53:02 METAR KMSP 210953Z 09007KT 2SM BR OVC002 02/01 A2946 RMK AO2 SFC VIS 2 1/2 SLP982 T00170006 (PL)
0259726580149222017012110537+44883-093229FM-15+0255KMSP V0200805N00315000915MN0032195N5+00175+00115099795ADDAA101000395AU100001015AW1105GA1085+000915999GD14991+0009159GE19MSL   +99999+99999GF199999999999000911999999MA1099735096745REMMET12501/21/17 04:53:02 METAR KMSP 211053Z 08006KT 2SM BR OVC003 02/01 A2945 RMK AO2 SFC VIS 4 RAB36E48 SLP979 P0001 T00170011 (PL)
0368726580149222017012111537+44883-093229FM-15+0255KMSP V0200805N00365000915MN0032195N5+00175+00115099765ADDAA101000095AA206000391AA324000391AJ100039500025099AU100001015AW1105GA1085+000915999GD14991+0009159GE19MSL   +99999+99999GF199999999999000911999999KA1060M+00221KA2060N+00171MA1099705096715MD1690179+9999REMMET13601/21/17 05:53:02 METAR KMSP 211153Z 08007KT 2SM BR OVC003 02/01 A2944 RMK AO2 SLP976 4/001 60001 70001 T00170011 10022 20017 56017 (PL)EQDQ01  00028PRCP24
0280726580149222017012112004+44883-093217FM-12+025599999V0200801N003619999999N003200199+00171+00111099761ADDAA106000331AA224000331AJ100033100030099GA1999+000751999GE19MSL   +99999+99999GF108991999999000751999999KA1240M+00281KA2240N+00171MA1999999096591MD1610171+9999MW1101REMSYN10472658 11132 80807 10017 20011 39659 49976 56017 69931 710// 91153 333 10028 20017 4/003 70003 555 92112=
0244726580149222017012112537+44883-093229FM-15+0255KMSP V0200705N00315001225MN0032195N5+00175+00065099745ADDAA101000095AU100001015AW1105GA1085+001225999GD14991+0012259GE19MSL   +99999+99999GF199999999999001221999999MA1099665096675REMMET11001/21/17 06:53:02 METAR KMSP 211253Z 07006KT 2SM BR OVC004 02/01 A2943 RMK AO2 SFC VIS 4 SLP974 T00170006 (NK)
0244726580149222017012113537+44883-093229FM-15+0255KMSP V0200505N00365001225MN0032195N5+00175+00065099705ADDAA101000095AU100001015AW1105GA1085+001225999GD14991+0012259GE19MSL   +99999+99999GF199999999999001221999999MA1099635096645REMMET11001/21/17 07:53:02 METAR KMSP 211353Z 05007KT 2SM BR OVC004 02/01 A2942 RMK AO2 SFC VIS 4 SLP970 T00170006 (NK)
0226726580149222017012114237+44883-093229FM-16+0255KMSP V0200705N00265001525MN0032195N5+00175+00065999999ADDAU100001015AW1105GA1085+001525999GD14991+0015259GE19MSL   +99999+99999GF199999999999001521999999MA1099635096645REMMET10301/21/17 08:23:02 SPECI KMSP 211423Z 07005KT 2SM BR OVC005 02/01 A2942 RMK AO2 SFC VIS 4 T00170006 (NK)
0268726580149222017012114447+44883-093229FM-16+0255KMSP V0200705N00215001525MN0064375N5+00175+00065999999ADDAA101000021AU110010015AU200001015AW1105AW2515GA1085+001525999GD14991+0015259GE19MSL   +99999+99999GF199999999999001521999999MA1099635096645REMMET11701/21/17 08:44:02 SPECI KMSP 211444Z 07004KT 4SM -DZ BR OVC005 02/01 A2942 RMK AO2 RAB24E39DZB41 P0000 T00170006 (NK)
0331726580149222017012114537+44883-093229FM-15+0255KMSP V0200605N00215001525MN0048285N5+00175+00065099705ADDAA101000025AA203000021AU110010015AU200001015AW1105AW2515GA1085+001525999GD14991+0015259GE19MSL   +99999+99999GF199999999999001521999999MA1099635096645MD1690069+9999REMMET13601/21/17 08:53:02 METAR KMSP 211453Z 06004KT 3SM -DZ BR OVC005 02/01 A2942 RMK AO2 RAB24E39DZB41 SLP970 P0000 60000 T00170006 56006 (NK)EQDQ01  00008PRCP03
0261726580149222017012115537+44883-093229FM-15+0255KMSP V0200805N00265001525MN0080475N5+00225+00115099725ADDAA101000025AU110010015AU200001015AW1105AW2515GA1085+001525999GD14991+0015259GE19MSL   +99999+99999GF199999999999001521999999MA1099665096675REMMET11001/21/17 09:53:02 METAR KMSP 211553Z 08005KT 5SM -DZ BR OVC005 02/01 A2943 RMK AO2 SLP972 P0000 T00220011 (NK)
0276726580149222017012116267+44883-093229FM-16+0255KMSP V0200705N00215001525MN0028165N5+00225+00115999999ADDAA101000021AU110010015AU200001015AW1105AW2515GA1085+001525999GD14991+0015259GE19MSL   +99999+99999GF199999999999001521999999MA1099665096675REMMET12501/21/17 10:26:02 SPECI KMSP 211626Z 07004KT 1 3/4SM R30L/6000VP6000FT -DZ BR OVC005 02/01 A2943 RMK AO2 P0000 T00220011 (NK)
0265726580149222017012116537+44883-093229FM-15+0255KMSP V0200805N00315001525MN0028165N5+00285+00175099695ADDAA101000025AU110010015AU200001015AW1105AW2515GA1085+001525999GD14991+0015259GE19MSL   +99999+99999GF199999999999001521999999MA1099635096645REMMET11401/21/17 10:53:02 METAR KMSP 211653Z 08006KT 1 3/4SM -DZ BR OVC005 03/02 A2942 RMK AO2 SLP969 P0000 T00280017 (NK)
0239726580149222017012117047+44883-093229FM-16+0255KMSP V0200805N00365001525MN0048285N5+00285+00115999999ADDAA101000021AU100001015AW1105GA1085+001525999GD14991+0015259GE19MSL   +99999+99999GF199999999999001521999999MA1099635096645REMMET10501/21/17 11:04:02 SPECI KMSP 211704Z 08007KT 3SM BR OVC005 03/01 A2942 RMK AO2 DZE04 P0000 T00280011 (NK)
0239726580149222017012117227+44883-093229FM-16+0255KMSP V0200705N00365001225MN0048285N5+00285+00175999999ADDAA101000021AU100001015AW1105GA1085+001225999GD14991+0012259GE19MSL   +99999+99999GF199999999999001221999999MA1099595096615REMMET10501/21/17 11:22:02 SPECI KMSP 211722Z 07007KT 3SM BR OVC004 03/02 A2941 RMK AO2 DZE04 P0000 T00280017 (NK)
0219726580149222017012117407+44883-093229FM-16+0255KMSP V0200705N00215001525MN0112655N5+00285+00175999999ADDAA101000021GA1085+001525999GD14991+0015259GE19MSL   +99999+99999GF199999999999001521999999MA1099565096575REMMET10201/21/17 11:40:02 SPECI KMSP 211740Z 07004KT 7SM OVC005 03/02 A2940 RMK AO2 DZE04 P0000 T00280017 (NK)
0343726580149222017012117537+44883-093229FM-15+0255KMSP V0200905N00215001525MN0144845N5+00285+00175099605ADDAA101000025AA206000021AJ100039500025099GA1085+001525999GD14991+0015259GE19MSL   +99999+99999GF199999999999001521999999KA1060M+00281KA2060N+00171MA1099535096545MD1890099+9999REMMET13901/21/17 11:53:02 METAR KMSP 211753Z 09004KT 9SM OVC005 03/02 A2939 RMK AO2 DZE04 SLP960 4/001 P0000 60000 T00280017 10028 20017 58009 (NK)EQDQ01  00008PRCP06
0251726580149222017012118004+44883-093217FM-12+025599999V0200901N002119999999N014000199+00281+00171099601ADDAA106000021AJ100033100030099GA1999+001501999GE19MSL   +99999+99999GF108991999999001501999999KA1120M+00281KA2120N+00171MA1999999096421MD1810091+9999REMSYN09272658 12264 80904 10028 20017 39642 49960 58009 69901 91753 333 10028 20017 4/003 555 92118=
0215726580149222017012118537+44883-093229FM-15+0255KMSP V0201205N00315001835MN0160935N5+00285+00115099605ADDAA101000095GA1085+001835999GD14991+0018359GE19MSL   +99999+99999GF199999999999001831999999MA1099535096545REMMET09801/21/17 12:53:02 METAR KMSP 211853Z 12006KT 10SM OVC006 03/01 A2939 RMK AO2 SLP960 T00280011 (NK)
0214726580149222017012119537+44883-093229FM-15+0255KMSP V0201505N00215001525MN0144845N5+00285+00175099625ADDAA101000095GA1085+001525999GD14991+0015259GE19MSL   +99999+99999GF199999999999001521999999MA1099565096575REMMET09701/21/17 13:53:02 METAR KMSP 211953Z 15004KT 9SM OVC005 03/02 A2940 RMK AO2 SLP962 T00280017 (NK)
0234726580149222017012120537+44883-093229FM-15+0255KMSP V0200505N00155001835MN0128755N5+00335+00175099625ADDAA101000095GA1085+001835999GD14991+0018359GE19MSL   +99999+99999GF199999999999001831999999MA1099565096575MD1390029+9999REMMET10301/21/17 14:53:02 METAR KMSP 212053Z 05003KT 8SM OVC006 03/02 A2940 RMK AO2 SLP962 T00330017 53002 (NK)
0167726580149222017012121516+44883-093229FM-16+0255KMSP V0209999C00005002135MN0040235N5+00305+00205999999ADDAU100001015AW1105GA1085+002135999GD14991+0021359MA1099705096715REMMET09201/21/17 15:51:02 SPECI KMSP 212151Z 00000KT 2 1/2SM BR OVC007 03/02 A2944 RMK AO2 FIBI (RJ)
0267726580149222017012121537+44883-093229FM-15+0255KMSP V0209999C00005002135MN0032195N5+00335+00175099755ADDAA101000025AU110010015AU200001015AW1105AW2515GA1085+002135999GD14991+0021359GE19MSL   +99999+99999GF199999999999002131999999MA1099705096715REMMET11601/21/17 15:53:02 METAR KMSP 212153Z 00000KT 2SM -DZ BR OVC007 03/02 A2944 RMK AO2 DZB53 SLP975 P0000 T00330017 (RJ)
0254726580149222017012122127+44883-093229FM-16+0255KMSP V0209999C00005002445MN0048285N5+00335+00175999999ADDAA101000021AU110010015AU200001015AW1105AW2515GA1085+002445999GD14991+0024459GE19MSL   +99999+99999GF199999999999002441999999MA1099735096745REMMET10301/21/17 16:12:02 SPECI KMSP 212212Z 00000KT 3SM -DZ BR OVC008 03/02 A2945 RMK AO2 P0000 T00330017 (RJ)
0254726580149222017012122237+44883-093229FM-16+0255KMSP V0203605N00155002445MN0032195N5+00285+00115999999ADDAA101000021AU110010015AU200001015AW1105AW2515GA1085+002445999GD14991+0024459GE19MSL   +99999+99999GF199999999999002441999999MA1099735096745REMMET10301/21/17 16:23:02 SPECI KMSP 212223Z 36003KT 2SM -DZ BR OVC008 03/01 A2945 RMK AO2 P0000 T00280011 (RJ)
0190726580149222017012122516+44883-093229FM-16+0255KMSP V0209999V00155002135MN0048285N5+00305+00205999999ADDAU110010015AU200001015AW1105AW2515GA1085+002135999GD14991+0021359MA1099735096745REMMET09801/21/17 16:51:02 SPECI KMSP 212251Z VRB03KT 3SM -DZ BR OVC007 03/02 A2945 RMK AO2 P0000 FIBI (RJ)
0261726580149222017012122537+44883-093229FM-15+0255KMSP V0209999C00005002135MN0048285N5+00335+00175099805ADDAA101000025AU110010015AU200001015AW1105AW2515GA1085+002135999GD14991+0021359GE19MSL   +99999+99999GF199999999999002131999999MA1099735096745REMMET11001/21/17 16:53:02 METAR KMSP 212253Z 00000KT 3SM -DZ BR OVC007 03/02 A2945 RMK AO2 SLP980 P0000 T00330017 (RJ)
0363726580149222017012123537+44883-093229FM-15+0255KMSP V0209999C00005001835MN0080475N5+00285+00175099875ADDAA101000025AA206000021AJ100039500025099AU100001015AW1105GA1085+001835999GD14991+0018359GE19MSL   +99999+99999GF199999999999001831999999KA1060M+00331KA2060N+00281MA1099805096815MD1190249+9999REMMET14201/21/17 17:53:02 METAR KMSP 212353Z 00000KT 5SM BR OVC006 03/02 A2947 RMK AO2 DZE16 SLP987 4/001 P0000 60000 T00280017 10033 20028 51024 (RJ)EQDQ01  00008PRCP06
0263726580149222017012200004+44883-093217FM-12+025599999V0209999C000019999999N008000199+00281+00171099871ADDAA106000021AJ100033100030099GA1999+001501999GE19MSL   +99999+99999GF108991999999001501999999KA1120M+00331KA2120N+00171MA1999999096691MD1110241+9999MW1101REMSYN09872658 11258 80000 10028 20017 39669 49987 51024 69901 710// 92353 333 10033 20017 4/003 555 92200=
0215726580149222017012200487+44883-093229FM-16+0255KMSP V0200505N00155001525MN0020125N5+00305+00205999999ADDAU100001015AW1105GA1085+001525999GD14991+0015259GE19MSL   +99999+99999GF199999999999001521999999MA1099835096845REMMET09201/21/17 18:48:01 SPECI KMSP 220048Z 05003KT 1 1/4SM BR OVC005 03/02 A2948 RMK AO2 SFC VIS 3
0258726580149222017012200537+44883-093229FM-15+0255KMSP V0209999C00005001525MN0012075N5+00285+00175099895ADDAA101000095AU100001015AW1105GA1085+001525999GD14991+0015259GE19MSL   +99999+99999GF199999999999001521999999MA1099835096845REMMET12401/21/17 18:53:01 METAR KMSP 220053Z 00000KT 3/4SM R30L/P6000FT BR OVC005 03/02 A2948 RMK AO2 SFC VIS 1 1/2 SLP989 T00280017
0226726580149222017012201047+44883-093229FM-16+0255KMSP V0209999C00005001225MN0012075N5+00285+00175999999ADDAU100001015AW1105GA1085+001225999GD14991+0012259GE19MSL   +99999+99999GF199999999999001221999999MA1099835096845REMMET10301/21/17 19:04:01 SPECI KMSP 220104Z 00000KT 3/4SM R30L/P6000FT BR OVC004 03/02 A2948 RMK AO2 T00280017
0225726580149222017012201407+44883-093229FM-16+0255KMSP V0209999C00005000915MN0024145N5+00285+00225999999ADDAU100001015AW1105GA1085+000915999GD14991+0009159GE19MSL   +99999+99999GF199999999999000911999999MA1099905096915REMMET10201/21/17 19:40:01 SPECI KMSP 220140Z 00000KT 1 1/2SM BR OVC003 03/02 A2950 RMK AO2 TWR VIS 2 T00280022
0247726580149222017012201537+44883-093229FM-15+0255KMSP V0209999C00005001225MN0032195N5+00285+00225099965ADDAA101000095AU100001015AW1105GA1085+001225999GD14991+0012259GE19MSL   +99999+99999GF199999999999001221999999MA1099905096915REMMET11301/21/17 19:53:01 METAR KMSP 220153Z 00000KT 2SM R30L/3000VP6000FT BR OVC004 03/02 A2950 RMK AO2 SLP996 T00280022
0238726580149222017012202117+44883-093229FM-16+0255KMSP V0201705N00155001525MN0016095N5+00285+00115999999ADDAU100001015AW1105GA1085+001525999GD14991+0015259GE19MSL   +99999+99999GF199999999999001521999999MA1099935096945REMMET11501/21/17 20:11:01 SPECI KMSP 220211Z 17003KT 1SM R30L/2000V2400FT BR OVC005 03/01 A2951 RMK AO2 SFC VIS 2 T00280011
0239726580149222017012202377+44883-093229FM-16+0255KMSP V0201905N00155001225WN0012075N5+00285+00175999999ADDAU100001015AW1105GA1095+001225999GD15991+0012259GE19MSL   +99999+99999GF109991999999001221999999MA1099935096945REMMET11601/21/17 20:37:01 SPECI KMSP 220237Z 19003KT 3/4SM R30L/1800V2600FT BR VV004 03/02 A2951 RMK AO2 SFC VIS 1 T00280017
0219726580149222017012202517+44883-093229FM-16+0255KMSP V0209999C00005000915WN0012075N5+00205+00205999999ADDAU100001015AW1105GA1095+000915999GD15991+0009159GE19MSL   +99999+99999GF109991999999000911999999MA1099975096975REMMET09601/21/17 20:51:01 SPECI KMSP 220251Z 00000KT 3/4SM R30L/1800V2200FT BR VV003 02/02 A2952 RMK AO2
0267726580149222017012202537+44883-093229FM-15+0255KMSP V0209999C00005000915WN0012075N5+00225+00175100025ADDAA101000095AU100001015AW1105GA1095+000915999GD15991+0009159GE19MSL   +99999+99999GF109991999999000911999999MA1099975096975MD1190129+9999REMMET11901/21/17 20:53:02 METAR KMSP 220253Z 00000KT 3/4SM R30L/1800V2400FT BR VV003 02/02 A2952 RMK AO2 SLP002 T00220017 51012
0229726580149222017012203157+44883-093229FM-16+0255KMSP V0209999C00005000915WN0012075N5+00225+00175999999ADDAU100001015AW1105GA1095+000915999GD15991+0009159GE19MSL   +99999+99999GF109991999999000911999999MA1099975096975REMMET10601/21/17 21:15:02 SPECI KMSP 220315Z 00000KT 3/4SM R30L/2000V2200FT BR VV003 02/02 A2952 RMK AO2 T00220017
0292726580149222017012203537+44883-093229FM-15+0255KMSP V0209999C00005000615WN0008055N5+00285+00175100065ADDAA101000025AU110010015AU200002015AW1305AW2515GA1095+000615999GD15991+0006159GE19MSL   +99999+99999GF109991999999000611999999MA1100005097005REMMET14101/21/17 21:53:02 METAR KMSP 220353Z 00000KT 1/2SM R30L/1800V2000FT -DZ FG VV002 03/02 A2953 RMK AO2 TWR VIS 3/4 DZB50 SLP006 P0000 T00280017
0274726580149222017012204537+44883-093229FM-15+0255KMSP V0209999C00005000615WN0008055N5+00225+00175100105ADDAA101000025AU110010015AU200002015AW1305AW2515GA1095+000615999GD15991+0006159GE19MSL   +99999+99999GF109991999999000611999999MA1100035097045REMMET12301/21/17 22:53:02 METAR KMSP 220453Z 00000KT 1/2SM R30L/1800V2200FT -DZ FG VV002 02/02 A2954 RMK AO2 SLP010 P0000 T00220017
0267726580149222017012205007+44883-093229FM-16+0255KMSP V0209999C00005000615WN0004025N5+00225+00175999999ADDAA101000021AU110010015AU200002015AW1305AW2515GA1095+000615999GD15991+0006159GE19MSL   +99999+99999GF109991999999000611999999MA1100035097045REMMET11601/21/17 23:00:02 SPECI KMSP 220500Z 00000KT 1/4SM R30L/2000V2200FT -DZ FG VV002 02/02 A2954 RMK AO2 P0000 T00220017
0208726580149222017012205516+44883-093229FM-16+0255KMSP V0203505N00215000615WN0004025N5+00205+00205999999ADDAU110010015AU200002015AW1305AW2515GA1095+000615999GD15991+0006159MA1100075097075REMMET11601/21/17 23:51:03 SPECI KMSP 220551Z 35004KT 1/4SM R30L/1400V2400FT -DZ FG VV002 02/02 A2955 RMK AO2 P0000 FIBI (AP)
0404726580149222017012205537+44883-093229FM-15+0255KMSP V0203505N00265000615WN0004025N5+00225+00175100125ADDAA101000025AA206000021AU110010015AU200002015AW1305AW2515GA1095+000615999GD15991+0006159GE19MSL   +99999+99999GF109991999999000611999999KA1060M+00281KA2060N+00221KA3240M+00331KA4240N+00171MA1100075097075MD1190109+9999REMMET15701/21/17 23:53:02 METAR KMSP 220553Z 35005KT 1/4SM R30L/1600V2800FT -DZ FG VV002 02/02 A2955 RMK AO2 SLP012 P0000 60000 T00220017 10028 20022 400330017 51010EQDQ01  00008PRCP06
1030726580149222017012205596+44883-093229SOD  +0255KMSP V020999999999999999999999999999+99999+99999999999ADDAA124000395AJ100039599999999AL12400095AN1024000095AT1AU14DZ  5AT2AU01FG  5AT3AU13BR  5AX1016246AX2026246KA1240M+00335KA2240N+00175MG1096774099564OE11240071511099995OE22240044710099995OE33240017999999995REMSOD78124 HR PRECIPITATION (IN): 0.01 SNOW DEPTH (IN):1     24 HR SNOWFALL (IN):0.0  WEATHER(CODE):12  24 HR MAX TEMP (F): 3824 HR MIN TEMP (F): 35AVERAGE STATION PRESSURE:28.575 MINIMUM SEA LEVEL PRESSURE:29.40 TIME OF OCCURRENCE:1315 PEAK WIND SPEED (MPH): 16 PEAK WIND DIR (DEG):110 PEAK WIND TIME (LST):      FASTEST 2MIN SPEED (MPH): 10FASTEST 2MIN DIR (DEG):100 FASTEST 2MIN TIME (LST):     AVERAGE WIND SPEED (MPH): 4.0 24 HR AVG TEMP (F): 37DEPART FROM NORMAL: 22  SKY COVER SR-SS (TENTHS): 1HEATING DEGREE DAYS: 28 COOLING DEGREE DAYS:  0 LATEST DAY MAX TEMP (0700-1900 LST):38  LATEST NIGHT MIN TEMP(1900-0800 LST):35 HOURLY INCREMENTAL PRECIPITATION VALUES (IN):.00 0.00 0.00 0.00 0.01 0.00 0.00 0.00 T    T    T    T    0.00 0.00 0.00 T    T    T    0.00 0.00 0.00 T    T    TEQDR01    127AXW090R02    127AXW090
0182726580149222017012206004+44883-093217FM-12+025599999V0203501N002619999999N000400199+00221+00171100121ADDAA106000021KA1240M+00281KA2240N+00171MA1999999096951MD1110101+9999MW1511REMSYN09872658 11104 /3505 10022 20017 39695 40012 51010 69901 751// 90553 333 10028 20017 96041 555 92206=
0273726580149222017012206017+44883-093229FM-16+0255KMSP V0203505N00265000615WN0008055N5+00225+00175999999ADDAA101000021AU110010015AU200002015AW1305AW2515GA1095+000615999GD15991+0006159GE19MSL   +99999+99999GF109991999999000611999999MA1100075097075REMMET12201/22/17 00:01:02 SPECI KMSP 220601Z 35005KT 1/2SM R30L/2400VP6000FT -DZ FG VV002 02/02 A2955 RMK AO2 P0000 T00220017 (AP)
0276726580149222017012206087+44883-093229FM-16+0255KMSP V0203505N00215000615MN0024145N5+00225+00175999999ADDAA101000021AU110010015AU200001015AW1105AW2515GA1085+000615999GD14991+0006159GE19MSL   +99999+99999GF199999999999000611999999MA1100075097075REMMET12501/22/17 00:08:02 SPECI KMSP 220608Z 35004KT 1 1/2SM R30L/5000VP6000FT -DZ BR OVC002 02/02 A2955 RMK AO2 P0000 T00220017 (AP)
0296726580149222017012206167+44883-093229FM-16+0255KMSP V0203505N00215000615MN0040235N5+00225+00175999999ADDAA101000021AU110010015AU200001015AW1105AW2515GA1075+000615999GA2085+003355999GD13991+0006159GD24991+0033559GE19MSL   +99999+99999GF199999999999000611999999MA1100035097045REMMET11401/22/17 00:16:02 SPECI KMSP 220616Z 35004KT 2 1/2SM -DZ BR BKN002 OVC011 02/02 A2954 RMK AO2 P0000 T00220017 (AP)
0254726580149222017012206337+44883-093229FM-16+0255KMSP V0203205N00215000915MN0048285N5+00225+00175999999ADDAA101000021AU110010015AU200001015AW1105AW2515GA1085+000915999GD14991+0009159GE19MSL   +99999+99999GF199999999999000911999999MA1100075097075REMMET10301/22/17 00:33:02 SPECI KMSP 220633Z 32004KT 3SM -DZ BR OVC003 02/02 A2955 RMK AO2 P0000 T00220017 (AP)
0246726580149222017012206537+44883-093229FM-15+0255KMSP V0203205N00265000915MN0048285N5+00225+00175100145ADDAA101000025AU100001015AW1105GA1085+000915999GD14991+0009159GE19MSL   +99999+99999GF199999999999000911999999MA1100075097075REMMET11201/22/17 00:53:02 METAR KMSP 220653Z 32005KT 3SM BR OVC003 02/02 A2955 RMK AO2 DZE43 SLP014 P0000 T00220017 (AP)
0272726580149222017012207537+44883-093229FM-15+0255KMSP V0203005N00265000915MN0048285N5+00175+00115100195ADDAA101000095AU100001015AW1105GA1075+000915999GA2085+002135999GD13991+0009159GD24991+0021359GE19MSL   +99999+99999GF199999999999000911999999MA1100105097105REMMET10701/22/17 01:53:02 METAR KMSP 220753Z 30005KT 3SM BR BKN003 OVC007 02/01 A2956 RMK AO2 SLP019 T00170011 (AP)
0271726580149222017012208537+44883-093229FM-15+0255KMSP V0203405N00215000915MN0096565N5+00175+00115100245ADDAA101000095AA203000021AU100001015AW1105GA1085+000915999GD14991+0009159GE19MSL   +99999+99999GF199999999999000911999999MA1100175097175MD1390129+9999REMMET11201/22/17 02:53:02 METAR KMSP 220853Z 34004KT 6SM BR OVC003 02/01 A2958 RMK AO2 SLP024 60000 T00170011 53012 (AP)
0234726580149222017012209537+44883-093229FM-15+0255KMSP V0203205N00155000915MN0096565N5+00175+00115100285ADDAA101000095AU100001015AW1105GA1085+000915999GD14991+0009159GE19MSL   +99999+99999GF199999999999000911999999MA1100205097205REMMET10001/22/17 03:53:02 METAR KMSP 220953Z 32003KT 6SM BR OVC003 02/01 A2959 RMK AO2 SLP028 T00170011 (AP)
0234726580149222017012210537+44883-093229FM-15+0255KMSP V0203205N00265000915MN0064375N5+00175+00065100345ADDAA101000095AU100001015AW1105GA1085+000915999GD14991+0009159GE19MSL   +99999+99999GF199999999999000911999999MA1100275097275REMMET10001/22/17 04:53:02 METAR KMSP 221053Z 32005KT 4SM BR OVC003 02/01 A2961 RMK AO2 SLP034 T00170006 (AP)
0309726580149222017012211537+44883-093229FM-15+0255KMSP V0203305N00365001225MN0096565N5+00175+00065100395ADDAA101000095AA206000021AU100001015AW1105GA1085+001225999GD14991+0012259GE19MSL   +99999+99999GF199999999999001221999999KA1060M+00221KA2060N+00171MA1100345097335MD1390159+9999REMMET12401/22/17 05:53:02 METAR KMSP 221153Z 33007KT 6SM BR OVC004 02/01 A2963 RMK AO2 SLP039 60000 T00170006 10022 20017 53015 (AP)
0240726580149222017012212004+44883-093217FM-12+025599999V0203301N003619999999N009000199+00171+00061100391ADDAA106000021GA1999+001501999GE19MSL   +99999+99999GF108991999999001501999999KA1240M+00331KA2240N+00171MA1999999097221MD1310151+9999MW1101REMSYN09272658 11259 83307 10017 20006 39722 40039 53015 69901 710// 91153 333 10033 20017 555 92212=
0196726580149222017012212257+44883-093229FM-16+0255KMSP V0203505N00315001525MN0144845N5+00175+00065999999ADDGA1085+001525999GD14991+0015259GE19MSL   +99999+99999GF199999999999001521999999MA1100345097335REMMET09001/22/17 06:25:02 SPECI KMSP 221225Z 35006KT 9SM OVC005 02/01 A2963 RMK AO2 T00170006 (AP)
0196726580149222017012212407+44883-093229FM-16+0255KMSP V0203505N00415001225MN0128755N5+00175+00065999999ADDGA1085+001225999GD14991+0012259GE19MSL   +99999+99999GF199999999999001221999999MA1100345097335REMMET09001/22/17 06:40:02 SPECI KMSP 221240Z 35008KT 8SM OVC004 02/01 A2963 RMK AO2 T00170006 (AP)
0214726580149222017012212537+44883-093229FM-15+0255KMSP V0203505N00315001225MN0128755N5+00175+00065100445ADDAA101000095GA1085+001225999GD14991+0012259GE19MSL   +99999+99999GF199999999999001221999999MA1100375097375REMMET09701/22/17 06:53:02 METAR KMSP 221253Z 35006KT 8SM OVC004 02/01 A2964 RMK AO2 SLP044 T00170006 (AP)
0214726580149222017012213537+44883-093229FM-15+0255KMSP V0203505N00265001225MN0128755N5+00175+00065100515ADDAA101000095GA1085+001225999GD14991+0012259GE19MSL   +99999+99999GF199999999999001221999999MA1100445097435REMMET09701/22/17 07:53:02 METAR KMSP 221353Z 35005KT 8SM OVC004 02/01 A2966 RMK AO2 SLP051 T00170006 (NK)
0216726580149222017012214467+44883-093229FM-16+0255KMSP V0203005N00155001525MN0096565N5+00175+00115999999ADDAU100001015AW1105GA1085+001525999GD14991+0015259GE19MSL   +99999+99999GF199999999999001521999999MA1100545097535REMMET09301/22/17 08:46:02 SPECI KMSP 221446Z 30003KT 6SM BR OVC005 02/01 A2969 RMK AO2 T00170011 (NK)
0254726580149222017012214537+44883-093229FM-15+0255KMSP V0203205N00215001525MN0096565N5+00175+00065100615ADDAA101000095AU100001015AW1105GA1085+001525999GD14991+0015259GE19MSL   +99999+99999GF199999999999001521999999MA1100545097535MD1390219+9999REMMET10601/22/17 08:53:02 METAR KMSP 221453Z 32004KT 6SM BR OVC005 02/01 A2969 RMK AO2 SLP061 T00170006 53021 (NK)
0214726580149222017012215537+44883-093229FM-15+0255KMSP V0203205N00265002135MN0112655N5+00285+00115100675ADDAA101000095GA1085+002135999GD14991+0021359GE19MSL   +99999+99999GF199999999999002131999999MA1100615097605REMMET09701/22/17 09:53:02 METAR KMSP 221553Z 32005KT 7SM OVC007 03/01 A2971 RMK AO2 SLP067 T00280011 (NK)
0182726580149222017012216516+44883-093229FM-16+0255KMSP V0203305N00215006105MN0160935N5+00305+00105999999ADDGA1045+002445999GA2085+006105999GD12991+0024459GD24991+0061059MA1100645097635REMMET09301/22/17 10:51:02 SPECI KMSP 221651Z 33004KT 10SM SCT008 OVC020 03/01 A2972 RMK AO2 FIBI (NK)
0253726580149222017012216537+44883-093229FM-15+0255KMSP V0203405N00215006105MN0160935N5+00335+00115100725ADDAA101000095GA1045+002445999GA2085+006105999GD12991+0024459GD24991+0061059GE19MSL   +99999+99999GF199999999999002441999999MA1100645097635REMMET10501/22/17 10:53:02 METAR KMSP 221653Z 34004KT 10SM SCT008 OVC020 03/01 A2972 RMK AO2 SLP072 T00330011 (NK)
0310726580149222017012217537+44883-093229FM-15+0255KMSP V0203205N00315006105MN0144845N5+00395+00115100695ADDAA101000095GA1045+003355999GA2085+006105999GD12991+0033559GD24991+0061059GE19MSL   +99999+99999GF199999999999003351999999KA1060M+00391KA2060N+00171MA1100645097635MD1090099+9999REMMET12201/22/17 11:53:02 METAR KMSP 221753Z 32006KT 9SM SCT011 OVC020 04/01 A2972 RMK AO2 SLP069 T00390011 10039 20017 50009 (NK)
0211726580149222017012218004+44883-093217FM-12+025599999V0203201N003119999999N014000199+00391+00111100691ADDGA1999+004501999GE19MSL   +99999+99999GF108991999999004501999999KA1120M+00391KA2120N+00171MA1999999097511MD1990091+9999REMSYN08072658 32464 83206 10039 20011 39751 40069 50009 91753 333 10039 20017 555 92218=
0234726580149222017012218017+44883-093229FM-16+0255KMSP V0203105N00315003965MN0144845N5+00395+00115999999ADDGA1075+003965999GA2085+006105999GD13991+0039659GD24991+0061059GE19MSL   +99999+99999GF199999999999003961999999MA1100615097605REMMET09701/22/17 12:01:02 SPECI KMSP 221801Z 31006KT 9SM BKN013 OVC020 04/01 A2971 RMK AO2 T00390011 (NK)
0215726580149222017012218537+44883-093229FM-15+0255KMSP V0202905N00365003665MN0160935N5+00395+00175100675ADDAA101000095GA1085+003665999GD14991+0036659GE19MSL   +99999+99999GF199999999999003661999999MA1100615097605REMMET09801/22/17 12:53:02 METAR KMSP 221853Z 29007KT 10SM OVC012 04/02 A2971 RMK AO2 SLP067 T00390017 (NK)
0215726580149222017012219537+44883-093229FM-15+0255KMSP V0203105N00365003665MN0160935N5+00395+00115100685ADDAA101000095GA1085+003665999GD14991+0036659GE19MSL   +99999+99999GF199999999999003661999999MA1100615097605REMMET09801/22/17 13:53:02 METAR KMSP 221953Z 31007KT 10SM OVC012 04/01 A2971 RMK AO2 SLP068 T00390011 (NK)
0235726580149222017012220387+44883-093229FM-16+0255KMSP V0203105N00315008235MN0160935N5+00445+00175999999ADDGA1045+004575999GA2085+008235999GD12991+0045759GD24991+0082359GE19MSL   +99999+99999GF199999999999004571999999MA1100645097635REMMET09801/22/17 14:38:02 SPECI KMSP 222038Z 31006KT 10SM SCT015 OVC027 04/02 A2972 RMK AO2 T00440017 (NK)
0311726580149222017012220537+44883-093229FM-15+0255KMSP V0203005N00315004275MN0160935N5+00445+00175100705ADDAA101000095GA1075+004275999GA2075+005795999GA3085+008235999GD13991+0042759GD23991+0057959GD34991+0082359GE19MSL   +99999+99999GF199999999999004271999999MA1100645097635MD1390019+9999REMMET11801/22/17 14:53:02 METAR KMSP 222053Z 30006KT 10SM BKN014 BKN019 OVC027 04/02 A2972 RMK AO2 SLP070 T00440017 53001 (NK)
0274726580149222017012221037+44883-093229FM-16+0255KMSP V0203005N00365005795MN0160935N5+00445+00175999999ADDGA1045+003965999GA2075+005795999GA3085+008235999GD12991+0039659GD23991+0057959GD34991+0082359GE19MSL   +99999+99999GF199999999999003961999999MA1100645097635REMMET10601/22/17 15:03:02 SPECI KMSP 222103Z 30007KT 10SM SCT013 BKN019 OVC027 04/02 A2972 RMK AO2 T00440017 (JDB)
0236726580149222017012221387+44883-093229FM-16+0255KMSP V0203105N00265004275MN0160935N5+00445+00175999999ADDGA1075+004275999GA2085+007325999GD13991+0042759GD24991+0073259GE19MSL   +99999+99999GF199999999999004271999999MA1100645097635REMMET09901/22/17 15:38:02 SPECI KMSP 222138Z 31005KT 10SM BKN014 OVC024 04/02 A2972 RMK AO2 T00440017 (JDB)
0216726580149222017012221537+44883-093229FM-15+0255KMSP V0202905N00265004275MN0160935N5+00445+00175100725ADDAA101000095GA1085+004275999GD14991+0042759GE19MSL   +99999+99999GF199999999999004271999999MA1100685097675REMMET09901/22/17 15:53:02 METAR KMSP 222153Z 29005KT 10SM OVC014 04/02 A2973 RMK AO2 SLP072 T00440017 (JDB)
0216726580149222017012222537+44883-093229FM-15+0255KMSP V0203105N00315003965MN0160935N5+00395+00115100785ADDAA101000095GA1085+003965999GD14991+0039659GE19MSL   +99999+99999GF199999999999003961999999MA1100715097705REMMET09901/22/17 16:53:02 METAR KMSP 222253Z 31006KT 10SM OVC013 04/01 A2974 RMK AO2 SLP078 T00390011 (JDB)
0188726580149222017012223517+44883-093229FM-16+0255KMSP V0202705N00365002745MN0160935N5+00305+00105999999ADDGA1085+002745999GD14991+0027459GE19MSL   +99999+99999GF199999999999002741999999MA1100785097765REMMET08201/22/17 17:51:02 SPECI KMSP 222351Z 27007KT 10SM OVC009 03/01 A2976 RMK AO2 (JDB)
0274726580149222017012223537+44883-093229FM-15+0255KMSP V0202705N00365002745MN0160935N5+00335+00115100845ADDAA101000095GA1085+002745999GD14991+0027459GE19MSL   +99999+99999GF199999999999002741999999KA1060M+00441KA2060N+00331MA1100785097765MD1190109+9999REMMET11701/22/17 17:53:02 METAR KMSP 222353Z 27007KT 10SM OVC009 03/01 A2976 RMK AO2 SLP084 T00330011 10044 20033 51010 (JDB)
0211726580149222017012300004+44883-093217FM-12+025599999V0202701N003619999999N016000199+00331+00111100841ADDGA1999+002501999GE19MSL   +99999+99999GF108991999999002501999999KA1120M+00441KA2120N+00171MA1999999097651MD1110101+9999REMSYN08072658 32366 82707 10033 20011 39765 40084 51010 92353 333 10044 20017 555 92300=
0244726580149222017012300537+44883-093229FM-15+0255KMSP V0202905N00265002135MN0096565N5+00285+00115100855ADDAA101000025AU100001015AW1105GA1085+002135999GD14991+0021359GE19MSL   +99999+99999GF199999999999002131999999MA1100785097765REMMET11001/22/17 18:53:01 METAR KMSP 230053Z 29005KT 6SM BR OVC007 03/01 A2976 RMK AO2 DZB07E47 SLP085 P0000 T00280011
0209726580149222017012301537+44883-093229FM-15+0255KMSP V0202905N00265001835MN0144845N5+00285+00115100895ADDAA101000095GA1085+001835999GD14991+0018359GE19MSL   +99999+99999GF199999999999001831999999MA1100815097805REMMET09201/22/17 19:53:01 METAR KMSP 230153Z 29005KT 9SM OVC006 03/01 A2977 RMK AO2 SLP089 T00280011
0285726580149222017012302537+44883-093229FM-15+0255KMSP V0202905N00265002445MN0160935N5+00225+00065100925ADDAA101000095AA203000021GA1075+002445999GA2085+004575999GD13991+0024459GD24991+0045759GE19MSL   +99999+99999GF199999999999002441999999MA1100855097835MD1390079+9999REMMET11201/22/17 20:53:02 METAR KMSP 230253Z 29005KT 10SM BKN008 OVC015 02/01 A2978 RMK AO2 SLP092 60000 T00220006 53007
0255726580149222017012303367+44883-093229FM-16+0255KMSP V0202705N00265002135MN0080475N5+00225+00065999999ADDAA101000021AU110010015AU200001015AW1105AW2515GA1085+002135999GD14991+0021359GE19MSL   +99999+99999GF199999999999002131999999MA1100885097865REMMET10401/22/17 21:36:02 SPECI KMSP 230336Z 27005KT 5SM -DZ BR OVC007 02/01 A2979 RMK AO2 DZB35 P0000 T00220006
0211726580149222017012303516+44883-093229FM-16+0255KMSP V0202705N00465001525MN0040235N5+00205+00105999999ADDAU110010015AU200001015AW1105AW2515GA1085+001525999GD14991+0015259MA1100885097865REMMET11901/22/17 21:51:03 SPECI KMSP 230351Z 27009KT 2 1/2SM -DZ BR OVC005 02/01 A2979 RMK AO2 SFC VIS 3 DZB35 P0000 FIBI (JDB)
0276726580149222017012303537+44883-093229FM-15+0255KMSP V0202705N00465001525MN0040235N5+00175+00005100955ADDAA101000025AU110010015AU200001015AW1105AW2515GA1085+001525999GD14991+0015259GE19MSL   +99999+99999GF199999999999001521999999MA1100885097865REMMET12501/22/17 21:53:02 METAR KMSP 230353Z 27009KT 2 1/2SM -DZ BR OVC005 02/00 A2979 RMK AO2 SFC VIS 4 DZB35 SLP095 P0000 T00170000
0236726580149222017012304067+44883-093229FM-16+0255KMSP V0202705N00415001525MN0080475N5+00175+00005999999ADDAA101000021AU100001015AW1105GA1085+001525999GD14991+0015259GE19MSL   +99999+99999GF199999999999001521999999MA1100885097865REMMET10201/22/17 22:06:02 SPECI KMSP 230406Z 27008KT 5SM BR OVC005 02/00 A2979 RMK AO2 DZE0359 P0000 T00170000
0267726580149222017012304537+44883-093229FM-15+0255KMSP V0202805N00415001525MN0064375N5+00115+00005100965ADDAA101000025AU110010015AU200001015AW1105AW2515GA1085+001525999GD14991+0015259GE19MSL   +99999+99999GF199999999999001521999999MA1100885097865REMMET11601/22/17 22:53:02 METAR KMSP 230453Z 28008KT 4SM -DZ BR OVC005 01/00 A2979 RMK AO2 DZE0359B28 SLP096 P0000 T00110000
0387726580149222017012305537+44883-093229FM-15+0255KMSP V0202805N00265001525MN0064375N5+00115-00065100945ADDAA101000025AA206000021AU110010015AU200001015AW1105AW2515GA1085+001525999GD14991+0015259GE19MSL   +99999+99999GF199999999999001521999999KA1060M+00331KA2060N+00111KA3240M+00441KA4240N+00111MA1100855097835MD1090029+9999REMMET14001/22/17 23:53:02 METAR KMSP 230553Z 28005KT 4SM -DZ BR OVC005 01/M01 A2978 RMK AO2 SLP094 P0000 60000 T00111006 10033 20011 400440011 50002EQDQ01  00008PRCP06
1030726580149222017012305596+44883-093229SOD  +0255KMSP V020999999999999999999999999999+99999+99999999999ADDAA124000025AJ100003599999999AL12400095AN1024000095AT1AU14DZ  5AT2AU01FG  5AT3AU13BR  5AX1016246AX2026246KA1240M+00445KA2240N+00115MG1097614100104OE11240084902099995OE22240053627099995OE33240028699999995REMSOD78124 HR PRECIPITATION (IN):    T SNOW DEPTH (IN):T     24 HR SNOWFALL (IN):0.0  WEATHER(CODE):12  24 HR MAX TEMP (F): 4024 HR MIN TEMP (F): 34AVERAGE STATION PRESSURE:28.825 MINIMUM SEA LEVEL PRESSURE:29.56 TIME OF OCCURRENCE:0019 PEAK WIND SPEED (MPH): 19 PEAK WIND DIR (DEG): 20 PEAK WIND TIME (LST):      FASTEST 2MIN SPEED (MPH): 12FASTEST 2MIN DIR (DEG):270 FASTEST 2MIN TIME (LST):     AVERAGE WIND SPEED (MPH): 6.4 24 HR AVG TEMP (F): 37DEPART FROM NORMAL: 22  SKY COVER SR-SS (TENTHS): 1HEATING DEGREE DAYS: 28 COOLING DEGREE DAYS:  0 LATEST DAY MAX TEMP (0700-1900 LST):40  LATEST NIGHT MIN TEMP(1900-0800 LST):35 HOURLY INCREMENTAL PRECIPITATION VALUES (IN):    0.00 0.00 0.00 0.00 0.00 0.00 0.00 0.00 0.00 0.00 0.00 0.00 0.00 0.00 0.00 0.00 0.00 T    0.00 0.00 T    T    TEQDR01    127AXW090R02    127AXW090
0246726580149222017012306004+44883-093217FM-12+025599999V0202801N002619999999N006000199+00111-00061100941ADDAA106000021GA1999+001501999GE19MSL   +99999+99999GF108991999999001501999999KA1240M+00331KA2240N+00111MA1999999097711MD1990021+9999MW1511REMSYN09872658 11256 82805 10011 21006 39771 40094 50002 69901 751// 90553 333 10033 20011 96010 555 92306=
0261726580149222017012306537+44883-093229FM-15+0255KMSP V0202605N00215001525MN0064375N5+00115+00005100955ADDAA101000025AU110010015AU200001015AW1105AW2515GA1085+001525999GD14991+0015259GE19MSL   +99999+99999GF199999999999001521999999MA1100885097865REMMET11001/23/17 00:53:02 METAR KMSP 230653Z 26004KT 4SM -DZ BR OVC005 01/00 A2979 RMK AO2 SLP095 P0000 T00110000 (AP)
0261726580149222017012307537+44883-093229FM-15+0255KMSP V0202705N00155001525MN0080475N5+00115+00005101015ADDAA101000025AU110010015AU200001015AW1105AW2515GA1085+001525999GD14991+0015259GE19MSL   +99999+99999GF199999999999001521999999MA1100955097935REMMET11001/23/17 01:53:02 METAR KMSP 230753Z 27003KT 5SM -DZ BR OVC005 01/00 A2981 RMK AO2 SLP101 P0000 T00110000 (AP)
0248726580149222017012308477+44883-093229FM-16+0255KMSP V0202705N00265001225MN0040235N5+00105+00005999999ADDAA101000021AU110010015AU200001015AW1105AW2515GA1085+001225999GD14991+0012259GE19MSL   +99999+99999GF199999999999001221999999MA1100985097965REMMET09701/23/17 02:47:02 SPECI KMSP 230847Z 27005KT 2 1/2SM -DZ BR OVC004 01/00 A2982 RMK AO2 P0000 (AP)
0322726580149222017012308537+44883-093229FM-15+0255KMSP V0202705N00265001225MN0040235N5+00115-00065101055ADDAA101000025AA203000021AU110010015AU200001015AW1105AW2515GA1085+001225999GD14991+0012259GE19MSL   +99999+99999GF199999999999001221999999MA1100985097965MD1390119+9999REMMET12701/23/17 02:53:02 METAR KMSP 230853Z 27005KT 2 1/2SM -DZ BR OVC004 01/M01 A2982 RMK AO2 SLP105 P0000 60000 T00111006 53011 (AP)EQDQ01  00008PRCP03
0261726580149222017012309537+44883-093229FM-15+0255KMSP V0202605N00155000915MN0032195N5+00065+00005101035ADDAA101000025AU110010015AU200001015AW1105AW2515GA1085+000915999GD14991+0009159GE19MSL   +99999+99999GF199999999999000911999999MA1100955097935REMMET11001/23/17 03:53:02 METAR KMSP 230953Z 26003KT 2SM -DZ BR OVC003 01/00 A2981 RMK AO2 SLP103 P0000 T00060000 (AP)
0265726580149222017012310537+44883-093229FM-15+0255KMSP V0202705N00155001225MN0040235N5+00115+00005101025ADDAA101000025AU110010015AU200001015AW1105AW2515GA1085+001225999GD14991+0012259GE19MSL   +99999+99999GF199999999999001221999999MA1100955097935REMMET11401/23/17 04:53:02 METAR KMSP 231053Z 27003KT 2 1/2SM -DZ BR OVC004 01/00 A2981 RMK AO2 SLP102 P0000 T00110000 (AP)
0254726580149222017012311337+44883-093229FM-16+0255KMSP V0202805N00265001525MN0032195N5+00115+00005999999ADDAA101000021AU110010015AU200001015AW1105AW2515GA1085+001525999GD14991+0015259GE19MSL   +99999+99999GF199999999999001521999999MA1100955097935REMMET10301/23/17 05:33:02 SPECI KMSP 231133Z 28005KT 2SM -DZ BR OVC005 01/00 A2981 RMK AO2 P0000 T00110000 (AP)
0249726580149222017012311497+44883-093229FM-16+0255KMSP V0202805N00265001225MN0040235N5+00105-00105999999ADDAA101000021AU110010015AU200001015AW1105AW2515GA1085+001225999GD14991+0012259GE19MSL   +99999+99999GF199999999999001221999999MA1100955097935REMMET09801/23/17 05:49:02 SPECI KMSP 231149Z 28005KT 2 1/2SM -DZ BR OVC004 01/M01 A2981 RMK AO2 P0000 (AP)
0360726580149222017012311537+44883-093229FM-15+0255KMSP V0202805N00265001525MN0040235N5+00065-00065101015ADDAA101000025AA206000021AU110010015AU200001015AW1105AW2515GA1085+001525999GD14991+0015259GE19MSL   +99999+99999GF199999999999001521999999KA1060M+00111KA2060N+00061MA1100955097935MD1590029+9999REMMET13901/23/17 05:53:02 METAR KMSP 231153Z 28005KT 2 1/2SM -DZ BR OVC005 01/M01 A2981 RMK AO2 SLP101 P0000 60000 T00061006 10011 20006 55002 (AP)EQDQ01  00008PRCP06
0246726580149222017012312004+44883-093217FM-12+025599999V0202801N002619999999N004000199+00061-00061101011ADDAA106000021GA1999+001501999GE19MSL   +99999+99999GF108991999999001501999999KA1240M+00441KA2240N+00061MA1999999097811MD1510021+9999MW1511REMSYN09872658 11240 82805 10006 21006 39781 40101 55002 69901 751// 91153 333 10044 20006 96010 555 92312=
0255726580149222017012312147+44883-093229FM-16+0255KMSP V0202705N00265001225MN0048285N5+00115-00065999999ADDAA101000021AU110010015AU200001015AW1105AW2515GA1085+001225999GD14991+0012259GE19MSL   +99999+99999GF199999999999001221999999MA1100955097935REMMET10401/23/17 06:14:02 SPECI KMSP 231214Z 27005KT 3SM -DZ BR OVC004 01/M01 A2981 RMK AO2 P0000 T00111006 (AP)
0259726580149222017012312347+44883-093229FM-16+0255KMSP V0202805N00265001225MN0040235N5+00065-00065999999ADDAA101000021AU110010015AU200001015AW1105AW2515GA1085+001225999GD14991+0012259GE19MSL   +99999+99999GF199999999999001221999999MA1100955097935REMMET10801/23/17 06:34:02 SPECI KMSP 231234Z 28005KT 2 1/2SM -DZ BR OVC004 01/M01 A2981 RMK AO2 P0000 T00061006 (AP)
0255726580149222017012312447+44883-093229FM-16+0255KMSP V0202805N00215001835MN0048285N5+00065-00065999999ADDAA101000021AU110010015AU200001015AW1105AW2515GA1085+001835999GD14991+0018359GE19MSL   +99999+99999GF199999999999001831999999MA1100915097905REMMET10401/23/17 06:44:02 SPECI KMSP 231244Z 28004KT 3SM -DZ BR OVC006 01/M01 A2980 RMK AO2 P0000 T00061006 (AP)
0262726580149222017012312537+44883-093229FM-15+0255KMSP V0202805N00215001835MN0048285N5+00115-00065101005ADDAA101000025AU110010015AU200001015AW1105AW2515GA1085+001835999GD14991+0018359GE19MSL   +99999+99999GF199999999999001831999999MA1100915097905REMMET11101/23/17 06:53:02 METAR KMSP 231253Z 28004KT 3SM -DZ BR OVC006 01/M01 A2980 RMK AO2 SLP100 P0000 T00111006 (AP)
0284726580149222017012313537+44883-093229FM-15+0255KMSP V0202805N00315002135MN0032195N5+00065-00065101055ADDAA101000025AU110030015AU200001015AW1105AW2715GA1085+002135999GD14991+0021359GE19MSL   +99999+99999GF199999999999002131999999MA1100955097935REMMET13301/23/17 07:53:02 METAR KMSP 231353Z 28006KT 2SM -SN BR OVC007 01/M01 A2981 RMK AO2 SFC VIS 3 DZE53SNB53 SLP105 P0000 T00061006 (CLB)
0270726580149222017012314057+44883-093229FM-16+0255KMSP V0203105N00215002445MN0032195N5+00065-00065999999ADDAA101000021AU110030015AU200001015AW1105AW2715GA1085+002445999GD14991+0024459GE19MSL   +99999+99999GF199999999999002441999999MA1100955097935REMMET11901/23/17 08:05:02 SPECI KMSP 231405Z 31004KT 2SM -SN BR OVC008 01/M01 A2981 RMK AO2 SFC VIS 2 1/2 P0000 T00061006 (CLB)
0241726580149222017012314457+44883-093229FM-16+0255KMSP V0203205N00215002445MN0064375N5+00115-00065999999ADDAA101000021AU100001015AW1105GA1085+002445999GD14991+0024459GE19MSL   +99999+99999GF199999999999002441999999MA1100955097935REMMET10701/23/17 08:45:02 SPECI KMSP 231445Z 32004KT 4SM BR OVC008 01/M01 A2981 RMK AO2 SNE31 P0000 T00111006 (CLB)
0303726580149222017012314537+44883-093229FM-15+0255KMSP V0209999C00005002445MN0064375N5+00115+00005101025ADDAA101000025AA203000021AU100001015AW1105GA1085+002445999GD14991+0024459GE19MSL   +99999+99999GF199999999999002441999999MA1100955097935MD1890009+9999REMMET12501/23/17 08:53:02 METAR KMSP 231453Z 00000KT 4SM BR OVC008 01/00 A2981 RMK AO2 SNE31 SLP102 P0000 60000 T00110000 58000 (CLB)EQDQ01  00008PRCP03
0216726580149222017012315537+44883-093229FM-15+0255KMSP V0209999C00005002745MN0112655N5+00175-00065101045ADDAA101000095GA1085+002745999GD14991+0027459GE19MSL   +99999+99999GF199999999999002741999999MA1100955097935REMMET09901/23/17 09:53:02 METAR KMSP 231553Z 00000KT 7SM OVC009 02/M01 A2981 RMK AO2 SLP104 T00171006 (CLB)
0236726580149222017012316437+44883-093229FM-16+0255KMSP V0202205N00155004885MN0128755N5+00115-00115999999ADDGA1045+002445999GA2085+004885999GD12991+0024459GD24991+0048859GE19MSL   +99999+99999GF199999999999002441999999MA1101055098035REMMET09901/23/17 10:43:02 SPECI KMSP 231643Z 22003KT 8SM SCT008 OVC016 01/M01 A2984 RMK AO2 T00111011 (CLB)
0236726580149222017012316467+44883-093229FM-16+0255KMSP V0202405N00155002445MN0128755N5+00175-00115999999ADDGA1075+002445999GA2085+004885999GD13991+0024459GD24991+0048859GE19MSL   +99999+99999GF199999999999002441999999MA1101055098035REMMET09901/23/17 10:46:02 SPECI KMSP 231646Z 24003KT 8SM BKN008 OVC016 02/M01 A2984 RMK AO2 T00171011 (CLB)
0183726580149222017012316516+44883-093229FM-16+0255KMSP V0202405N00215004275MN0128755N5+00105-00105999999ADDGA1025+001525999GA2085+004275999GD11991+0015259GD24991+0042759MA1101055098035REMMET09401/23/17 10:51:02 SPECI KMSP 231651Z 24004KT 8SM FEW005 OVC014 01/M01 A2984 RMK AO2 FIBI (CLB)
0254726580149222017012316537+44883-093229FM-15+0255KMSP V0202405N00265004275MN0128755N5+00115-00115101155ADDAA101000095GA1045+002445999GA2085+004275999GD12991+0024459GD24991+0042759GE19MSL   +99999+99999GF199999999999002441999999MA1101055098035REMMET10601/23/17 10:53:02 METAR KMSP 231653Z 24005KT 8SM SCT008 OVC014 01/M01 A2984 RMK AO2 SLP115 T00111011 (CLB)
0236726580149222017012317217+44883-093229FM-16+0255KMSP V0202405N00315005185MN0128755N5+00115-00115999999ADDGA1025+002745999GA2085+005185999GD11991+0027459GD24991+0051859GE19MSL   +99999+99999GF199999999999002741999999MA1101055098035REMMET09901/23/17 11:21:02 SPECI KMSP 231721Z 24006KT 8SM FEW009 OVC017 01/M01 A2984 RMK AO2 T00111011 (CLB)
0329726580149222017012317537+44883-093229FM-15+0255KMSP V0202505N00365006405MN0128755N5+00115-00175101115ADDAA101000095AA206000021GA1025+003965999GA2085+006405999GD11991+0039659GD24991+0064059GE19MSL   +99999+99999GF199999999999003961999999KA1060M+00171KA2060N+00061MA1101025098005MD1090089+9999REMMET13001/23/17 11:53:02 METAR KMSP 231753Z 25007KT 8SM FEW013 OVC021 01/M02 A2983 RMK AO2 SLP111 60000 T00111017 10017 20006 50008 (CLB)
0228726580149222017012318004+44883-093217FM-12+025599999V0202501N003619999999N012000199+00111-00171101111ADDAA106000021GA1999+004501999GE19MSL   +99999+99999GF108991999999004501999999KA1120M+00171KA2120N+00061MA1999999097881MD1990081+9999REMSYN08672658 12462 82507 10011 21017 39788 40111 50008 69901 91753 333 10017 20006 555 92318=
0198726580149222017012318347+44883-093229FM-16+0255KMSP V0202405N00365003965MN0144845N5+00115-00175999999ADDGA1085+003965999GD14991+0039659GE19MSL   +99999+99999GF199999999999003961999999MA1101025098005REMMET09201/23/17 12:34:02 SPECI KMSP 231834Z 24007KT 9SM OVC013 01/M02 A2983 RMK AO2 T00111017 (CLB)
0216726580149222017012318537+44883-093229FM-15+0255KMSP V0202505N00415003965MN0128755N5+00115-00225101115ADDAA101000095GA1085+003965999GD14991+0039659GE19MSL   +99999+99999GF199999999999003961999999MA1101025098005REMMET09901/23/17 12:53:02 METAR KMSP 231853Z 25008KT 8SM OVC013 01/M02 A2983 RMK AO2 SLP111 T00111022 (CLB)
0198726580149222017012319037+44883-093229FM-16+0255KMSP V0202505N00365004575MN0144845N5+00115-00225999999ADDGA1085+004575999GD14991+0045759GE19MSL   +99999+99999GF199999999999004571999999MA1101025098005REMMET09201/23/17 13:03:02 SPECI KMSP 231903Z 25007KT 9SM OVC015 01/M02 A2983 RMK AO2 T00111022 (CLB)
0216726580149222017012319537+44883-093229FM-15+0255KMSP V0202805N00155004575MN0144845N5+00115-00225101055ADDAA101000095GA1085+004575999GD14991+0045759GE19MSL   +99999+99999GF199999999999004571999999MA1100985097965REMMET09901/23/17 13:53:02 METAR KMSP 231953Z 28003KT 9SM OVC015 01/M02 A2982 RMK AO2 SLP105 T00111022 (CLB)
0199726580149222017012320407+44883-093229FM-16+0255KMSP V0203305N00155005495MN0160935N5+00115-00225999999ADDGA1085+005495999GD14991+0054959GE19MSL   +99999+99999GF199999999999005491999999MA1100955097935REMMET09301/23/17 14:40:02 SPECI KMSP 232040Z 33003KT 10SM OVC018 01/M02 A2981 RMK AO2 T00111022 (CLB)
0237726580149222017012320537+44883-093229FM-15+0255KMSP V0209999C00005005495MN0160935N5+00175-00225101035ADDAA101000095GA1085+005495999GD14991+0054959GE19MSL   +99999+99999GF199999999999005491999999MA1100955097935MD1890079+9999REMMET10601/23/17 14:53:02 METAR KMSP 232053Z 00000KT 10SM OVC018 02/M02 A2981 RMK AO2 SLP103 T00171022 58007 (CLB)
0199726580149222017012321347+44883-093229FM-16+0255KMSP V0209999V00155005185MN0160935N5+00115-00285999999ADDGA1085+005185999GD14991+0051859GE19MSL   +99999+99999GF199999999999005181999999MA1100985097965REMMET09301/23/17 15:34:02 SPECI KMSP 232134Z VRB03KT 10SM OVC017 01/M03 A2982 RMK AO2 T00111028 (JDB)
0217726580149222017012321537+44883-093229FM-15+0255KMSP V0209999C00005005185MN0160935N5+00175-00285101085ADDAA101000095GA1085+005185999GD14991+0051859GE19MSL   +99999+99999GF199999999999005181999999MA1100985097965REMMET10001/23/17 15:53:02 METAR KMSP 232153Z 00000KT 10SM OVC017 02/M03 A2982 RMK AO2 SLP108 T00171028 (JDB)
0199726580149222017012322247+44883-093229FM-16+0255KMSP V0209999C00005005185MN0160935N5+00115-00225999999ADDGA1085+005185999GD14991+0051859GE19MSL   +99999+99999GF199999999999005181999999MA1100985097965REMMET09301/23/17 16:24:02 SPECI KMSP 232224Z 00000KT 10SM OVC017 01/M02 A2982 RMK AO2 T00111022 (JDB)
0217726580149222017012322537+44883-093229FM-15+0255KMSP V0202605N00215005495MN0160935N5+00115-00225101095ADDAA101000095GA1085+005495999GD14991+0054959GE19MSL   +99999+99999GF199999999999005491999999MA1101025098005REMMET10001/23/17 16:53:02 METAR KMSP 232253Z 26004KT 10SM OVC018 01/M02 A2983 RMK AO2 SLP109 T00111022 (JDB)
0199726580149222017012323277+44883-093229FM-16+0255KMSP V0202905N00155004885MN0160935N5+00115-00225999999ADDGA1085+004885999GD14991+0048859GE19MSL   +99999+99999GF199999999999004881999999MA1101025098005REMMET09301/23/17 17:27:02 SPECI KMSP 232327Z 29003KT 10SM OVC016 01/M02 A2983 RMK AO2 T00111022 (JDB)
0275726580149222017012323537+44883-093229FM-15+0255KMSP V0203105N00215004575MN0160935N5+00115-00175101125ADDAA101000095GA1085+004575999GD14991+0045759GE19MSL   +99999+99999GF199999999999004571999999KA1060M+00171KA2060N+00111MA1101055098035MD1190089+9999REMMET11801/23/17 17:53:02 METAR KMSP 232353Z 31004KT 10SM OVC015 01/M02 A2984 RMK AO2 SLP112 T00111017 10017 20011 51008 (JDB)
0211726580149222017012400004+44883-093217FM-12+025599999V0203101N002119999999N016000199+00111-00171101121ADDGA1999+004501999GE19MSL   +99999+99999GF108991999999004501999999KA1120M+00171KA2120N+00061MA1999999097911MD1110081+9999REMSYN08072658 32466 83104 10011 21017 39791 40112 51008 92353 333 10017 20006 555 92400=
0193726580149222017012400327+44883-093229FM-16+0255KMSP V0203005N00365003965MN0160935N5+00065-00175999999ADDGA1085+003965999GD14991+0039659GE19MSL   +99999+99999GF199999999999003961999999MA1101025098005REMMET08701/23/17 18:32:01 SPECI KMSP 240032Z 30007KT 10SM OVC013 01/M02 A2983 RMK AO2 T00061017
0210726580149222017012400537+44883-093229FM-15+0255KMSP V0203005N00215004275MN0144845N5+00115-00175101115ADDAA101000095GA1085+004275999GD14991+0042759GE19MSL   +99999+99999GF199999999999004271999999MA1101025098005REMMET09301/23/17 18:53:01 METAR KMSP 240053Z 30004KT 9SM OVC014 01/M02 A2983 RMK AO2 SLP111 T00111017
0146726580149222017012401516+44883-093229FM-16+0255KMSP V0202805N00215004575MN0160935N5+00105-00205999999ADDGA1085+004575999GD14991+0045759MA1101055098035REMMET08801/23/17 19:51:03 SPECI KMSP 240151Z 28004KT 10SM OVC015 01/M02 A2984 RMK AO2 FIBI (JDB)
0211726580149222017012401537+44883-093229FM-15+0255KMSP V0202805N00215004575MN0160935N5+00115-00225101125ADDAA101000095GA1085+004575999GD14991+0045759GE19MSL   +99999+99999GF199999999999004571999999MA1101055098035REMMET09401/23/17 19:53:01 METAR KMSP 240153Z 28004KT 10SM OVC015 01/M02 A2984 RMK AO2 SLP112 T00111022
0231726580149222017012402537+44883-093229FM-15+0255KMSP V0203305N00215004885MN0160935N5+00115-00285101125ADDAA101000095GA1085+004885999GD14991+0048859GE19MSL   +99999+99999GF199999999999004881999999MA1101055098035MD1690009+9999REMMET10001/23/17 20:53:01 METAR KMSP 240253Z 33004KT 10SM OVC016 01/M03 A2984 RMK AO2 SLP112 T00111028 56000
0193726580149222017012403237+44883-093229FM-16+0255KMSP V0203005N00155005185MN0160935N5+00065-00285999999ADDGA1085+005185999GD14991+0051859GE19MSL   +99999+99999GF199999999999005181999999MA1101055098035REMMET08701/23/17 21:23:02 SPECI KMSP 240323Z 30003KT 10SM OVC017 01/M03 A2984 RMK AO2 T00061028
0211726580149222017012403537+44883-093229FM-15+0255KMSP V0203005N00265005185MN0160935N5+00065-00285101165ADDAA101000095GA1085+005185999GD14991+0051859GE19MSL   +99999+99999GF199999999999005181999999MA1101085098065REMMET09401/23/17 21:53:02 METAR KMSP 240353Z 30005KT 10SM OVC017 01/M03 A2985 RMK AO2 SLP116 T00061028
0210726580149222017012404537+44883-093229FM-15+0255KMSP V0203205N00265005185MN0144845N5+00065-00285101175ADDAA101000095GA1085+005185999GD14991+0051859GE19MSL   +99999+99999GF199999999999005181999999MA1101085098065REMMET09301/23/17 22:53:02 METAR KMSP 240453Z 32005KT 9SM OVC017 01/M03 A2985 RMK AO2 SLP117 T00061028
0304726580149222017012405537+44883-093229FM-15+0255KMSP V0203005N00155005185MN0112655N5+00065-00285101195ADDAA101000095GA1085+005185999GD14991+0051859GE19MSL   +99999+99999GF199999999999005181999999KA1060M+00111KA2060N+00061KA3240M+00171KA4240N+00061MA1101125098095MD1190079+9999REMMET12101/23/17 23:53:02 METAR KMSP 240553Z 30003KT 7SM OVC017 01/M03 A2986 RMK AO2 SLP119 T00061028 10011 20006 400170006 51007
1033726580149222017012405596+44883-093229SOD  +0255KMSP V020999999999999999999999999999+99999+99999999999ADDAA124000025AJ100003599999999AL12400035AN1024000035AT1AU14DZ  5AT2AU18SN  5AT3AU13BR  5AX1016246AX2086246KA1240M+00175KA2240N+00065MG1097994100914OE11240062627099995OE22240040233099995OE33240019299999995REMSOD78424 HR PRECIPITATION (IN):    T SNOW DEPTH (IN):T     24 HR SNOWFALL (IN):T    WEATHER(CODE):18  24 HR MAX TEMP (F): 3524 HR MIN TEMP (F): 33AVERAGE STATION PRESSURE:28.935 MINIMUM SEA LEVEL PRESSURE:29.80 TIME OF OCCURRENCE:0039 PEAK WIND SPEED (MPH): 14 PEAK WIND DIR (DEG):270 PEAK WIND TIME (LST):      FASTEST 2MIN SPEED (MPH):  9FASTEST 2MIN DIR (DEG):330 FASTEST 2MIN TIME (LST):     AVERAGE WIND SPEED (MPH): 4.3 24 HR AVG TEMP (F): 34DEPART FROM NORMAL: 18  SKY COVER SR-SS (TENTHS): 1HEATING DEGREE DAYS: 31 COOLING DEGREE DAYS:  0 LATEST DAY MAX TEMP (0700-1900 LST):35  LATEST NIGHT MIN TEMP(1900-0800 LST):33 HOURLY INCREMENTAL PRECIPITATION VALUES (IN):    T    T    T    T    T    T    T    T    0.00 0.00 0.00 0.00 0.00 0.00 0.00 0.00 0.00 0.00 0.00 0.00 0.00 0.00 0.00EQDR01    187AXW093R02    187AXW093
0211726580149222017012406004+44883-093217FM-12+025599999V0203001N001519999999N011000199+00061-00281101191ADDGA1999+004501999GE19MSL   +99999+99999GF108991999999004501999999KA1240M+00111KA2240N+00061MA1999999097981MD1110071+9999REMSYN08072658 32461 83003 10006 21028 39798 40119 51007 90553 333 10011 20006 555 92406=
0215726580149222017012406537+44883-093229FM-15+0255KMSP V0203205N00315004885MN0112655N5+00005-00285101195ADDAA101000095GA1085+004885999GD14991+0048859GE19MSL   +99999+99999GF199999999999004881999999MA1101125098095REMMET09801/24/17 00:53:02 METAR KMSP 240653Z 32006KT 7SM OVC016 00/M03 A2986 RMK AO2 SLP119 T00001028 (AP)
0197726580149222017012407367+44883-093229FM-16+0255KMSP V0200305N00215004275MN0112655N5+00005-00285999999ADDGA1085+004275999GD14991+0042759GE19MSL   +99999+99999GF199999999999004271999999MA1101155098135REMMET09101/24/17 01:36:02 SPECI KMSP 240736Z 03004KT 7SM OVC014 00/M03 A2987 RMK AO2 T00001028 (AP)
0215726580149222017012407537+44883-093229FM-15+0255KMSP V0203505N00155004275MN0128755N5+00065-00285101235ADDAA101000095GA1085+004275999GD14991+0042759GE19MSL   +99999+99999GF199999999999004271999999MA1101155098135REMMET09801/24/17 01:53:02 METAR KMSP 240753Z 35003KT 8SM OVC014 01/M03 A2987 RMK AO2 SLP123 T00061028 (AP)
0235726580149222017012408537+44883-093229FM-15+0255KMSP V0203605N00215003965MN0128755N5+00005-00285101275ADDAA101000095GA1085+003965999GD14991+0039659GE19MSL   +99999+99999GF199999999999003961999999MA1101195098165MD1390089+9999REMMET10401/24/17 02:53:02 METAR KMSP 240853Z 36004KT 8SM OVC013 00/M03 A2988 RMK AO2 SLP127 T00001028 53008 (AP)
0215726580149222017012409537+44883-093229FM-15+0255KMSP V0203405N00265003965MN0128755N5+00005-00335101255ADDAA101000095GA1085+003965999GD14991+0039659GE19MSL   +99999+99999GF199999999999003961999999MA1101155098135REMMET09801/24/17 03:53:02 METAR KMSP 240953Z 34005KT 8SM OVC013 00/M03 A2987 RMK AO2 SLP125 T00001033 (AP)
0215726580149222017012410537+44883-093229FM-15+0255KMSP V0200205N00215003965MN0144845N5+00005-00335101255ADDAA101000095GA1085+003965999GD14991+0039659GE19MSL   +99999+99999GF199999999999003961999999MA1101155098135REMMET09801/24/17 04:53:02 METAR KMSP 241053Z 02004KT 9SM OVC013 00/M03 A2987 RMK AO2 SLP125 T00001033 (AP)
0197726580149222017012411347+44883-093229FM-16+0255KMSP V0200505N00155004575MN0144845N5+00005-00395999999ADDGA1085+004575999GD14991+0045759GE19MSL   +99999+99999GF199999999999004571999999MA1101195098165REMMET09101/24/17 05:34:02 SPECI KMSP 241134Z 05003KT 9SM OVC015 00/M04 A2988 RMK AO2 T00001039 (AP)
0273726580149222017012411537+44883-093229FM-15+0255KMSP V0203605N00155004575MN0144845N5+00005-00395101295ADDAA101000095GA1085+004575999GD14991+0045759GE19MSL   +99999+99999GF199999999999004571999999KA1060M+00061KA2060N+00001MA1101195098165MD1390029+9999REMMET11601/24/17 05:53:02 METAR KMSP 241153Z 36003KT 9SM OVC015 00/M04 A2988 RMK AO2 SLP129 T00001039 10006 20000 53002 (AP)
0211726580149222017012412004+44883-093217FM-12+025599999V0203601N001519999999N014000199+00001-00391101291ADDGA1999+004501999GE19MSL   +99999+99999GF108991999999004501999999KA1240M+00171KA2240N+00001MA1999999098041MD1310021+9999REMSYN08072658 32464 83603 10000 21039 39804 40129 53002 91153 333 10017 20000 555 92412=
0215726580149222017012412537+44883-093229FM-15+0255KMSP V0203505N00155004885MN0144845N5+00005-00395101325ADDAA101000095GA1085+004885999GD14991+0048859GE19MSL   +99999+99999GF199999999999004881999999MA1101225098195REMMET09801/24/17 06:53:02 METAR KMSP 241253Z 35003KT 9SM OVC016 00/M04 A2989 RMK AO2 SLP132 T00001039 (AP)
0217726580149222017012413537+44883-093229FM-15+0255KMSP V0200505N00155004575MN0160935N5+00005-00395101315ADDAA101000095GA1085+004575999GD14991+0045759GE19MSL   +99999+99999GF199999999999004571999999MA1101225098195REMMET10001/24/17 07:53:02 METAR KMSP 241353Z 05003KT 10SM OVC015 00/M04 A2989 RMK AO2 SLP131 T00001039 (CLB)
0236726580149222017012414537+44883-093229FM-15+0255KMSP V0200405N00215004885MN0144845N5+00005-00395101375ADDAA101000095GA1085+004885999GD14991+0048859GE19MSL   +99999+99999GF199999999999004881999999MA1101295098265MD1390089+9999REMMET10501/24/17 08:53:02 METAR KMSP 241453Z 04004KT 9SM OVC016 00/M04 A2991 RMK AO2 SLP137 T00001039 53008 (CLB)
0217726580149222017012415537+44883-093229FM-15+0255KMSP V0200505N00315004885MN0160935N5+00005-00395101285ADDAA101000095GA1085+004885999GD14991+0048859GE19MSL   +99999+99999GF199999999999004881999999MA1101195098165REMMET10001/24/17 09:53:02 METAR KMSP 241553Z 05006KT 10SM OVC016 00/M04 A2988 RMK AO2 SLP128 T00001039 (CLB)
0217726580149222017012416537+44883-093229FM-15+0255KMSP V0200305N00415004575MN0160935N5+00005-00395101265ADDAA101000095GA1085+004575999GD14991+0045759GE19MSL   +99999+99999GF199999999999004571999999MA1101195098165REMMET10001/24/17 10:53:02 METAR KMSP 241653Z 03008KT 10SM OVC015 00/M04 A2988 RMK AO2 SLP126 T00001039 (CLB)
0275726580149222017012417537+44883-093229FM-15+0255KMSP V0201105N00215004275MN0160935N5+00005-00395101235ADDAA101000095GA1085+004275999GD14991+0042759GE19MSL   +99999+99999GF199999999999004271999999KA1060M+00001KA2060N+00001MA1101155098135MD1690149+9999REMMET11801/24/17 11:53:02 METAR KMSP 241753Z 11004KT 10SM OVC014 00/M04 A2987 RMK AO2 SLP123 T00001039 10000 20000 56014 (CLB)
0211726580149222017012418004+44883-093217FM-12+025599999V0201101N002119999999N016000199+00001-00391101231ADDGA1999+004501999GE19MSL   +99999+99999GF108991999999004501999999KA1120M+00061KA2120N+00001MA1999999098011MD1610141+9999REMSYN08072658 32466 81104 10000 21039 39801 40123 56014 91753 333 10006 20000 555 92418=
0217726580149222017012418537+44883-093229FM-15+0255KMSP V0200605N00315003965MN0160935N5+00005-00335101155ADDAA101000095GA1085+003965999GD14991+0039659GE19MSL   +99999+99999GF199999999999003961999999MA1101055098035REMMET10001/24/17 12:53:02 METAR KMSP 241853Z 06006KT 10SM OVC013 00/M03 A2984 RMK AO2 SLP115 T00001033 (CLB)
0217726580149222017012419537+44883-093229FM-15+0255KMSP V0200705N00315003965MN0160935N5+00005-00335101055ADDAA101000095GA1085+003965999GD14991+0039659GE19MSL   +99999+99999GF199999999999003961999999MA1100985097965REMMET10001/24/17 13:53:02 METAR KMSP 241953Z 07006KT 10SM OVC013 00/M03 A2982 RMK AO2 SLP105 T00001033 (CLB)
0237726580149222017012420537+44883-093229FM-15+0255KMSP V0200705N00415003965MN0160935N5+00005-00335101045ADDAA101000095GA1085+003965999GD14991+0039659GE19MSL   +99999+99999GF199999999999003961999999MA1100955097935MD1690199+9999REMMET10601/24/17 14:53:02 METAR KMSP 242053Z 07008KT 10SM OVC013 00/M03 A2981 RMK AO2 SLP104 T00001033 56019 (CLB)
0217726580149222017012421537+44883-093229FM-15+0255KMSP V0200805N00365003965MN0160935N5+00005-00335101065ADDAA101000095GA1085+003965999GD14991+0039659GE19MSL   +99999+99999GF199999999999003961999999MA1100955097935REMMET10001/24/17 15:53:02 METAR KMSP 242153Z 08007KT 10SM OVC013 00/M03 A2981 RMK AO2 SLP106 T00001033 (JDB)
0216726580149222017012422537+44883-093229FM-15+0255KMSP V0200605N00365004575MN0144845N5+00005-00335101015ADDAA101000095GA1085+004575999GD14991+0045759GE19MSL   +99999+99999GF199999999999004571999999MA1100915097905REMMET09901/24/17 16:53:02 METAR KMSP 242253Z 06007KT 9SM OVC015 00/M03 A2980 RMK AO2 SLP101 T00001033 (JDB)
0275726580149222017012423537+44883-093229FM-15+0255KMSP V0200605N00515004885MN0160935N5+00065-00335100965ADDAA101000095GA1085+004885999GD14991+0048859GE19MSL   +99999+99999GF199999999999004881999999KA1060M+00061KA2060N+00001MA1100885097865MD1890079+9999REMMET11801/24/17 17:53:02 METAR KMSP 242353Z 06010KT 10SM OVC016 01/M03 A2979 RMK AO2 SLP096 T00061033 10006 20000 58007 (JDB)
0211726580149222017012500004+44883-093217FM-12+025599999V0200601N005119999999N016000199+00061-00331100961ADDGA1999+004501999GE19MSL   +99999+99999GF108991999999004501999999KA1120M+00061KA2120N+00001MA1999999097741MD1810071+9999REMSYN08072658 32466 80610 10006 21033 39774 40096 58007 92353 333 10006 20000 555 92500=
0204726580149222017012500287+44883-093229FM-16+0255KMSP V0200705N00575004275MN0160935N5+00065-00335999999ADDGA1085+004275999GD14991+0042759GE19MSL   +99999+99999GF199999999999004271999999MA1100885097865OC100885REMMET09001/24/17 18:28:01 SPECI KMSP 250028Z 07011G17KT 10SM OVC014 01/M03 A2979 RMK AO2 T00061033
0222726580149222017012500537+44883-093229FM-15+0255KMSP V0200705N00465004275MN0160935N5+00065-00285100965ADDAA101000095GA1085+004275999GD14991+0042759GE19MSL   +99999+99999GF199999999999004271999999MA1100885097865OC100885REMMET09701/24/17 18:53:01 METAR KMSP 250053Z 07009G17KT 10SM OVC014 01/M03 A2979 RMK AO2 SLP096 T00061028
0193726580149222017012501247+44883-093229FM-16+0255KMSP V0200705N00515004575MN0160935N5+00065-00285999999ADDGA1085+004575999GD14991+0045759GE19MSL   +99999+99999GF199999999999004571999999MA1100885097865REMMET08701/24/17 19:24:01 SPECI KMSP 250124Z 07010KT 10SM OVC015 01/M03 A2979 RMK AO2 T00061028
0211726580149222017012501537+44883-093229FM-15+0255KMSP V0200705N00315004575MN0160935N5+00065-00285100995ADDAA101000095GA1085+004575999GD14991+0045759GE19MSL   +99999+99999GF199999999999004571999999MA1100915097905REMMET09401/24/17 19:53:01 METAR KMSP 250153Z 07006KT 10SM OVC015 01/M03 A2980 RMK AO2 SLP099 T00061028
0193726580149222017012502297+44883-093229FM-16+0255KMSP V0200605N00515004275MN0160935N5+00065-00285999999ADDGA1085+004275999GD14991+0042759GE19MSL   +99999+99999GF199999999999004271999999MA1100885097865REMMET08701/24/17 20:29:01 SPECI KMSP 250229Z 06010KT 10SM OVC014 01/M03 A2979 RMK AO2 T00061028
0231726580149222017012502537+44883-093229FM-15+0255KMSP V0200605N00515004275MN0160935N5+00065-00285100975ADDAA101000095GA1085+004275999GD14991+0042759GE19MSL   +99999+99999GF199999999999004271999999MA1100885097865MD1090019+9999REMMET10001/24/17 20:53:02 METAR KMSP 250253Z 06010KT 10SM OVC014 01/M03 A2979 RMK AO2 SLP097 T00061028 50001
0193726580149222017012503407+44883-093229FM-16+0255KMSP V0200905N00265004885MN0160935N5+00065-00285999999ADDGA1085+004885999GD14991+0048859GE19MSL   +99999+99999GF199999999999004881999999MA1100885097865REMMET08701/24/17 21:40:02 SPECI KMSP 250340Z 09005KT 10SM OVC016 01/M03 A2979 RMK AO2 T00061028
0211726580149222017012503537+44883-093229FM-15+0255KMSP V0200805N00315004885MN0160935N5+00065-00285100965ADDAA101000095GA1085+004885999GD14991+0048859GE19MSL   +99999+99999GF199999999999004881999999MA1100885097865REMMET09401/24/17 21:53:02 METAR KMSP 250353Z 08006KT 10SM OVC016 01/M03 A2979 RMK AO2 SLP096 T00061028
0211726580149222017012504537+44883-093229FM-15+0255KMSP V0200405N00315005495MN0160935N5+00065-00285100965ADDAA101000095GA1085+005495999GD14991+0054959GE19MSL   +99999+99999GF199999999999005491999999MA1100885097865REMMET09401/24/17 22:53:02 METAR KMSP 250453Z 04006KT 10SM OVC018 01/M03 A2979 RMK AO2 SLP096 T00061028
0305726580149222017012505537+44883-093229FM-15+0255KMSP V0200205N00415004885MN0160935N5+00005-00285100885ADDAA101000095GA1085+004885999GD14991+0048859GE19MSL   +99999+99999GF199999999999004881999999KA1060M+00111KA2060N+00001KA3240M+00111KA4240N+00001MA1100785097765MD1890109+9999REMMET12201/24/17 23:53:02 METAR KMSP 250553Z 02008KT 10SM OVC016 00/M03 A2976 RMK AO2 SLP088 T00001028 10011 20000 400110000 58010
0926726580149222017012505596+44883-093229SOD  +0255KMSP V020999999999999999999999999999+99999+99999999999ADDAA124000095AJ100003599999999AL12400095AN1024000095KA1240M+00115KA2240N+00005MG1097974100854OE11240093906099995OE22240067107099995OE33240030499999995REMSOD76624 HR PRECIPITATION (IN): 0.00 SNOW DEPTH (IN):T     24 HR SNOWFALL (IN):0.0  24 HR MAX TEMP (F): 3424 HR MIN TEMP (F): 32AVERAGE STATION PRESSURE:28.930 MINIMUM SEA LEVEL PRESSURE:29.78 TIME OF OCCURRENCE:2359 PEAK WIND SPEED (MPH): 21 PEAK WIND DIR (DEG): 60 PEAK WIND TIME (LST):      FASTEST 2MIN SPEED (MPH): 15FASTEST 2MIN DIR (DEG): 70 FASTEST 2MIN TIME (LST):     AVERAGE WIND SPEED (MPH): 6.8 24 HR AVG TEMP (F): 33DEPART FROM NORMAL: 17  SKY COVER SR-SS (TENTHS): 1HEATING DEGREE DAYS: 32 COOLING DEGREE DAYS:  0 LATEST DAY MAX TEMP (0700-1900 LST):33  LATEST NIGHT MIN TEMP(1900-0800 LST):32 HOURLY INCREMENTAL PRECIPITATION VALUES (IN):.00 0.00 0.00 0.00 0.00 0.00 0.00 0.00 0.00 0.00 0.00 0.00 0.00 0.00 0.00 0.00 0.00 0.00 0.00 0.00 0.00 0.00 0.00 0.00
0211726580149222017012506004+44883-093217FM-12+025599999V0200201N004119999999N016000199+00001-00281100881ADDGA1999+004501999GE19MSL   +99999+99999GF108991999999004501999999KA1240M+00111KA2240N+00001MA1999999097651MD1810101+9999REMSYN08072658 32466 80208 10000 21028 39765 40088 58010 90553 333 10011 20000 555 92506=
0013726580149222017012506004+44883-093229SHEF +999999999V020999999999999999999999999999+99999+99999999999ADDAL19900331
0216726580149222017012506537+44883-093229FM-15+0255KMSP V0200205N00625004575MN0160935N5+00005-00335100785ADDAA101000095GA1085+004575999GD14991+0045759GE19MSL   +99999+99999GF199999999999004571999999MA1100685097675REMMET09901/25/17 00:53:02 METAR KMSP 250653Z 02012KT 10SM OVC015 00/M03 A2973 RMK AO2 SLP078 T00001033 (PL)
0198726580149222017012507107+44883-093229FM-16+0255KMSP V0200205N00625004275MN0160935N5+00005-00285999999ADDGA1085+004275999GD14991+0042759GE19MSL   +99999+99999GF199999999999004271999999MA1100685097675REMMET09201/25/17 01:10:02 SPECI KMSP 250710Z 02012KT 10SM OVC014 00/M03 A2973 RMK AO2 T00001028 (PL)
0273726580149222017012507537+44883-093229FM-15+0255KMSP V0200205N00625003355MN0040235N5-00065-00285100735ADDAA101000025AU110030015AU200001015AW1105AW2715GA1085+003355999GD14991+0033559GE19MSL   +99999+99999GF199999999999003351999999MA1100645097635REMMET12201/25/17 01:53:02 METAR KMSP 250753Z 02012KT 2 1/2SM -SN BR OVC011 M01/M03 A2972 RMK AO2 SNB26 SLP073 P0000 T10061028 (PL)
0323726580149222017012508537+44883-093229FM-15+0255KMSP V0200205N00415003355MN0040235N5-00065-00225100715ADDAA101000395AA203000391AU110030015AU200001015AW1105AW2715GA1085+003355999GD14991+0033559GE19MSL   +99999+99999GF199999999999003351999999MA1100615097605MD1690169+9999REMMET12801/25/17 02:53:02 METAR KMSP 250853Z 02008KT 2 1/2SM -SN BR OVC011 M01/M02 A2971 RMK AO2 SLP071 P0001 60001 T10061022 56016 (PL)EQDQ01  00028PRCP03
0256726580149222017012509197+44883-093229FM-16+0255KMSP V0200205N00625002745MN0032195N5-00065-00285999999ADDAA101000021AU110030015AU200001015AW1105AW2715GA1085+002745999GD14991+0027459GE19MSL   +99999+99999GF199999999999002741999999MA1100585097575REMMET10501/25/17 03:19:02 SPECI KMSP 250919Z 02012KT 2SM -SN BR OVC009 M01/M03 A2970 RMK AO2 P0000 T10061028 (PL)
0263726580149222017012509537+44883-093229FM-15+0255KMSP V0200105N00515002745MN0032195N5-00115-00285100655ADDAA101000395AU110030015AU200001015AW1105AW2715GA1085+002745999GD14991+0027459GE19MSL   +99999+99999GF199999999999002741999999MA1100585097575REMMET11201/25/17 03:53:02 METAR KMSP 250953Z 01010KT 2SM -SN BR OVC009 M01/M03 A2970 RMK AO2 SLP065 P0001 T10111028 (PL)
0267726580149222017012510537+44883-093229FM-15+0255KMSP V0200205N00675002745MN0040235N5-00115-00335100645ADDAA101000025AU110030015AU200001015AW1105AW2715GA1085+002745999GD14991+0027459GE19MSL   +99999+99999GF199999999999002741999999MA1100545097535REMMET11601/25/17 04:53:02 METAR KMSP 251053Z 02013KT 2 1/2SM -SN BR OVC009 M01/M03 A2969 RMK AO2 SLP064 P0000 T10111033 (PL)
0413726580149222017012511537+44883-093229FM-15+0255KMSP V0200105N00625002745MN0032195N5-00115-00335100645ADDAA101000025AA206000591AA324000591AJ100039500025099AU110030015AU200001015AW1105AW2715GA1085+002745999GD14991+0027459GE19MSL   +99999+99999GF199999999999002741999999KA1060M+00001KA2060N-00111MA1100545097535MD1690079+9999REMMET14801/25/17 05:53:02 METAR KMSP 251153Z 01012KT 2SM -SN BR OVC009 M01/M03 A2969 RMK AO2 SLP064 4/001 P0000 60002 70002 T10111033 10000 21011 56007 (PL)EQDQ01  00058PRCP06Q02  00058PRCP24
0286726580149222017012512004+44883-093217FM-12+025599999V0200101N006219999999N003200199-00111-00331100641ADDAA106000531AA224000531AJ100033100030099GA1999+002501999GE19MSL   +99999+99999GF108991999999002501999999KA1240M+00111KA2240N-00111MA1999999097411MD1610071+9999MW1711REMSYN11072658 11332 80112 11011 21033 39741 40064 56007 69951 771// 91153 333 10011 21011 4/003 70005 96010 555 92512=
0013726580149222017012512004+44883-093229SHEF +999999999V020999999999999999999999999999+99999+99999999999ADDAL19900331
0256726580149222017012512197+44883-093229FM-16+0255KMSP V0200105N00675003055MN0032195N5-00115-00335999999ADDAA101000231AU110030015AU200001015AW1105AW2715GA1085+003055999GD14991+0030559GE19MSL   +99999+99999GF199999999999003051999999MA1100545097535REMMET10501/25/17 06:19:02 SPECI KMSP 251219Z 01013KT 2SM -SN BR OVC010 M01/M03 A2969 RMK AO2 P0001 T10111033 (PL)
0270726580149222017012512457+44883-093229FM-16+0255KMSP V0200105N00625003055MN0024145N5-00115-00335999999ADDAA101000531AU110030015AU200001015AW1105AW2715GA1085+003055999GD14991+0030559GE19MSL   +99999+99999GF199999999999003051999999MA1100545097535REMMET11901/25/17 06:45:02 SPECI KMSP 251245Z 01012KT 1 1/2SM -SN BR OVC010 M01/M03 A2969 RMK AO2 TWR VIS 2 P0002 T10111033 (PL)
0277726580149222017012512537+44883-093229FM-15+0255KMSP V0200105N00625003055MN0028165N5-00115-00335100645ADDAA101000595AU110030015AU200001015AW1105AW2715GA1085+003055999GD14991+0030559GE19MSL   +99999+99999GF199999999999003051999999MA1100545097535REMMET12601/25/17 06:53:02 METAR KMSP 251253Z 01012KT 1 3/4SM -SN BR OVC010 M01/M03 A2969 RMK AO2 TWR VIS 2 SLP064 P0002 T10111033 (PL)
0257726580149222017012513017+44883-093229FM-16+0255KMSP V0200105N00725003055MN0032195N5-00115-00335999999ADDAA101000021AU110030015AU200001015AW1105AW2715GA1085+003055999GD14991+0030559GE19MSL   +99999+99999GF199999999999003051999999MA1100545097535REMMET10601/25/17 07:01:02 SPECI KMSP 251301Z 01014KT 2SM -SN BR OVC010 M01/M03 A2969 RMK AO2 P0000 T10111033 (CLB)
0289726580149222017012513267+44883-093229FM-16+0255KMSP V0200105N00675003055MN0024145N5-00115-00335999999ADDAA101000021AU110030015AU200001015AW1105AW2715GA1085+003055999GD14991+0030559GE19MSL   +99999+99999GF199999999999003051999999MA1100545097535REMMET13801/25/17 07:26:02 SPECI KMSP 251326Z 01013KT 1 1/2SM R30L/5000VP6000FT -SN BR OVC010 M01/M03 A2969 RMK AO2 TWR VIS 2 P0000 T10111033 (CLB)
0264726580149222017012513537+44883-093229FM-15+0255KMSP V0200205N00625003665MN0080475N5-00115-00335100645ADDAA101000025AU110030015AU200001015AW1105AW2715GA1085+003665999GD14991+0036659GE19MSL   +99999+99999GF199999999999003661999999MA1100545097535REMMET11301/25/17 07:53:02 METAR KMSP 251353Z 02012KT 5SM -SN BR OVC012 M01/M03 A2969 RMK AO2 SLP064 P0000 T10111033 (CLB)
0320726580149222017012514537+44883-093229FM-15+0255KMSP V0200105N00675003355MN0064375N5-00065-00285100645ADDAA101000025AA203001091AU110030015AU200001015AW1105AW2715GA1085+003355999GD14991+0033559GE19MSL   +99999+99999GF199999999999003351999999MA1100545097535MD1590009+9999REMMET12501/25/17 08:53:02 METAR KMSP 251453Z 01013KT 4SM -SN BR OVC011 M01/M03 A2969 RMK AO2 SLP064 P0000 60004 T10061028 55000 (CLB)EQDQ01  00108PRCP03
0255726580149222017012515277+44883-093229FM-16+0255KMSP V0200105N00675003665MN0032195N5-00065-00335999999ADDAA101000531AU110030015AW1715GA1085+003665999GD14991+0036659GE19MSL   +99999+99999GF199999999999003661999999MA1100585097575REMMET12101/25/17 09:27:02 SPECI KMSP 251527Z 01013KT 2SM R30L/4500VP6000FT -SN OVC012 M01/M03 A2970 RMK AO2 P0002 T10061033 (CLB)
0320726580149222017012515537+44883-093229FM-15+0255KMSP V0200105N00775003965MN0032195N5-00115-00335100675ADDAA101000595AU110030015AU200001015AW1105AW2715GA1075+003965999GA2085+006405999GD13991+0039659GD24991+0064059GE19MSL   +99999+99999GF199999999999003961999999MA1100585097575REMMET13801/25/17 09:53:02 METAR KMSP 251553Z 01015KT 2SM R30L/4000VP6000FT -SN BR BKN013 OVC021 M01/M03 A2970 RMK AO2 SLP067 P0002 T10111033 (CLB)
0313726580149222017012516337+44883-093229FM-16+0255KMSP V0200105N00675004575MN0032195N5-00115-00335999999ADDAA101000021AU110030015AU200001015AW1105AW2715GA1075+004575999GA2085+005795999GD13991+0045759GD24991+0057959GE19MSL   +99999+99999GF199999999999004571999999MA1100615097605REMMET13101/25/17 10:33:02 SPECI KMSP 251633Z 01013KT 2SM R30L/5500VP6000FT -SN BR BKN015 OVC019 M01/M03 A2971 RMK AO2 P0000 T10111033 (CLB)
0295726580149222017012516407+44883-093229FM-16+0255KMSP V0203605N00775003965MN0032195N5-00115-00335999999ADDAA101000021AU110030015AU200001015AW1105AW2715GA1075+003965999GA2085+005795999GD13991+0039659GD24991+0057959GE19MSL   +99999+99999GF199999999999003961999999MA1100615097605REMMET11301/25/17 10:40:02 SPECI KMSP 251640Z 36015KT 2SM -SN BR BKN013 OVC019 M01/M03 A2971 RMK AO2 P0000 T10111033 (CLB)
0324726580149222017012516537+44883-093229FM-15+0255KMSP V0203605N00515003965MN0032195N5-00115-00335100695ADDAA101000395AU110030015AU200001015AW1105AW2715GA1075+003965999GA2085+005795999GD13991+0039659GD24991+0057959GE19MSL   +99999+99999GF199999999999003961999999MA1100615097605OC100985REMMET13401/25/17 10:53:02 METAR KMSP 251653Z 36010G19KT 2SM -SN BR BKN013 OVC019 M01/M03 A2971 RMK AO2 SLP069 VIS SE-S 3 P0001 T10111033 (CLB)
0327726580149222017012517057+44883-093229FM-16+0255KMSP V0203605N00575003965MN0024145N5-00115-00335999999ADDAA101000021AU110030015AU200001015AW1105AW2715GA1075+003965999GA2085+006105999GD13991+0039659GD24991+0061059GE19MSL   +99999+99999GF199999999999003961999999MA1100615097605REMMET14501/25/17 11:05:02 SPECI KMSP 251705Z 36011KT 1 1/2SM R30L/6000VP6000FT -SN BR BKN013 OVC020 M01/M03 A2971 RMK AO2 TWR VIS 2 P0000 T10111033 (CLB)
0313726580149222017012517207+44883-093229FM-16+0255KMSP V0200105N00675004275MN0048285N5-00115-00335999999ADDAA101000021AU110030015AU200001015AW1105AW2715GA1045+003355999GA2085+004275999GD12991+0033559GD24991+0042759GE19MSL   +99999+99999GF199999999999003351999999MA1100615097605REMMET13101/25/17 11:20:02 SPECI KMSP 251720Z 01013KT 3SM R30L/4500VP6000FT -SN BR SCT011 OVC014 M01/M03 A2971 RMK AO2 P0000 T10111033 (CLB)
0361726580149222017012517537+44883-093229FM-15+0255KMSP V0203605N00775003355MN0144845N5-00115-00335100695ADDAA101000025AA206001891AJ100059500051099AU110030015AW1715GA1085+003355999GD14991+0033559GE19MSL   +99999+99999GF199999999999003351999999KA1060M-00061KA2060N-00111MA1100615097605MD1090049+9999REMMET14001/25/17 11:53:02 METAR KMSP 251753Z 36015KT 9SM -SN OVC011 M01/M03 A2971 RMK AO2 SLP069 P0000 60007 4/002 T10111033 11006 21011 50004 (CLB)EQDQ01  00178PRCP06
0263726580149222017012518004+44883-093217FM-12+025599999V0203601N007719999999N014000199-00111-00331100691ADDAA106002031AJ100053100050099GA1999+004501999GE19MSL   +99999+99999GF108991999999004501999999KA1120M+00001KA2120N-00111MA1999999097481MD1990041+9999MW1711REMSYN09872658 11464 83615 11011 21033 39748 40069 50004 60021 771// 91753 333 10000 21011 4/005 555 92518=
0223726580149222017012518387+44883-093229FM-16+0255KMSP V0203605N00825003965MN0160935N5-00115-00445999999ADDAA101000021GA1085+003965999GD14991+0039659GE19MSL   +99999+99999GF199999999999003961999999MA1100585097575REMMET10601/25/17 12:38:02 SPECI KMSP 251838Z 36016KT 10SM OVC013 M01/M04 A2970 RMK AO2 SNE03 P0000 T10111044 (CLB)
0230726580149222017012518537+44883-093229FM-15+0255KMSP V0203605N00625003965MN0160935N5-00115-00445100655ADDAA101000025GA1085+003965999GD14991+0039659GE19MSL   +99999+99999GF199999999999003961999999MA1100585097575REMMET11301/25/17 12:53:02 METAR KMSP 251853Z 36012KT 10SM OVC013 M01/M04 A2970 RMK AO2 SNE03 SLP065 P0000 T10111044 (CLB)
0218726580149222017012519537+44883-093229FM-15+0255KMSP V0203505N00725003965MN0160935N5-00115-00445100655ADDAA101000095GA1085+003965999GD14991+0039659GE19MSL   +99999+99999GF199999999999003961999999MA1100545097535REMMET10101/25/17 13:53:02 METAR KMSP 251953Z 35014KT 10SM OVC013 M01/M04 A2969 RMK AO2 SLP065 T10111044 (CLB)
0255726580149222017012520537+44883-093229FM-15+0255KMSP V0203505N00675003965MN0160935N5-00175-00505100735ADDAA101000095AA203000021GA1085+003965999GD14991+0039659GE19MSL   +99999+99999GF199999999999003961999999MA1100615097605MD1390039+9999REMMET11301/25/17 14:53:02 METAR KMSP 252053Z 35013KT 10SM OVC013 M02/M05 A2971 RMK AO2 SLP073 60000 T10171050 53003 (CLB)
0200726580149222017012521367+44883-093229FM-16+0255KMSP V0203505N00515004575MN0160935N5-00175-00505999999ADDGA1085+004575999GD14991+0045759GE19MSL   +99999+99999GF199999999999004571999999MA1100685097675REMMET09401/25/17 15:36:02 SPECI KMSP 252136Z 35010KT 10SM OVC015 M02/M05 A2973 RMK AO2 T10171050 (JDB)
0229726580149222017012521537+44883-093229FM-15+0255KMSP V0203505N00675004575MN0160935N5-00175-00565100805ADDAA101000095GA1085+004575999GD14991+0045759GE19MSL   +99999+99999GF199999999999004571999999MA1100715097705OC100885REMMET10401/25/17 15:53:02 METAR KMSP 252153Z 35013G17KT 10SM OVC015 M02/M06 A2974 RMK AO2 SLP080 T10171056 (JDB)
0200726580149222017012522227+44883-093229FM-16+0255KMSP V0203605N00515005185MN0160935N5-00175-00615999999ADDGA1085+005185999GD14991+0051859GE19MSL   +99999+99999GF199999999999005181999999MA1100715097705REMMET09401/25/17 16:22:02 SPECI KMSP 252222Z 36010KT 10SM OVC017 M02/M06 A2974 RMK AO2 T10171061 (JDB)
0218726580149222017012522537+44883-093229FM-15+0255KMSP V0203405N00575006105MN0160935N5-00175-00615100865ADDAA101000095GA1085+006105999GD14991+0061059GE19MSL   +99999+99999GF199999999999006101999999MA1100755097735REMMET10101/25/17 16:53:02 METAR KMSP 252253Z 34011KT 10SM OVC020 M02/M06 A2975 RMK AO2 SLP086 T10171061 (JDB)
0316726580149222017012523537+44883-093229FM-15+0255KMSP V0203505N00515006715MN0160935N5-00175-00615100905ADDAA101000095AA206000021AJ100059500051099GA1085+006715999GD14991+0067159GE19MSL   +99999+99999GF199999999999006711999999KA1060M-00111KA2060N-00171MA1100815097805MD1190179+9999REMMET13101/25/17 17:53:02 METAR KMSP 252353Z 35010KT 10SM OVC022 M02/M06 A2977 RMK AO2 SLP090 4/002 60000 T10171061 11011 21017 51017 (JDB)
0251726580149222017012600004+44883-093217FM-12+025599999V0203501N005119999999N016000199-00171-00611100901ADDAA106000021AJ100053100050099GA1999+008001999GE19MSL   +99999+99999GF108991999999008001999999KA1120M-00061KA2120N-00171MA1999999097681MD1110171+9999REMSYN09272658 12566 83510 11017 21061 39768 40090 51017 69901 92353 333 11006 21017 4/005 555 92600=
0212726580149222017012600537+44883-093229FM-15+0255KMSP V0203505N00725006405MN0160935N5-00175-00615100965ADDAA101000095GA1085+006405999GD14991+0064059GE19MSL   +99999+99999GF199999999999006401999999MA1100855097835REMMET09501/25/17 18:53:01 METAR KMSP 260053Z 35014KT 10SM OVC021 M02/M06 A2978 RMK AO2 SLP096 T10171061
0223726580149222017012601537+44883-093229FM-15+0255KMSP V0203505N00825006715MN0160935N5-00175-00615101005ADDAA101000095GA1085+006715999GD14991+0067159GE19MSL   +99999+99999GF199999999999006711999999MA1100885097865OC101185REMMET09801/25/17 19:53:01 METAR KMSP 260153Z 35016G23KT 10SM OVC022 M02/M06 A2979 RMK AO2 SLP100 T10171061
0185726580149222017012602516+44883-093229FM-16+0255KMSP V0203505N00465010065MN0160935N5-00205-00605999999ADDGA1045+006105999GA2085+010065999GD12991+0061059GD24991+0100659MA1100915097905REMMET09601/25/17 20:51:03 SPECI KMSP 260251Z 35009KT 10SM SCT020 OVC033 M02/M06 A2980 RMK AO2 FIBI (JDB)
0270726580149222017012602537+44883-093229FM-15+0255KMSP V0203305N00365010065MN0160935N5-00175-00565101005ADDAA101000095GA1045+006105999GA2085+010065999GD12991+0061059GD24991+0100659GE19MSL   +99999+99999GF199999999999006101999999MA1100915097905MD1190109+9999REMMET10801/25/17 20:53:02 METAR KMSP 260253Z 33007KT 10SM SCT020 OVC033 M02/M06 A2980 RMK AO2 SLP100 T10171056 51010
0250726580149222017012603537+44883-093229FM-15+0255KMSP V0203305N00625011285MN0160935N5-00175-00615101025ADDAA101000095GA1025+006715999GA2085+011285999GD11991+0067159GD24991+0112859GE19MSL   +99999+99999GF199999999999006711999999MA1100915097905REMMET10201/25/17 21:53:02 METAR KMSP 260353Z 33012KT 10SM FEW022 OVC037 M02/M06 A2980 RMK AO2 SLP102 T10171061
0288726580149222017012604537+44883-093229FM-15+0255KMSP V0203305N00625011285MN0160935N5-00175-00615101055ADDAA101000095GA1025+006405999GA2025+009145999GA3085+011285999GD11991+0064059GD21991+0091459GD34991+0112859GE19MSL   +99999+99999GF199999999999006401999999MA1100955097935REMMET10901/25/17 22:53:02 METAR KMSP 260453Z 33012KT 10SM FEW021 FEW030 OVC037 M02/M06 A2981 RMK AO2 SLP105 T10171061
0270726580149222017012605267+44883-093229FM-16+0255KMSP V0203205N00515006715MN0160935N5-00175-00565999999ADDGA1075+006715999GA2075+010975999GA3085+015245999GD13991+0067159GD23991+0109759GD34991+0152459GE19MSL   +99999+99999GF199999999999006711999999MA1100955097935REMMET10201/25/17 23:26:02 SPECI KMSP 260526Z 32010KT 10SM BKN022 BKN036 OVC050 M02/M06 A2981 RMK AO2 T10171056
0405726580149222017012605537+44883-093229FM-15+0255KMSP V0203205N00515006715MN0160935N5-00175-00565101075ADDAA101000095AJ100059500051099GA1075+006715999GA2075+010365999GA3085+015245999GD13991+0067159GD23991+0103659GD34991+0152459GE19MSL   +99999+99999GF199999999999006711999999KA1060M-00111KA2060N-00171KA3240M+00001KA4240N-00171MA1100955097935MD1290069+9999REMMET14301/25/17 23:53:02 METAR KMSP 260553Z 32010KT 10SM BKN022 BKN034 OVC050 M02/M06 A2981 RMK AO2 SLP107 4/002 T10171056 11011 21017 400001017 52006
1021726580149222017012605596+44883-093229SOD  +0255KMSP V020999999999999999999999999999+99999+99999999999ADDAA124002395AJ100039599999999AL12405695AN1024005695AT1AU18SN  5AT2AU13BR  5AX1016246AX2086246KA1240M+00005KA2240N-00165MG1097704100644OE11240116236099995OE22240093934099995OE33240061799999995REMSOD78424 HR PRECIPITATION (IN): 0.09 SNOW DEPTH (IN):1     24 HR SNOWFALL (IN):2.2  WEATHER(CODE):18  24 HR MAX TEMP (F): 3224 HR MIN TEMP (F): 29AVERAGE STATION PRESSURE:28.850 MINIMUM SEA LEVEL PRESSURE:29.72 TIME OF OCCURRENCE:1410 PEAK WIND SPEED (MPH): 26 PEAK WIND DIR (DEG):360 PEAK WIND TIME (LST):      FASTEST 2MIN SPEED (MPH): 21FASTEST 2MIN DIR (DEG):340 FASTEST 2MIN TIME (LST):     AVERAGE WIND SPEED (MPH):13.8 24 HR AVG TEMP (F): 31DEPART FROM NORMAL: 15  SKY COVER SR-SS (TENTHS): 1HEATING DEGREE DAYS: 34 COOLING DEGREE DAYS:  0 LATEST DAY MAX TEMP (0700-1900 LST):31  LATEST NIGHT MIN TEMP(1900-0800 LST):30 HOURLY INCREMENTAL PRECIPITATION VALUES (IN):.00 T    0.01 0.01 T    T    0.02 T    T    0.02 0.01 T    T    0.00 0.00 0.00 0.00 0.00 0.00 0.00 0.00 0.00 0.00 0.00EQDR01    187AXW093R02    187AXW093
0234726580149222017012606004+44883-093217FM-12+025599999V0203201N005119999999N016000199-00171-00561101071ADDAJ100053100050099GA1999+008001999GE19MSL   +99999+99999GF108991999999008001999999KA1240M+00001KA2240N-00171MA1999999097811MD1210061+9999REMSYN08672658 32566 83210 11017 21056 39781 40107 52006 90553 333 10000 21017 4/005 555 92606=
0266726580149222017012606537+44883-093229FM-15+0255KMSP V0203305N00575006105MN0160935N5-00115-00565101065ADDAA101000095GA1075+006105999GA2085+007625999GD13991+0061059GD24991+0076259GE19MSL   +99999+99999GF199999999999006101999999MA1100955097935OC101085REMMET11001/26/17 00:53:02 METAR KMSP 260653Z 33011G21KT 10SM BKN020 OVC025 M01/M06 A2981 RMK AO2 SLP106 T10111056 (PL)
0255726580149222017012607537+44883-093229FM-15+0255KMSP V0203305N00725007015MN0160935N5-00175-00565101105ADDAA101000095GA1075+007015999GA2085+008235999GD13991+0070159GD24991+0082359GE19MSL   +99999+99999GF199999999999007011999999MA1100985097965REMMET10701/26/17 01:53:02 METAR KMSP 260753Z 33014KT 10SM BKN023 OVC027 M02/M06 A2982 RMK AO2 SLP110 T10171056 (PL)
0275726580149222017012608537+44883-093229FM-15+0255KMSP V0203305N00515006405MN0160935N5-00175-00565101145ADDAA101000095GA1075+006405999GA2085+015245999GD13991+0064059GD24991+0152459GE19MSL   +99999+99999GF199999999999006401999999MA1101025098005MD1390069+9999REMMET11301/26/17 02:53:02 METAR KMSP 260853Z 33010KT 10SM BKN021 OVC050 M02/M06 A2983 RMK AO2 SLP114 T10171056 53006 (PL)
0266726580149222017012609537+44883-093229FM-15+0255KMSP V0203205N00625006105MN0160935N5-00175-00565101165ADDAA101000095GA1075+006105999GA2085+015245999GD13991+0061059GD24991+0152459GE19MSL   +99999+99999GF199999999999006101999999MA1101055098035OC100985REMMET11001/26/17 03:53:02 METAR KMSP 260953Z 32012G19KT 10SM BKN020 OVC050 M02/M06 A2984 RMK AO2 SLP116 T10171056 (PL)
0146726580149222017012610516+44883-093229FM-16+0255KMSP V0203305N00675011895MN0160935N5-00205-00605999999ADDGA1085+011895999GD14991+0118959MA1101125098095REMMET08801/26/17 04:51:02 SPECI KMSP 261051Z 33013KT 10SM OVC039 M02/M06 A2986 RMK AO2 FIBI (PL)
0217726580149222017012610537+44883-093229FM-15+0255KMSP V0203205N00625011895MN0160935N5-00175-00615101225ADDAA101000095GA1085+011895999GD14991+0118959GE19MSL   +99999+99999GF199999999999011891999999MA1101125098095REMMET10001/26/17 04:53:02 METAR KMSP 261053Z 32012KT 10SM OVC039 M02/M06 A2986 RMK AO2 SLP122 T10171061 (PL)
0353726580149222017012611537+44883-093229FM-15+0255KMSP V0203205N00575010675MN0160935N5-00175-00565101265ADDAA101000095AA224001891AJ100059500051099GA1025+005795999GA2085+010675999GD11991+0057959GD24991+0106759GE19MSL   +99999+99999GF199999999999005791999999KA1060M-00111KA2060N-00221MA1101155098135MD1390129+9999REMMET13701/26/17 05:53:02 METAR KMSP 261153Z 32011KT 10SM FEW019 OVC035 M02/M06 A2987 RMK AO2 SLP126 4/002 70007 T10171056 11011 21022 53012 (PL)
0251726580149222017012612004+44883-093217FM-12+025599999V0203201N005719999999N016000199-00171-00561101261ADDAA124001831AJ100053100050099GA1999+004501999GE19MSL   +99999+99999GF108991999999004501999999KA1240M+00001KA2240N-00221MA1999999098011MD1310121+9999REMSYN09272658 32466 83211 11017 21056 39801 40126 53012 91153 333 10000 21022 4/005 70018 555 92612=
0275726580149222017012612277+44883-093229FM-16+0255KMSP V0203205N00775008235MN0160935N5-00225-00565999999ADDGA1025+005495999GA2075+008235999GA3085+009755999GD11991+0054959GD23991+0082359GD34991+0097559GE19MSL   +99999+99999GF199999999999005491999999MA1101195098165REMMET10701/26/17 06:27:02 SPECI KMSP 261227Z 32015KT 10SM FEW018 BKN027 OVC032 M02/M06 A2988 RMK AO2 T10221056 (PL)
0217726580149222017012612537+44883-093229FM-15+0255KMSP V0203105N00625007325MN0160935N5-00225-00565101335ADDAA101000095GA1085+007325999GD14991+0073259GE19MSL   +99999+99999GF199999999999007321999999MA1101225098195REMMET10001/26/17 06:53:02 METAR KMSP 261253Z 31012KT 10SM OVC024 M02/M06 A2989 RMK AO2 SLP133 T10221056 (PL)
0294726580149222017012613537+44883-093229FM-15+0255KMSP V0203105N00625008845MN0160935N5-00285-00615101415ADDAA101000095GA1025+006105999GA2075+008845999GA3085+013725999GD11991+0061059GD23991+0088459GD34991+0137259GE19MSL   +99999+99999GF199999999999006101999999MA1101295098265REMMET11501/26/17 07:53:02 METAR KMSP 261353Z 31012KT 10SM FEW020 BKN029 OVC045 M03/M06 A2991 RMK AO2 SLP141 T10281061 (CLB)
0276726580149222017012614137+44883-093229FM-16+0255KMSP V0203205N00575012505MN0160935N5-00285-00675999999ADDGA1025+005185999GA2045+006715999GA3085+012505999GD11991+0051859GD22991+0067159GD34991+0125059GE19MSL   +99999+99999GF199999999999005181999999MA1101325098295REMMET10801/26/17 08:13:02 SPECI KMSP 261413Z 32011KT 10SM FEW017 SCT022 OVC041 M03/M07 A2992 RMK AO2 T10281067 (CLB)
0276726580149222017012614537+44883-093229FM-15+0255KMSP V0203005N00625011285MN0160935N5-00285-00675101455ADDAA101000095GA1025+004885999GA2085+011285999GD11991+0048859GD24991+0112859GE19MSL   +99999+99999GF199999999999004881999999MA1101355098335MD1190199+9999REMMET11401/26/17 08:53:02 METAR KMSP 261453Z 30012KT 10SM FEW016 OVC037 M03/M07 A2993 RMK AO2 SLP145 T10281067 51019 (CLB)
0249726580149222017012615437+44883-093229FM-16+0255KMSP V0203105N00775005495MN0160935N5-00285-00675999999ADDGA1075+005495999GA2085+014945999GD13991+0054959GD24991+0149459GE19MSL   +99999+99999GF199999999999005491999999MA1101395098365OC101035REMMET10401/26/17 09:43:02 SPECI KMSP 261543Z 31015G20KT 10SM BKN018 OVC049 M03/M07 A2994 RMK AO2 T10281067 (CLB)
0256726580149222017012615537+44883-093229FM-15+0255KMSP V0203105N00775005495MN0160935N5-00285-00675101515ADDAA101000095GA1075+005495999GA2085+014945999GD13991+0054959GD24991+0149459GE19MSL   +99999+99999GF199999999999005491999999MA1101395098365REMMET10801/26/17 09:53:02 METAR KMSP 261553Z 31015KT 10SM BKN018 OVC049 M03/M07 A2994 RMK AO2 SLP151 T10281067 (CLB)
0238726580149222017012616137+44883-093229FM-16+0255KMSP V0203005N00625015245MN0160935N5-00285-00675999999ADDGA1045+005495999GA2085+015245999GD12991+0054959GD24991+0152459GE19MSL   +99999+99999GF199999999999005491999999MA1101395098365REMMET10101/26/17 10:13:02 SPECI KMSP 261613Z 30012KT 10SM SCT018 OVC050 M03/M07 A2994 RMK AO2 T10281067 (CLB)
0256726580149222017012616537+44883-093229FM-15+0255KMSP V0203005N00675016765MN0160935N5-00285-00675101545ADDAA101000095GA1045+005185999GA2075+016765999GD12991+0051859GD23991+0167659GE19MSL   +99999+99999GF199999999999005181999999MA1101425098395REMMET10801/26/17 10:53:02 METAR KMSP 261653Z 30013KT 10SM SCT017 BKN055 M03/M07 A2995 RMK AO2 SLP154 T10281067 (CLB)
0238726580149222017012617437+44883-093229FM-16+0255KMSP V0202905N00575005495MN0160935N5-00175-00615999999ADDGA1075+005495999GA2085+018295999GD13991+0054959GD24991+0182959GE19MSL   +99999+99999GF199999999999005491999999MA1101395098365REMMET10101/26/17 11:43:02 SPECI KMSP 261743Z 29011KT 10SM BKN018 OVC060 M02/M06 A2994 RMK AO2 T10171061 (CLB)
0337726580149222017012617537+44883-093229FM-15+0255KMSP V0203105N00515005795MN0160935N5-00225-00675101515ADDAA101000095AJ100059500051099GA1075+005795999GA2085+018295999GD13991+0057959GD24991+0182959GE19MSL   +99999+99999GF199999999999005791999999KA1060M-00171KA2060N-00281MA1101395098365MD1090059+9999REMMET13201/26/17 11:53:02 METAR KMSP 261753Z 31010KT 10SM BKN019 OVC060 M02/M07 A2994 RMK AO2 SLP151 4/002 T10221067 11017 21028 50005 (CLB)
0234726580149222017012618004+44883-093217FM-12+025599999V0203101N005119999999N016000199-00221-00671101511ADDAJ100053100050099GA1999+004501999GE19MSL   +99999+99999GF108991999999004501999999KA1120M-00111KA2120N-00281MA1999999098241MD1990051+9999REMSYN08672658 32466 83110 11022 21067 39824 40151 50005 91753 333 11011 21028 4/005 555 92618=
0238726580149222017012618097+44883-093229FM-16+0255KMSP V0203005N00625016765MN0160935N5-00175-00675999999ADDGA1045+005795999GA2085+016765999GD12991+0057959GD24991+0167659GE19MSL   +99999+99999GF199999999999005791999999MA1101395098365REMMET10101/26/17 12:09:02 SPECI KMSP 261809Z 30012KT 10SM SCT019 OVC055 M02/M07 A2994 RMK AO2 T10171067 (CLB)
0185726580149222017012618516+44883-093229FM-16+0255KMSP V0203005N00625006405MN0160935N5-00205-00705999999ADDGA1075+006405999GA2085+018295999GD13991+0064059GD24991+0182959MA1101355098335REMMET09601/26/17 12:51:02 SPECI KMSP 261851Z 30012KT 10SM BKN021 OVC060 M02/M07 A2993 RMK AO2 FIBI (CLB)
0256726580149222017012618537+44883-093229FM-15+0255KMSP V0203005N00575018295MN0160935N5-00175-00725101465ADDAA101000095GA1045+006405999GA2085+018295999GD12991+0064059GD24991+0182959GE19MSL   +99999+99999GF199999999999006401999999MA1101355098335REMMET10801/26/17 12:53:02 METAR KMSP 261853Z 30011KT 10SM SCT021 OVC060 M02/M07 A2993 RMK AO2 SLP146 T10171072 (CLB)
0256726580149222017012619537+44883-093229FM-15+0255KMSP V0202805N00675018295MN0160935N5-00175-00725101465ADDAA101000095GA1025+006715999GA2085+018295999GD11991+0067159GD24991+0182959GE19MSL   +99999+99999GF199999999999006711999999MA1101355098335REMMET10801/26/17 13:53:02 METAR KMSP 261953Z 28013KT 10SM FEW022 OVC060 M02/M07 A2993 RMK AO2 SLP146 T10171072 (CLB)
0276726580149222017012620537+44883-093229FM-15+0255KMSP V0202905N00575018295MN0160935N5-00175-00725101465ADDAA101000095GA1045+007015999GA2085+018295999GD12991+0070159GD24991+0182959GE19MSL   +99999+99999GF199999999999007011999999MA1101355098335MD1590049+9999REMMET11401/26/17 14:53:02 METAR KMSP 262053Z 29011KT 10SM SCT023 OVC060 M02/M07 A2993 RMK AO2 SLP146 T10171072 55004 (CLB)
0237726580149222017012621397+44883-093229FM-16+0255KMSP V0203005N00625007015MN0160935N5-00175-00675999999ADDGA1075+007015999GA2085+018295999GD13991+0070159GD24991+0182959GE19MSL   +99999+99999GF199999999999007011999999MA1101395098365REMMET10001/26/17 15:39:02 SPECI KMSP 262139Z 30012KT 10SM BKN023 OVC060 M02/M07 A2994 RMK AO2 T10171067 (NK)
0255726580149222017012621537+44883-093229FM-15+0255KMSP V0202905N00625007015MN0160935N5-00175-00725101515ADDAA101000095GA1075+007015999GA2085+018295999GD13991+0070159GD24991+0182959GE19MSL   +99999+99999GF199999999999007011999999MA1101395098365REMMET10701/26/17 15:53:02 METAR KMSP 262153Z 29012KT 10SM BKN023 OVC060 M02/M07 A2994 RMK AO2 SLP151 T10171072 (NK)
0217726580149222017012622537+44883-093229FM-15+0255KMSP V0202905N00575007015MN0160935N5-00285-00785101555ADDAA101000095GA1085+007015999GD14991+0070159GE19MSL   +99999+99999GF199999999999007011999999MA1101425098395REMMET10001/26/17 16:53:02 METAR KMSP 262253Z 29011KT 10SM OVC023 M03/M08 A2995 RMK AO2 SLP155 T10281078 (NK)
0428726580149222017012623537+44883-093229SY-MT+0255KMSP V0202805N00575007015MN0160935N5-00335-00835101585ADDAA101000095AJ100059500050099GA1075+007015999GA2085+015245999GD13991+0070159GD24991+0152459GE19MSL   +99999+99999GF108991999999008001999999KA1120M-00171KA2120N-00331MA1101495098465MD1190129+9999REMSYN08672658 32566 82811 11033 21083 39834 40158 51012 92353 333 11017 21033 4/005 555 92700=MET13101/26/17 17:53:02 METAR KMSP 262353Z 28011KT 10SM BKN023 OVC050 M03/M08 A2997 RMK AO2 SLP158 4/002 T10331083 11017 21033 51012 (NK)
0250726580149222017012700537+44883-093229FM-15+0255KMSP V0202905N00465006715MN0160935N5-00395-00835101615ADDAA101000095GA1075+006715999GA2085+014335999GD13991+0067159GD24991+0143359GE19MSL   +99999+99999GF199999999999006711999999MA1101495098465REMMET10201/26/17 18:53:01 METAR KMSP 270053Z 29009KT 10SM BKN022 OVC047 M04/M08 A2997 RMK AO2 SLP161 T10391083
0250726580149222017012701537+44883-093229FM-15+0255KMSP V0202805N00365006105MN0160935N5-00445-00895101605ADDAA101000095GA1075+006105999GA2085+014635999GD13991+0061059GD24991+0146359GE19MSL   +99999+99999GF199999999999006101999999MA1101495098465REMMET10201/26/17 19:53:01 METAR KMSP 270153Z 28007KT 10SM BKN020 OVC048 M04/M09 A2997 RMK AO2 SLP160 T10441089
0232726580149222017012702537+44883-093229FM-15+0255KMSP V0202905N00465007015MN0160935N5-00445-00895101585ADDAA101000095GA1085+007015999GD14991+0070159GE19MSL   +99999+99999GF199999999999007011999999MA1101465098435MD1890019+9999REMMET10101/26/17 20:53:02 METAR KMSP 270253Z 29009KT 10SM OVC023 M04/M09 A2996 RMK AO2 SLP158 T10441089 58001
0164726580149222017012703536+44883-093229FM-15+0255KMSP V0203105N00415006105MN0160935N5-00445-00895101575ADDAA101000095GA1085+006105999GD14991+0061059MA1101465098435REMMET09501/26/17 21:53:02 METAR KMSP 270353Z 31008KT 10SM OVC020 M04/M09 A2996 RMK AO2 SLP157 T10441089
0202726580149222017012704536+44883-093229FM-15+0255KMSP V0203105N00465006105MN0160935N5-00445-00895101555ADDAA101000095GA1075+006105999GA2085+012505999GD13991+0061059GD24991+0125059MA1101425098395REMMET10201/26/17 22:53:02 METAR KMSP 270453Z 31009KT 10SM BKN020 OVC041 M04/M09 A2995 RMK AO2 SLP155 T10441089
0184726580149222017012705036+44883-093229FM-16+0255KMSP V0203205N00515012505MN0160935N5-00445-00895999999ADDGA1045+006405999GA2085+012505999GD12991+0064059GD24991+0125059MA1101465098435REMMET09501/26/17 23:03:02 SPECI KMSP 270503Z 32010KT 10SM SCT021 OVC041 M04/M09 A2996 RMK AO2 T10441089
0395726580149222017012705537+44883-093229SY-MT+0255KMSP V0203105N00465011285MN0160935N5-00505-00945101565ADDAA101000095AJ100059500050099GA1085+011285999GD14991+0112859GE19MSL   +99999+99999GF108991999999012501999999KA1240M-00111KA2240N-00501MA1101425098395MD1590029+9999REMSYN08672658 32666 83109 11050 21094 39827 40156 55002 90553 333 11011 21050 4/005 555 92706=MET12901/26/17 23:53:02 METAR KMSP 270553Z 31009KT 10SM OVC037 M05/M09 A2995 RMK AO2 SLP156 4/002 T10501094 11033 21050 410111050 55002
0926726580149222017012705596+44883-093229SOD  +0255KMSP V020999999999999999999999999999+99999+99999999999ADDAA124000095AJ100059599999999AL12400095AN1024000095KA1240M-00105KA2240N-00495MG1098324101054OE11240107334099995OE22240080531099995OE33240056899999995REMSOD76624 HR PRECIPITATION (IN): 0.00 SNOW DEPTH (IN):2     24 HR SNOWFALL (IN):0.0  24 HR MAX TEMP (F): 3024 HR MIN TEMP (F): 23AVERAGE STATION PRESSURE:29.035 MINIMUM SEA LEVEL PRESSURE:29.84 TIME OF OCCURRENCE:0057 PEAK WIND SPEED (MPH): 24 PEAK WIND DIR (DEG):340 PEAK WIND TIME (LST):      FASTEST 2MIN SPEED (MPH): 18FASTEST 2MIN DIR (DEG):310 FASTEST 2MIN TIME (LST):     AVERAGE WIND SPEED (MPH):12.7 24 HR AVG TEMP (F): 27DEPART FROM NORMAL: 11  SKY COVER SR-SS (TENTHS): 1HEATING DEGREE DAYS: 38 COOLING DEGREE DAYS:  0 LATEST DAY MAX TEMP (0700-1900 LST):29  LATEST NIGHT MIN TEMP(1900-0800 LST):27 HOURLY INCREMENTAL PRECIPITATION VALUES (IN):.00 0.00 0.00 0.00 0.00 0.00 0.00 0.00 0.00 0.00 0.00 0.00 0.00 0.00 0.00 0.00 0.00 0.00 0.00 0.00 0.00 0.00 0.00 0.00
0184726580149222017012706516+44883-093229FM-16+0255KMSP V0203005N00415006405MN0160935N5-00605-01005999999ADDGA1075+006405999GA2085+008535999GD13991+0064059GD24991+0085359MA1101425098395REMMET09501/27/17 00:51:02 SPECI KMSP 270651Z 30008KT 10SM BKN021 OVC028 M06/M10 A2995 RMK AO2 FIBI (PL)
0169726580149222017012706536+44883-093229FM-15+0255KMSP V0203005N00415007015MN0160935N5-00565-01005101545ADDAA101000095GA1085+007015999GD14991+0070159MA1101425098395REMMET10001/27/17 00:53:02 METAR KMSP 270653Z 30008KT 10SM OVC023 M06/M10 A2995 RMK AO2 SLP154 T10561100 (PL)
0169726580149222017012707536+44883-093229FM-15+0255KMSP V0203005N00465007925MN0160935N5-00565-01005101505ADDAA101000095GA1085+007925999GD14991+0079259MA1101395098365REMMET10001/27/17 01:53:02 METAR KMSP 270753Z 30009KT 10SM OVC026 M06/M10 A2994 RMK AO2 SLP150 T10561100 (PL)
0146726580149222017012708516+44883-093229FM-16+0255KMSP V0202905N00515009145MN0160935N5-00605-00905999999ADDGA1085+009145999GD14991+0091459MA1101395098365REMMET08801/27/17 02:51:02 SPECI KMSP 270851Z 29010KT 10SM OVC030 M06/M09 A2994 RMK AO2 FIBI (PL)
0237726580149222017012708537+44883-093229FM-15+0255KMSP V0203005N00415009145MN0160935N5-00565-00945101495ADDAA101000095GA1085+009145999GD14991+0091459GE19MSL   +99999+99999GF199999999999009141999999MA1101395098365MD1690069+9999REMMET10601/27/17 02:53:02 METAR KMSP 270853Z 30008KT 10SM OVC030 M06/M09 A2994 RMK AO2 SLP149 T10561094 56006 (PL)
0146726580149222017012709516+44883-093229FM-16+0255KMSP V0202805N00415008235MN0160935N5-00605-00905999999ADDGA1085+008235999GD14991+0082359MA1101355098335REMMET08801/27/17 03:51:02 SPECI KMSP 270951Z 28008KT 10SM OVC027 M06/M09 A2993 RMK AO2 FIBI (PL)
0217726580149222017012709537+44883-093229FM-15+0255KMSP V0202805N00365008235MN0160935N5-00565-00945101465ADDAA101000095GA1085+008235999GD14991+0082359GE19MSL   +99999+99999GF199999999999008231999999MA1101355098335REMMET10001/27/17 03:53:02 METAR KMSP 270953Z 28007KT 10SM OVC027 M06/M09 A2993 RMK AO2 SLP146 T10561094 (PL)
0255726580149222017012710537+44883-093229FM-15+0255KMSP V0202905N00575005495MN0160935N5-00565-00945101455ADDAA101000095GA1075+005495999GA2085+008845999GD13991+0054959GD24991+0088459GE19MSL   +99999+99999GF199999999999005491999999MA1101325098295REMMET10701/27/17 04:53:02 METAR KMSP 271053Z 29011KT 10SM BKN018 OVC029 M06/M09 A2992 RMK AO2 SLP145 T10561094 (PL)
0298726580149222017012711537+44883-093229FM-15+0255KMSP V0203005N00625004575MN0160935N5-00615-01005101425ADDAA101000095AJ100059500051099GA1085+004575999GD14991+0045759GE19MSL   +99999+99999GF199999999999004571999999KA1060M-00501KA2060N-00611MA1101295098265MD1690089+9999REMMET12401/27/17 05:53:02 METAR KMSP 271153Z 30012KT 10SM OVC015 M06/M10 A2991 RMK AO2 SLP142 4/002 T10611100 11050 21061 56008 (PL)
0234726580149222017012712004+44883-093217FM-12+025599999V0203001N006219999999N016000199-00611-01001101421ADDAJ100053100050099GA1999+004501999GE19MSL   +99999+99999GF108991999999004501999999KA1240M-00111KA2240N-00611MA1999999098141MD1610081+9999REMSYN08672658 32466 83012 11061 21100 39814 40142 56008 91153 333 11011 21061 4/005 555 92712=
0199726580149222017012712247+44883-093229FM-16+0255KMSP V0203005N00415004275MN0160935N5-00675-01005999999ADDGA1085+004275999GD14991+0042759GE19MSL   +99999+99999GF199999999999004271999999MA1101295098265REMMET09301/27/17 06:24:02 SPECI KMSP 271224Z 30008KT 10SM OVC014 M07/M10 A2991 RMK AO2 T10671100 (PL)
0217726580149222017012712537+44883-093229FM-15+0255KMSP V0202605N00365003965MN0160935N5-00725-01005101425ADDAA101000095GA1085+003965999GD14991+0039659GE19MSL   +99999+99999GF199999999999003961999999MA1101295098265REMMET10001/27/17 06:53:02 METAR KMSP 271253Z 26007KT 10SM OVC013 M07/M10 A2991 RMK AO2 SLP142 T10721100 (PL)
0256726580149222017012713537+44883-093229FM-15+0255KMSP V0202605N00575076205MN0160935N5-00785-01065101395ADDAA101000095GA1045+003355999GA2075+076205999GD12991+0033559GD23991+0762059GE19MSL   +99999+99999GF199999999999003351999999MA1101255098235REMMET10801/27/17 07:53:02 METAR KMSP 271353Z 26011KT 10SM SCT011 BKN250 M08/M11 A2990 RMK AO2 SLP139 T10781106 (CLB)
0276726580149222017012714537+44883-093229FM-15+0255KMSP V0202405N00415076205MN0160935N5-00785-01175101335ADDAA101000095GA1045+030485999GA2075+076205999GD12991+0304859GD23991+0762059GE19MSL   +99999+99999GF199999999999030481999999MA1101195098165MD1890109+9999REMMET11401/27/17 08:53:02 METAR KMSP 271453Z 24008KT 10SM SCT100 BKN250 M08/M12 A2988 RMK AO2 SLP133 T10781117 58010 (CLB)
0224726580149222017012715537+44883-093229FM-15+0255KMSP V0202605N00365036585MN0160935N5-00725-01175101335ADDAA101000095GA1075+036585999GD13991+0365859GE19MSL   +99999+99999GF199999999999036581999999MA1101195098165REMMET10701/27/17 09:53:02 METAR KMSP 271553Z 26007KT 10SM BKN120 M07/M12 A2988 RMK AO2 SLP133 VIRGA T10721117 (CLB)
0237726580149222017012716537+44883-093229FM-15+0255KMSP V0202605N003652200059N0160935N5-00615-01115101315ADDAA101000095GA1045+045725999GD12991+0457259GE19AGL   +99999+99999GF104995999999045721999999MA1101195098165REMMET10101/27/17 10:53:02 METAR KMSP 271653Z 26007KT 10SM SCT150 M06/M11 A2988 RMK AO2 SLP131 T10611111 (CLB)EQDD01      0ADE726
0318726580149222017012717537+44883-093229FM-15+0255KMSP V0202905N004652200059N0160935N5-00395-01005101235ADDAA101000095AJ100059500051099GA1025+045725999GD11991+0457259GE19AGL   +99999+99999GF102995999999045721999999KA1060M-00391KA2060N-00831MA1101125098095MD1890099+9999REMMET12501/27/17 11:53:02 METAR KMSP 271753Z 29009KT 10SM FEW150 M04/M10 A2986 RMK AO2 SLP123 4/002 T10391100 11039 21083 58009 (CLB)EQDD01      0ADE726
0218726580149222017012718004+44883-093217FM-12+025599999V0202901N004619999999N016000199-00391-01001101231ADDAJ100053100050099GE19MSL   +99999+99999GF102991999999999999999999KA1120M-00391KA2120N-00831MA1999999097981MD1810091+9999REMSYN08672658 32966 22909 11039 21100 39798 40123 58009 91753 333 11039 21083 4/005 555 92718=
0256726580149222017012718537+44883-093229FM-15+0255KMSP V0202705N00415042675MN0160935N5-00285-00945101125ADDAA101000095GA1025+036585999GA2075+042675999GD11991+0365859GD23991+0426759GE19MSL   +99999+99999GF199999999999036581999999MA1100985097965REMMET10801/27/17 12:53:02 METAR KMSP 271853Z 27008KT 10SM FEW120 BKN140 M03/M09 A2982 RMK AO2 SLP112 T10281094 (CLB)
0275726580149222017012719537+44883-093229FM-15+0255KMSP V0202605N003652200059N0160935N5-00175-00835101055ADDAA101000095GA1025+030485999GA2025+042675999GD11991+0304859GD21991+0426759GE19AGL   +99999+99999GF102995999999030481999999MA1100955097935REMMET10801/27/17 13:53:02 METAR KMSP 271953Z 26007KT 10SM FEW100 FEW140 M02/M08 A2981 RMK AO2 SLP105 T10171083 (CLB)EQDD01      0ADE726
0238726580149222017012720237+44883-093229FM-16+0255KMSP V0202705N00365007325MN0160935N5-00175-00785999999ADDGA1075+007325999GA2075+042675999GD13991+0073259GD23991+0426759GE19MSL   +99999+99999GF199999999999007321999999MA1100915097905REMMET10101/27/17 14:23:02 SPECI KMSP 272023Z 27007KT 10SM BKN024 BKN140 M02/M08 A2980 RMK AO2 T10171078 (CLB)
0257726580149222017012720537+44883-093229FM-15+0255KMSP V0202705N006252200059N0160935N5-00115-00725101055ADDAA101000095GA1045+007015999GD12991+0070159GE19AGL   +99999+99999GF104995999999007011999999MA1100955097935MD1690169+9999REMMET10701/27/17 14:53:02 METAR KMSP 272053Z 27012KT 10SM SCT023 M01/M07 A2981 RMK AO2 SLP105 T10111072 56016 (CLB)EQDD01      0ADE726
0236726580149222017012721537+44883-093229FM-15+0255KMSP V0202905N005152200059N0160935N5-00065-00675101035ADDAA101000095GA1025+007015999GD11991+0070159GE19AGL   +99999+99999GF102995999999007011999999MA1100915097905REMMET10001/27/17 15:53:02 METAR KMSP 272153Z 29010KT 10SM FEW023 M01/M07 A2980 RMK AO2 SLP103 T10061067 (NK)EQDD01      0ADE726
0192726580149222017012722537+44883-093229FM-15+0255KMSP V0202805N005152200059N0160935N5-00115-00675101045ADDAA101000095GA1005+999999999GD10991+9999999GF100991999999999999999999MA1100915097905REMMET09701/27/17 16:53:02 METAR KMSP 272253Z 28010KT 10SM CLR M01/M07 A2980 RMK AO2 SLP104 T10111067 (NK)
0273726580149222017012723537+44883-093229FM-15+0255KMSP V0202805N004152200059N0160935N5-00175-00675101085ADDAA101000095AJ100039500025099GA1005+999999999GD10991+9999999GF100991999999999999999999KA1060M-00061KA2060N-00391MA1100955097935MD1390029+9999REMMET12101/27/17 17:53:02 METAR KMSP 272353Z 28008KT 10SM CLR M02/M07 A2981 RMK AO2 SLP108 4/001 T10171067 11006 21039 53002 (NK)
0170726580149222017012800004+44883-093217FM-12+025599999V0202801N004119999999N016000199-00171-00671101081ADDAJ100033100030099KA1120M-00061KA2120N-00611MA1999999097811MD1310021+9999REMSYN08672658 32966 02808 11017 21067 39781 40108 53002 92353 333 11006 21061 4/003 555 92800=
0189726580149222017012800537+44883-093229FM-15+0255KMSP V0202905N004152200059N0160935N5-00225-00615101095ADDAA101000095GA1005+999999999GD10991+9999999GF100991999999999999999999MA1100955097935REMMET09401/27/17 18:53:01 METAR KMSP 280053Z 29008KT 10SM CLR M02/M06 A2981 RMK AO2 SLP109 T10221061 $
0189726580149222017012801537+44883-093229FM-15+0255KMSP V0202805N004652200059N0160935N5-00225-00615101085ADDAA101000095GA1005+999999999GD10991+9999999GF100991999999999999999999MA1100955097935REMMET09401/27/17 19:53:01 METAR KMSP 280153Z 28009KT 10SM CLR M02/M06 A2981 RMK AO2 SLP108 T10221061 $
0209726580149222017012802537+44883-093229FM-15+0255KMSP V0202805N004652200059N0160935N5-00285-00675101065ADDAA101000095GA1005+999999999GD10991+9999999GF100991999999999999999999MA1100955097935MD1890019+9999REMMET10001/27/17 20:53:02 METAR KMSP 280253Z 28009KT 10SM CLR M03/M07 A2981 RMK AO2 SLP106 T10281067 58001 $
0189726580149222017012803537+44883-093229FM-15+0255KMSP V0202805N005152200059N0160935N5-00335-00675101065ADDAA101000095GA1005+999999999GD10991+9999999GF100991999999999999999999MA1100955097935REMMET09401/27/17 21:53:02 METAR KMSP 280353Z 28010KT 10SM CLR M03/M07 A2981 RMK AO2 SLP106 T10331067 $
0233726580149222017012804537+44883-093229FM-15+0255KMSP V0202905N003652200059N0160935N5-00395-00675101055ADDAA101000095GA1045+067065999GD12991+0670659GE19AGL   +99999+99999GF104995999999067061999999MA1100915097905REMMET09701/27/17 22:53:02 METAR KMSP 280453Z 29007KT 10SM SCT220 M04/M07 A2980 RMK AO2 SLP105 T10391067 $EQDD01      0ADE726
0331726580149222017012805537+44883-093229FM-15+0255KMSP V0202905N00315067065MN0160935N5-00395-00725101055ADDAA101000095AJ100039500025099GA1075+067065999GD13991+0670659GE19MSL   +99999+99999GF199999999999067061999999KA1060M-00171KA2060N-00391KA3240M-00061KA4240N-00831MA1100915097905MD1890019+9999REMMET13101/27/17 23:53:02 METAR KMSP 280553Z 29006KT 10SM BKN220 M04/M07 A2980 RMK AO2 SLP105 4/001 T10391072 11017 21039 410061083 58001 $
0899726580149222017012805596+44883-093229SOD  +0255KMSP V020999999999999999999999999999+99999+99999999999ADDAA124000095AJ100059599999999AL12400095AN1024000095KA1240M-00055KA2240N-00825MG1098044101024OE11240089428099995OE22240071527099995OE33240044799999995REMSOD73924 HR PRECIPITATION (IN): 0.00 SNOW DEPTH (IN):2     24 HR SNOWFALL (IN):0.0  24 HR MAX TEMP (F): 3124 HR MIN TEMP (F): 17AVERAGE STATION PRESSURE:28.950 MINIMUM SEA LEVEL PRESSURE:29.83 TIME OF OCCURRENCE:1659 PEAK WIND SPEED (MPH): 20 PEAK WIND DIR (DEG):280 PEAK WIND TIME (LST):      FASTEST 2MIN SPEED (MPH): 16FASTEST 2MIN DIR (DEG):270 FASTEST 2MIN TIME (LST):     AVERAGE WIND SPEED (MPH):10.0 24 HR AVG TEMP (F): 24DEPART FROM NORMAL:  8  HEATING DEGREE DAYS: 41 COOLING DEGREE DAYS:  0 LATEST DAY MAX TEMP (0700-1900 LST):31  LATEST NIGHT MIN TEMP(1900-0800 LST):18 HOURLY INCREMENTAL PRECIPITATION VALUES (IN):.00 0.00 0.00 0.00 0.00 0.00 0.00 0.00 0.00 0.00 0.00 0.00 0.00 0.00 0.00 0.00 0.00 0.00 0.00 0.00 0.00 0.00 0.00 0.00
0218726580149222017012806004+44883-093217FM-12+025599999V0202901N003119999999N016000199-00391-00721101051ADDAJ100033100030099GE19MSL   +99999+99999GF106991999999999999999999KA1240M-00171KA2240N-00611MA1999999097781MD1810011+9999REMSYN08672658 32966 62906 11039 21072 39778 40105 58001 90553 333 11017 21061 4/003 555 92806=
0219726580149222017012806537+44883-093229FM-15+0255KMSP V0203005N00415060965MN0160935N5-00395-00725101065ADDAA101000095GA1085+060965999GD14991+0609659GE19MSL   +99999+99999GF199999999999060961999999MA1100955097935REMMET10201/28/17 00:53:02 METAR KMSP 280653Z 30008KT 10SM OVC200 M04/M07 A2981 RMK AO2 SLP106 T10391072 $ (PL)
0238726580149222017012807537+44883-093229FM-15+0255KMSP V0202805N003152200059N0160935N5-00395-00785101025ADDAA101000095GA1045+057915999GD12991+0579159GE19AGL   +99999+99999GF104995999999057911999999MA1100915097905REMMET10201/28/17 01:53:02 METAR KMSP 280753Z 28006KT 10SM SCT190 M04/M08 A2980 RMK AO2 SLP102 T10391078 $ (PL)EQDD01      0ADE726
0258726580149222017012808537+44883-093229FM-15+0255KMSP V0202705N003152200059N0160935N5-00445-00785101005ADDAA101000095GA1045+057915999GD12991+0579159GE19AGL   +99999+99999GF104995999999057911999999MA1100885097865MD1890049+9999REMMET10801/28/17 02:53:02 METAR KMSP 280853Z 27006KT 10SM SCT190 M04/M08 A2979 RMK AO2 SLP100 T10441078 58004 $ (PL)EQDD01      0ADE726
0238726580149222017012809537+44883-093229FM-15+0255KMSP V0203005N003152200059N0160935N5-00505-00785101035ADDAA101000095GA1045+057915999GD12991+0579159GE19AGL   +99999+99999GF104995999999057911999999MA1100915097905REMMET10201/28/17 03:53:02 METAR KMSP 280953Z 30006KT 10SM SCT190 M05/M08 A2980 RMK AO2 SLP103 T10501078 $ (PL)EQDD01      0ADE726
0201726580149222017012810387+44883-093229FM-16+0255KMSP V0203105N00515004885MN0160935N5-00395-00725999999ADDGA1075+004885999GD13991+0048859GE19MSL   +99999+99999GF199999999999004881999999MA1100915097905REMMET09501/28/17 04:38:02 SPECI KMSP 281038Z 31010KT 10SM BKN016 M04/M07 A2980 RMK AO2 T10391072 $ (PL)
0230726580149222017012810537+44883-093229FM-15+0255KMSP V0203305N00625004885MN0160935N5-00395-00725101035ADDAA101000095GA1085+004885999GD14991+0048859GE19MSL   +99999+99999GF199999999999004881999999MA1100915097905OC101085REMMET10501/28/17 04:53:02 METAR KMSP 281053Z 33012G21KT 10SM OVC016 M04/M07 A2980 RMK AO2 SLP103 T10391072 $ (PL)
0300726580149222017012811537+44883-093229FM-15+0255KMSP V0203305N00575004885MN0160935N5-00395-00725101065ADDAA101000095AJ100039500025099GA1085+004885999GD14991+0048859GE19MSL   +99999+99999GF199999999999004881999999KA1060M-00391KA2060N-00501MA1100955097935MD1190069+9999REMMET12601/28/17 05:53:02 METAR KMSP 281153Z 33011KT 10SM OVC016 M04/M07 A2981 RMK AO2 SLP106 4/001 T10391072 11039 21050 51006 $ (PL)
0234726580149222017012812004+44883-093217FM-12+025599999V0203301N005719999999N016000199-00391-00721101061ADDAJ100033100030099GA1999+004501999GE19MSL   +99999+99999GF108991999999004501999999KA1240M-00061KA2240N-00501MA1999999097811MD1110061+9999REMSYN08672658 32466 83311 11039 21072 39781 40106 51006 91153 333 11006 21050 4/003 555 92812=
0219726580149222017012812537+44883-093229FM-15+0255KMSP V0203305N00725004885MN0160935N5-00395-00725101095ADDAA101000095GA1085+004885999GD14991+0048859GE19MSL   +99999+99999GF199999999999004881999999MA1100985097965REMMET10201/28/17 06:53:02 METAR KMSP 281253Z 33014KT 10SM OVC016 M04/M07 A2982 RMK AO2 SLP109 T10391072 $ (PL)
0220726580149222017012813537+44883-093229FM-15+0255KMSP V0203305N00515005185MN0160935N5-00395-00785101135ADDAA101000095GA1085+005185999GD14991+0051859GE19MSL   +99999+99999GF199999999999005181999999MA1101025098005REMMET10301/28/17 07:53:02 METAR KMSP 281353Z 33010KT 10SM OVC017 M04/M08 A2983 RMK AO2 SLP113 T10391078 $ (TNP)
0240726580149222017012814537+44883-093229FM-15+0255KMSP V0203305N00575005185MN0160935N5-00335-00725101165ADDAA101000095GA1085+005185999GD14991+0051859GE19MSL   +99999+99999GF199999999999005181999999MA1101055098035MD1390109+9999REMMET10901/28/17 08:53:02 METAR KMSP 281453Z 33011KT 10SM OVC017 M03/M07 A2984 RMK AO2 SLP116 T10331072 53010 $ (TNP)
0220726580149222017012815537+44883-093229FM-15+0255KMSP V0203305N00725005495MN0160935N5-00335-00785101225ADDAA101000095GA1085+005495999GD14991+0054959GE19MSL   +99999+99999GF199999999999005491999999MA1101125098095REMMET10301/28/17 09:53:02 METAR KMSP 281553Z 33014KT 10SM OVC018 M03/M08 A2986 RMK AO2 SLP122 T10331078 $ (TNP)
0220726580149222017012816537+44883-093229FM-15+0255KMSP V0203205N00415006715MN0160935N5-00285-00725101195ADDAA101000095GA1085+006715999GD14991+0067159GE19MSL   +99999+99999GF199999999999006711999999MA1101085098065REMMET10301/28/17 10:53:02 METAR KMSP 281653Z 32008KT 10SM OVC022 M03/M07 A2985 RMK AO2 SLP119 T10281072 $ (TNP)
0301726580149222017012817537+44883-093229FM-15+0255KMSP V0203105N00625006405MN0160935N5-00285-00785101165ADDAA101000095AJ100039500025099GA1085+006405999GD14991+0064059GE19MSL   +99999+99999GF199999999999006401999999KA1060M-00281KA2060N-00391MA1101055098035MD1090009+9999REMMET12701/28/17 11:53:02 METAR KMSP 281753Z 31012KT 10SM OVC021 M03/M08 A2984 RMK AO2 SLP116 4/001 T10281078 11028 21039 50000 $ (TNP)
0234726580149222017012818004+44883-093217FM-12+025599999V0203101N006219999999N016000199-00281-00781101161ADDAJ100033100030099GA1999+008001999GE19MSL   +99999+99999GF108991999999008001999999KA1120M-00281KA2120N-00391MA1999999097911MD1990001+9999REMSYN08672658 32566 83112 11028 21078 39791 40116 50000 91753 333 11028 21039 4/003 555 92818=
0220726580149222017012818537+44883-093229FM-15+0255KMSP V0203305N00575006715MN0160935N5-00225-00785101135ADDAA101000095GA1085+006715999GD14991+0067159GE19MSL   +99999+99999GF199999999999006711999999MA1101025098005REMMET10301/28/17 12:53:02 METAR KMSP 281853Z 33011KT 10SM OVC022 M02/M08 A2983 RMK AO2 SLP113 T10221078 $ (TNP)
0220726580149222017012819537+44883-093229FM-15+0255KMSP V0203105N00465007015MN0160935N5-00225-00785101075ADDAA101000095GA1085+007015999GD14991+0070159GE19MSL   +99999+99999GF199999999999007011999999MA1100955097935REMMET10301/28/17 13:53:02 METAR KMSP 281953Z 31009KT 10SM OVC023 M02/M08 A2981 RMK AO2 SLP107 T10221078 $ (TNP)
0240726580149222017012820537+44883-093229FM-15+0255KMSP V0203105N00465007015MN0160935N5-00225-00725101095ADDAA101000095GA1085+007015999GD14991+0070159GE19MSL   +99999+99999GF199999999999007011999999MA1100985097965MD1590079+9999REMMET10901/28/17 14:53:02 METAR KMSP 282053Z 31009KT 10SM OVC023 M02/M07 A2982 RMK AO2 SLP109 T10221072 55007 $ (TNP)
0219726580149222017012821537+44883-093229FM-15+0255KMSP V0203205N00625007015MN0160935N5-00285-00785101145ADDAA101000095GA1085+007015999GD14991+0070159GE19MSL   +99999+99999GF199999999999007011999999MA1101025098005REMMET10201/28/17 15:53:02 METAR KMSP 282153Z 32012KT 10SM OVC023 M03/M08 A2983 RMK AO2 SLP114 T10281078 $ (NK)
0219726580149222017012822537+44883-093229FM-15+0255KMSP V0203005N00625006405MN0160935N5-00335-00785101145ADDAA101000095GA1085+006405999GD14991+0064059GE19MSL   +99999+99999GF199999999999006401999999MA1101025098005REMMET10201/28/17 16:53:02 METAR KMSP 282253Z 30012KT 10SM OVC021 M03/M08 A2983 RMK AO2 SLP114 T10331078 $ (NK)
0300726580149222017012823537+44883-093229FM-15+0255KMSP V0203205N00415006715MN0160935N5-00335-00835101185ADDAA101000095AJ100039500025099GA1085+006715999GD14991+0067159GE19MSL   +99999+99999GF199999999999006711999999KA1060M-00221KA2060N-00331MA1101085098065MD1190099+9999REMMET12601/28/17 17:53:02 METAR KMSP 282353Z 32008KT 10SM OVC022 M03/M08 A2985 RMK AO2 SLP118 4/001 T10331083 11022 21033 51009 $ (NK)
0234726580149222017012900004+44883-093217FM-12+025599999V0203201N004119999999N016000199-00331-00831101181ADDAJ100033100030099GA1999+008001999GE19MSL   +99999+99999GF108991999999008001999999KA1120M-00221KA2120N-00501MA1999999097941MD1110091+9999REMSYN08672658 32566 83208 11033 21083 39794 40118 51009 92353 333 11022 21050 4/003 555 92900=
0214726580149222017012900537+44883-093229FM-15+0255KMSP V0203305N00515006715MN0160935N5-00335-00835101195ADDAA101000095GA1085+006715999GD14991+0067159GE19MSL   +99999+99999GF199999999999006711999999MA1101085098065REMMET09701/28/17 18:53:01 METAR KMSP 290053Z 33010KT 10SM OVC022 M03/M08 A2985 RMK AO2 SLP119 T10331083 $
0214726580149222017012901537+44883-093229FM-15+0255KMSP V0203205N00725006405MN0160935N5-00335-00835101215ADDAA101000095GA1085+006405999GD14991+0064059GE19MSL   +99999+99999GF199999999999006401999999MA1101085098065REMMET09701/28/17 19:53:01 METAR KMSP 290153Z 32014KT 10SM OVC021 M03/M08 A2985 RMK AO2 SLP121 T10331083 $
0234726580149222017012902537+44883-093229FM-15+0255KMSP V0203405N00465006715MN0160935N5-00395-00835101195ADDAA101000095GA1085+006715999GD14991+0067159GE19MSL   +99999+99999GF199999999999006711999999MA1101085098065MD1090019+9999REMMET10301/28/17 20:53:02 METAR KMSP 290253Z 34009KT 10SM OVC022 M04/M08 A2985 RMK AO2 SLP119 T10391083 50001 $
0214726580149222017012903537+44883-093229FM-15+0255KMSP V0203205N00415007325MN0160935N5-00395-00895101215ADDAA101000095GA1085+007325999GD14991+0073259GE19MSL   +99999+99999GF199999999999007321999999MA1101085098065REMMET09701/28/17 21:53:02 METAR KMSP 290353Z 32008KT 10SM OVC024 M04/M09 A2985 RMK AO2 SLP121 T10391089 $
0214726580149222017012904537+44883-093229FM-15+0255KMSP V0203305N00515007015MN0160935N5-00395-00895101205ADDAA101000095GA1085+007015999GD14991+0070159GE19MSL   +99999+99999GF199999999999007011999999MA1101085098065REMMET09701/28/17 22:53:02 METAR KMSP 290453Z 33010KT 10SM OVC023 M04/M09 A2985 RMK AO2 SLP120 T10391089 $
0331726580149222017012905537+44883-093229FM-15+0255KMSP V0203305N00675007015MN0160935N5-00445-00945101235ADDAA101000095AJ100039500025099GA1085+007015999GD14991+0070159GE19MSL   +99999+99999GF199999999999007011999999KA1060M-00331KA2060N-00441KA3240M-00221KA4240N-00501MA1101125098095MD1390049+9999REMMET13101/28/17 23:53:02 METAR KMSP 290553Z 33013KT 10SM OVC023 M04/M09 A2986 RMK AO2 SLP123 4/001 T10441094 11033 21044 410221050 53004 $
0899726580149222017012905596+44883-093229SOD  +0255KMSP V020999999999999999999999999999+99999+99999999999ADDAA124000095AJ100039599999999AL12400095AN1024000095KA1240M-00215KA2240N-00495MG1098004100984OE11240120733099995OE22240093933099995OE33240051999999995REMSOD73924 HR PRECIPITATION (IN): 0.00 SNOW DEPTH (IN):1     24 HR SNOWFALL (IN):0.0  24 HR MAX TEMP (F): 2824 HR MIN TEMP (F): 23AVERAGE STATION PRESSURE:28.940 MINIMUM SEA LEVEL PRESSURE:29.82 TIME OF OCCURRENCE:0253 PEAK WIND SPEED (MPH): 27 PEAK WIND DIR (DEG):330 PEAK WIND TIME (LST):      FASTEST 2MIN SPEED (MPH): 21FASTEST 2MIN DIR (DEG):330 FASTEST 2MIN TIME (LST):     AVERAGE WIND SPEED (MPH):11.6 24 HR AVG TEMP (F): 26DEPART FROM NORMAL: 10  HEATING DEGREE DAYS: 39 COOLING DEGREE DAYS:  0 LATEST DAY MAX TEMP (0700-1900 LST):28  LATEST NIGHT MIN TEMP(1900-0800 LST):23 HOURLY INCREMENTAL PRECIPITATION VALUES (IN):.00 0.00 0.00 0.00 0.00 0.00 0.00 0.00 0.00 0.00 0.00 0.00 0.00 0.00 0.00 0.00 0.00 0.00 0.00 0.00 0.00 0.00 0.00 0.00
0234726580149222017012906004+44883-093217FM-12+025599999V0203301N006719999999N016000199-00441-00941101231ADDAJ100033100030099GA1999+008001999GE19MSL   +99999+99999GF108991999999008001999999KA1240M-00331KA2240N-00501MA1999999097981MD1310041+9999REMSYN08672658 32566 83313 11044 21094 39798 40123 53004 90553 333 11033 21050 4/003 555 92906=
0219726580149222017012906537+44883-093229FM-15+0255KMSP V0203405N00365007325MN0160935N5-00445-00945101205ADDAA101000095GA1085+007325999GD14991+0073259GE19MSL   +99999+99999GF199999999999007321999999MA1101085098065REMMET10201/29/17 00:53:02 METAR KMSP 290653Z 34007KT 10SM OVC024 M04/M09 A2985 RMK AO2 SLP120 T10441094 $ (AP)
0219726580149222017012907537+44883-093229FM-15+0255KMSP V0203605N00155008235MN0160935N5-00445-00895101205ADDAA101000095GA1085+008235999GD14991+0082359GE19MSL   +99999+99999GF199999999999008231999999MA1101085098065REMMET10201/29/17 01:53:02 METAR KMSP 290753Z 36003KT 10SM OVC027 M04/M09 A2985 RMK AO2 SLP120 T10441089 $ (AP)
0239726580149222017012908537+44883-093229FM-15+0255KMSP V0203005N00215008535MN0160935N5-00445-00895101205ADDAA101000095GA1085+008535999GD14991+0085359GE19MSL   +99999+99999GF199999999999008531999999MA1101085098065MD1690039+9999REMMET10801/29/17 02:53:02 METAR KMSP 290853Z 30004KT 10SM OVC028 M04/M09 A2985 RMK AO2 SLP120 T10441089 56003 $ (AP)
0219726580149222017012909537+44883-093229FM-15+0255KMSP V0202905N00215006715MN0160935N5-00445-00895101175ADDAA101000095GA1085+006715999GD14991+0067159GE19MSL   +99999+99999GF199999999999006711999999MA1101055098035REMMET10201/29/17 03:53:02 METAR KMSP 290953Z 29004KT 10SM OVC022 M04/M09 A2984 RMK AO2 SLP117 T10441089 $ (AP)
0219726580149222017012910537+44883-093229FM-15+0255KMSP V0203405N00215006405MN0160935N5-00395-00835101165ADDAA101000095GA1085+006405999GD14991+0064059GE19MSL   +99999+99999GF199999999999006401999999MA1101055098035REMMET10201/29/17 04:53:02 METAR KMSP 291053Z 34004KT 10SM OVC021 M04/M08 A2984 RMK AO2 SLP116 T10391083 $ (AP)
0300726580149222017012911537+44883-093229FM-15+0255KMSP V0203305N00515006405MN0160935N5-00335-00785101165ADDAA101000095AJ100039500025099GA1085+006405999GD14991+0064059GE19MSL   +99999+99999GF199999999999006401999999KA1060M-00331KA2060N-00441MA1101055098035MD1690049+9999REMMET12601/29/17 05:53:02 METAR KMSP 291153Z 33010KT 10SM OVC021 M03/M08 A2984 RMK AO2 SLP116 4/001 T10331078 11033 21044 56004 $ (AP)
0234726580149222017012912004+44883-093217FM-12+025599999V0203301N005119999999N016000199-00331-00781101161ADDAJ100033100030099GA1999+008001999GE19MSL   +99999+99999GF108991999999008001999999KA1240M-00221KA2240N-00441MA1999999097911MD1610041+9999REMSYN08672658 32566 83310 11033 21078 39791 40116 56004 91153 333 11022 21044 4/003 555 92912=
0219726580149222017012912537+44883-093229FM-15+0255KMSP V0203305N00415006105MN0160935N5-00335-00785101225ADDAA101000095GA1085+006105999GD14991+0061059GE19MSL   +99999+99999GF199999999999006101999999MA1101125098095REMMET10201/29/17 06:53:02 METAR KMSP 291253Z 33008KT 10SM OVC020 M03/M08 A2986 RMK AO2 SLP122 T10331078 $ (NK)
0257726580149222017012913537+44883-093229FM-15+0255KMSP V0203305N00725007015MN0160935N5-00335-00835101235ADDAA101000095GA1075+007015999GA2085+008535999GD13991+0070159GD24991+0085359GE19MSL   +99999+99999GF199999999999007011999999MA1101125098095REMMET10901/29/17 07:53:02 METAR KMSP 291353Z 33014KT 10SM BKN023 OVC028 M03/M08 A2986 RMK AO2 SLP123 T10331083 $ (NK)
0239726580149222017012914537+44883-093229FM-15+0255KMSP V0203205N00725007015MN0160935N5-00445-00945101355ADDAA101000095GA1085+007015999GD14991+0070159GE19MSL   +99999+99999GF199999999999007011999999MA1101225098195MD1390189+9999REMMET10801/29/17 08:53:02 METAR KMSP 291453Z 32014KT 10SM OVC023 M04/M09 A2989 RMK AO2 SLP135 T10441094 53018 $ (NK)
0219726580149222017012915537+44883-093229FM-15+0255KMSP V0203205N00675008235MN0160935N5-00505-01065101445ADDAA101000095GA1075+008235999GD13991+0082359GE19MSL   +99999+99999GF199999999999008231999999MA1101325098295REMMET10201/29/17 09:53:02 METAR KMSP 291553Z 32013KT 10SM BKN027 M05/M11 A2992 RMK AO2 SLP144 T10501106 $ (NK)
0148726580149222017012916516+44883-093229FM-16+0255KMSP V0203305N005752200059N0160935N5-00405-01105999999ADDGA1045+007925999GD12991+0079259MA1101325098295REMMET09001/29/17 10:51:02 SPECI KMSP 291651Z 33011KT 10SM SCT026 M04/M11 A2992 RMK AO2 $ FIBI (NK)
0276726580149222017012916537+44883-093229FM-15+0255KMSP V0203205N005152200059N0160935N5-00395-01065101455ADDAA101000095GA1045+007925999GA2045+045725999GD12991+0079259GD22991+0457259GE19AGL   +99999+99999GF104995999999007921999999MA1101325098295REMMET10901/29/17 10:53:02 METAR KMSP 291653Z 32010KT 10SM SCT026 SCT150 M04/M11 A2992 RMK AO2 SLP145 T10391106 $ (NK)EQDD01      0ADE726
0368726580149222017012917537+44883-093229FM-15+0255KMSP V0203305N006752200059N0160935N5-00335-01175101515ADDAA101000095AJ100039500025099GA1025+007925999GA2045+045725999GD11991+0079259GD22991+0457259GE19AGL   +99999+99999GF104995999999007921999999KA1060M-00331KA2060N-00501MA1101395098365MD1190159+9999OC101035REMMET13601/29/17 11:53:02 METAR KMSP 291753Z 33013G20KT 10SM FEW026 SCT150 M03/M12 A2994 RMK AO2 SLP151 4/001 T10331117 11033 21050 51015 $ (NK)EQDD01      0ADE726
0254726580149222017012918004+44883-093217FM-12+025599999V0203301N006719999999N016000199-00331-01171101511ADDAJ100033100030099GA1999+008001999GE19MSL   +99999+99999GF104991999999008001999999KA1120M-00331KA2120N-00501MA1999999098241MD1110151+9999OD149901031999REMSYN09272658 32566 43313 11033 21117 39824 40151 51015 91753 333 11033 21050 4/003 91020 555 92918=
0276726580149222017012918537+44883-093229FM-15+0255KMSP V0203305N005152200059N0160935N5-00285-01175101475ADDAA101000095GA1025+007925999GA2045+045725999GD11991+0079259GD22991+0457259GE19AGL   +99999+99999GF104995999999007921999999MA1101355098335REMMET10901/29/17 12:53:02 METAR KMSP 291853Z 33010KT 10SM FEW026 SCT150 M03/M12 A2993 RMK AO2 SLP147 T10281117 $ (NK)EQDD01      0ADE726
0277726580149222017012919537+44883-093229FM-15+0255KMSP V0203405N005752200059N0160935N5-00225-01225101455ADDAA101000095GA1025+007925999GA2045+076205999GD11991+0079259GD22991+0762059GE19AGL   +99999+99999GF104995999999007921999999MA1101325098295REMMET11001/29/17 13:53:02 METAR KMSP 291953Z 34011KT 10SM FEW026 SCT250 M02/M12 A2992 RMK AO2 SLP145 T10221122 $ (JDB)EQDD01      0ADE726
0308726580149222017012920537+44883-093229FM-15+0255KMSP V0203305N007252200059N0160935N5-00175-01225101515ADDAA101000095GA1025+060965999GA2045+076205999GD11991+0609659GD22991+0762059GE19AGL   +99999+99999GF104995999999060961999999MA1101395098365MD1390019+9999OC101035REMMET11901/29/17 14:53:02 METAR KMSP 292053Z 33014G20KT 10SM FEW200 SCT250 M02/M12 A2994 RMK AO2 SLP151 T10171122 53001 $ (JDB)EQDD01      0ADE726
0277726580149222017012921537+44883-093229FM-15+0255KMSP V0203205N004652200059N0160935N5-00175-01335101565ADDAA101000095GA1025+064015999GA2045+076205999GD11991+0640159GD22991+0762059GE19AGL   +99999+99999GF104995999999064011999999MA1101465098435REMMET11001/29/17 15:53:02 METAR KMSP 292153Z 32009KT 10SM FEW210 SCT250 M02/M13 A2996 RMK AO2 SLP156 T10171133 $ (JDB)EQDD01      0ADE726
0277726580149222017012922537+44883-093229FM-15+0255KMSP V0203305N005152200059N0160935N5-00285-01445101605ADDAA101000095GA1025+064015999GA2045+076205999GD11991+0640159GD22991+0762059GE19AGL   +99999+99999GF104995999999064011999999MA1101495098465REMMET11001/29/17 16:53:02 METAR KMSP 292253Z 33010KT 10SM FEW210 SCT250 M03/M14 A2997 RMK AO2 SLP160 T10281144 $ (JDB)EQDD01      0ADE726
0320726580149222017012923537+44883-093229FM-15+0255KMSP V0203405N003652200059N0160935N5-00395-01445101625ADDAA101000095AJ100039500025099GA1025+076205999GD11991+0762059GE19AGL   +99999+99999GF102995999999076201999999KA1060M-00171KA2060N-00391MA1101495098465MD1190119+9999REMMET12701/29/17 17:53:02 METAR KMSP 292353Z 34007KT 10SM FEW250 M04/M14 A2997 RMK AO2 SLP162 4/001 T10391144 11017 21039 51011 $ (JDB)EQDD01      0ADE726
0218726580149222017013000004+44883-093217FM-12+025599999V0203401N003619999999N016000199-00391-01441101621ADDAJ100033100030099GE19MSL   +99999+99999GF102991999999999999999999KA1120M-00171KA2120N-00441MA1999999098341MD1110111+9999REMSYN08672658 32966 23407 11039 21144 39834 40162 51011 92353 333 11017 21044 4/003 555 93000=
0189726580149222017013000537+44883-093229FM-15+0255KMSP V0203405N002152200059N0160935N5-00445-01505101685ADDAA101000095GA1005+999999999GD10991+9999999GF100991999999999999999999MA1101565098525REMMET09401/29/17 18:53:01 METAR KMSP 300053Z 34004KT 10SM CLR M04/M15 A2999 RMK AO2 SLP168 T10441150 $
0189726580149222017013001537+44883-093229FM-15+0255KMSP V0209999C000052200059N0160935N5-00565-01445101685ADDAA101000095GA1005+999999999GD10991+9999999GF100991999999999999999999MA1101565098525REMMET09401/29/17 19:53:01 METAR KMSP 300153Z 00000KT 10SM CLR M06/M14 A2999 RMK AO2 SLP168 T10561144 $
0209726580149222017013002537+44883-093229FM-15+0255KMSP V0200505N001552200059N0160935N5-00615-01505101655ADDAA101000095GA1005+999999999GD10991+9999999GF100991999999999999999999MA1101525098495MD1090029+9999REMMET10001/29/17 20:53:02 METAR KMSP 300253Z 05003KT 10SM CLR M06/M15 A2998 RMK AO2 SLP165 T10611150 50002 $
0189726580149222017013003537+44883-093229FM-15+0255KMSP V0201205N001552200059N0160935N5-00565-01675101575ADDAA101000095GA1005+999999999GD10991+9999999GF100991999999999999999999MA1101465098435REMMET09401/29/17 21:53:02 METAR KMSP 300353Z 12003KT 10SM CLR M06/M17 A2996 RMK AO2 SLP157 T10561167 $
0189726580149222017013004537+44883-093229FM-15+0255KMSP V0209999C000052200059N0160935N5-00675-01565101575ADDAA101000095GA1005+999999999GD10991+9999999GF100991999999999999999999MA1101465098435REMMET09401/29/17 22:53:02 METAR KMSP 300453Z 00000KT 10SM CLR M07/M16 A2996 RMK AO2 SLP157 T10671156 $
0350726580149222017013005537+44883-093229FM-15+0255KMSP V0201505N001552200059N0160935N5-00785-01565101555ADDAA101000095AJ100039500025099GA1025+024385999GD11991+0243859GE19AGL   +99999+99999GF102995999999024381999999KA1060M-00391KA2060N-00781KA3240M-00171KA4240N-00781MA1101425098395MD1690109+9999REMMET13101/29/17 23:53:02 METAR KMSP 300553Z 15003KT 10SM FEW080 M08/M16 A2995 RMK AO2 SLP155 4/001 T10781156 11039 21078 410171078 56010 $EQDD01      0ADE726
0899726580149222017013005596+44883-093229SOD  +0255KMSP V020999999999999999999999999999+99999+99999999999ADDAA124000095AJ100039599999999AL12400095AN1024000095KA1240M-00165KA2240N-00775MG1098294101154OE11240111833099995OE22240093933099995OE33240038099999995REMSOD73924 HR PRECIPITATION (IN): 0.00 SNOW DEPTH (IN):1     24 HR SNOWFALL (IN):0.0  24 HR MAX TEMP (F): 2924 HR MIN TEMP (F): 18AVERAGE STATION PRESSURE:29.025 MINIMUM SEA LEVEL PRESSURE:29.87 TIME OF OCCURRENCE:0555 PEAK WIND SPEED (MPH): 25 PEAK WIND DIR (DEG):330 PEAK WIND TIME (LST):      FASTEST 2MIN SPEED (MPH): 21FASTEST 2MIN DIR (DEG):330 FASTEST 2MIN TIME (LST):     AVERAGE WIND SPEED (MPH): 8.5 24 HR AVG TEMP (F): 24DEPART FROM NORMAL:  8  HEATING DEGREE DAYS: 41 COOLING DEGREE DAYS:  0 LATEST DAY MAX TEMP (0700-1900 LST):29  LATEST NIGHT MIN TEMP(1900-0800 LST):24 HOURLY INCREMENTAL PRECIPITATION VALUES (IN):.00 0.00 0.00 0.00 0.00 0.00 0.00 0.00 0.00 0.00 0.00 0.00 0.00 0.00 0.00 0.00 0.00 0.00 0.00 0.00 0.00 0.00 0.00 0.00
0234726580149222017013006004+44883-093217FM-12+025599999V0201501N001519999999N016000199-00781-01561101551ADDAJ100033100030099GA1999+022501999GE19MSL   +99999+99999GF102991999999022501999999KA1240M-00331KA2240N-00781MA1999999098271MD1610101+9999REMSYN08672658 32866 21503 11078 21156 39827 40155 56010 90553 333 11033 21078 4/003 555 93006=
0238726580149222017013006537+44883-093229FM-15+0255KMSP V0201705N002652200059N0160935N5-00725-01505101475ADDAA101000095GA1025+022865999GD11991+0228659GE19AGL   +99999+99999GF102995999999022861999999MA1101355098335REMMET10201/30/17 00:53:02 METAR KMSP 300653Z 17005KT 10SM FEW075 M07/M15 A2993 RMK AO2 SLP147 T10721150 $ (NK)EQDD01      0ADE726
0238726580149222017013007537+44883-093229FM-15+0255KMSP V0201305N002152200059N0160935N5-00895-01395101475ADDAA101000095GA1025+022865999GD11991+0228659GE19AGL   +99999+99999GF102995999999022861999999MA1101325098295REMMET10201/30/17 01:53:02 METAR KMSP 300753Z 13004KT 10SM FEW075 M09/M14 A2992 RMK AO2 SLP147 T10891139 $ (NK)EQDD01      0ADE726
0239726580149222017013008537+44883-093229FM-15+0255KMSP V0201205N00215024385MN0160935N5-00835-01395101425ADDAA101000095GA1075+024385999GD13991+0243859GE19MSL   +99999+99999GF199999999999024381999999MA1101295098265MD1690129+9999REMMET10801/30/17 02:53:02 METAR KMSP 300853Z 12004KT 10SM BKN080 M08/M14 A2991 RMK AO2 SLP142 T10831139 56012 $ (NK)
0219726580149222017013009537+44883-093229FM-15+0255KMSP V0201505N00315024385MN0160935N5-00835-01225101315ADDAA101000095GA1075+024385999GD13991+0243859GE19MSL   +99999+99999GF199999999999024381999999MA1101195098165REMMET10201/30/17 03:53:02 METAR KMSP 300953Z 15006KT 10SM BKN080 M08/M12 A2988 RMK AO2 SLP131 T10831122 $ (NK)
0239726580149222017013010257+44883-093229FM-16+0255KMSP V0201305N00315006715MN0160935N5-00835-01225999999ADDGA1075+006715999GA2085+024385999GD13991+0067159GD24991+0243859GE19MSL   +99999+99999GF199999999999006711999999MA1101125098095REMMET10201/30/17 04:25:02 SPECI KMSP 301025Z 13006KT 10SM BKN022 OVC080 M08/M12 A2986 RMK AO2 T10831122 $ (NK)
0257726580149222017013010537+44883-093229FM-15+0255KMSP V0201305N00315007325MN0160935N5-00785-01175101175ADDAA101000095GA1075+007325999GA2085+033535999GD13991+0073259GD24991+0335359GE19MSL   +99999+99999GF199999999999007321999999MA1101055098035REMMET10901/30/17 04:53:02 METAR KMSP 301053Z 13006KT 10SM BKN024 OVC110 M08/M12 A2984 RMK AO2 SLP117 T10781117 $ (NK)
0300726580149222017013011537+44883-093229FM-15+0255KMSP V0201305N00265006105MN0160935N5-00725-01065101105ADDAA101000095AJ100039500025099GA1085+006105999GD14991+0061059GE19MSL   +99999+99999GF199999999999006101999999KA1060M-00671KA2060N-00941MA1100985097965MD1690319+9999REMMET12601/30/17 05:53:02 METAR KMSP 301153Z 13005KT 10SM OVC020 M07/M11 A2982 RMK AO2 SLP110 4/001 T10721106 11067 21094 56031 $ (NK)
0234726580149222017013012004+44883-093217FM-12+025599999V0201301N002619999999N016000199-00721-01061101101ADDAJ100033100030099GA1999+008001999GE19MSL   +99999+99999GF108991999999008001999999KA1240M-00171KA2240N-00941MA1999999097841MD1610311+9999REMSYN08672658 32566 81305 11072 21106 39784 40110 56031 91153 333 11017 21094 4/003 555 93012=
0013726580149222017013012004+44883-093229SHEF +999999999V020999999999999999999999999999+99999+99999999999ADDAL19900231
0233726580149222017013012537+44883-093229FM-15+0255KMSP V0201805N00315005185MN0160935N5-00615-00945101025ADDAA101000025GA1085+005185999GD14991+0051859GE19MSL   +99999+99999GF199999999999005181999999MA1100885097865REMMET11601/30/17 06:53:02 METAR KMSP 301253Z 18006KT 10SM OVC017 M06/M09 A2979 RMK AO2 SLP102 PRESENT WX VCSH T10611094 (NK)
0245726580149222017013013027+44883-093229FM-16+0255KMSP V0201705N00265004885MN0128755N5-00565-00895999999ADDAA101000021AU110030015AW1715GA1085+004885999GD14991+0048859GE19MSL   +99999+99999GF199999999999004881999999MA1100885097865REMMET11101/30/17 07:02:02 SPECI KMSP 301302Z 17005KT 8SM -SN OVC016 M06/M09 A2979 RMK AO2 SNB1257 P0000 T10561089 (CLB)
0245726580149222017013013107+44883-093229FM-16+0255KMSP V0201705N00265004275MN0080475N5-00565-00895999999ADDAA101000231AU110030015AW1715GA1085+004275999GD14991+0042759GE19MSL   +99999+99999GF199999999999004271999999MA1100885097865REMMET11101/30/17 07:10:02 SPECI KMSP 301310Z 17005KT 5SM -SN OVC014 M06/M09 A2979 RMK AO2 SNB1257 P0001 T10561089 (CLB)
0303726580149222017013013287+44883-093229FM-16+0255KMSP V0201605N00315003055MN0032195N5-00615-00835999999ADDAA101000231AU110030015AU200001015AW1105AW2715GA1075+003055999GA2085+004885999GD13991+0030559GD24991+0048859GE19MSL   +99999+99999GF199999999999003051999999MA1100815097805REMMET12101/30/17 07:28:02 SPECI KMSP 301328Z 16006KT 2SM -SN BR BKN010 OVC016 M06/M08 A2977 RMK AO2 SNB1257 P0001 T10611083 (CLB)
0325726580149222017013013387+44883-093229FM-16+0255KMSP V0201605N00365004885MN0024145N5-00565-00785999999ADDAA101000531AU110030015AU200001015AW1105AW2715GA1045+003055999GA2085+004885999GD12991+0030559GD24991+0048859GE19MSL   +99999+99999GF199999999999003051999999MA1100815097805REMMET14301/30/17 07:38:02 SPECI KMSP 301338Z 16007KT 1 1/2SM R30L/6000VP6000FT -SN BR SCT010 OVC016 M06/M08 A2977 RMK AO2 SNB1257 P0002 T10561078 (CLB)
0325726580149222017013013467+44883-093229FM-16+0255KMSP V0201605N00365005495MN0020125N5-00565-00785999999ADDAA101000531AU110030015AU200001015AW1105AW2715GA1025+003055999GA2085+005495999GD11991+0030559GD24991+0054959GE19MSL   +99999+99999GF199999999999003051999999MA1100785097765REMMET14301/30/17 07:46:02 SPECI KMSP 301346Z 16007KT 1 1/4SM R30L/6000VP6000FT -SN BR FEW010 OVC018 M06/M08 A2976 RMK AO2 SNB1257 P0002 T10561078 (CLB)
0205726580149222017013013516+44883-093229FM-16+0255KMSP V0201705N00365005495MN0024145N5-00605-00705999999ADDAU110030015AU200001015AW1105AW2715GA1085+005495999GD14991+0054959MA1100785097765REMMET11301/30/17 07:51:02 SPECI KMSP 301351Z 17007KT 1 1/2SM -SN BR OVC018 M06/M07 A2976 RMK AO2 SNB1257 P0002 FIBI (CLB)
0294726580149222017013013537+44883-093229FM-15+0255KMSP V0201605N00365005495MN0024145N5-00505-00725100895ADDAA101000895AU110030015AU200001015AW1105AW2715GA1085+005495999GD14991+0054959GE19MSL   +99999+99999GF199999999999005491999999MA1100785097765REMMET14301/30/17 07:53:02 METAR KMSP 301353Z 16007KT 1 1/2SM R30L/6000VP6000FT -SN BR OVC018 M05/M07 A2976 RMK AO2 SNB1257 SLP089 P0003 T10501072 (CLB)
0286726580149222017013014067+44883-093229FM-16+0255KMSP V0201505N00415005185MN0020125N5-00505-00725999999ADDAA101000021AU110030015AU200001015AW1105AW2715GA1085+005185999GD14991+0051859GE19MSL   +99999+99999GF199999999999005181999999MA1100685097675REMMET13501/30/17 08:06:02 SPECI KMSP 301406Z 15008KT 1 1/4SM R30L/6000VP6000FT -SN BR OVC017 M05/M07 A2973 RMK AO2 PRESFR P0000 T10501072 (CLB)
0313726580149222017013014367+44883-093229FM-16+0255KMSP V0201605N00465004885MN0032195N5-00505-00675999999ADDAA101000531AU110030015AU200001015AW1105AW2715GA1045+003355999GA2085+004885999GD12991+0033559GD24991+0048859GE19MSL   +99999+99999GF199999999999003351999999MA1100515097505REMMET13101/30/17 08:36:02 SPECI KMSP 301436Z 16009KT 2SM R30L/5000VP6000FT -SN BR SCT011 OVC016 M05/M07 A2968 RMK AO2 P0002 T10501067 (CLB)
0275726580149222017013014417+44883-093229FM-16+0255KMSP V0201605N00515003965MN0064375N5-00445-00615999999ADDAA101000731AU110030015AU200001015AW1105AW2715GA1085+003965999GD14991+0039659GE19MSL   +99999+99999GF199999999999003961999999MA1100515097505REMMET12401/30/17 08:41:02 SPECI KMSP 301441Z 16010KT 4SM R30L/6000VP6000FT -SN BR OVC013 M04/M06 A2968 RMK AO2 P0003 T10441061 (CLB)
0338726580149222017013014537+44883-093229FM-15+0255KMSP V0201705N00515003055MN0144845N5-00445-00615100615ADDAA101000895AA203001591AU110030015AW1715GA1075+003055999GA2085+004575999GD13991+0030559GD24991+0045759GE19MSL   +99999+99999GF199999999999003051999999MA1100475097475MD1890479+9999REMMET12901/30/17 08:53:02 METAR KMSP 301453Z 17010KT 9SM -SN BKN010 OVC015 M04/M06 A2967 RMK AO2 SLP061 P0003 60006 T10441061 58047 (CLB)EQDQ01  00158PRCP03
0223726580149222017013015077+44883-093229FM-16+0255KMSP V0201705N00625002745MN0160935N5-00395-00615999999ADDAA101000021GA1085+002745999GD14991+0027459GE19MSL   +99999+99999GF199999999999002741999999MA1100475097475REMMET10601/30/17 09:07:02 SPECI KMSP 301507Z 17012KT 10SM OVC009 M04/M06 A2967 RMK AO2 SNE01 P0000 T10391061 (CLB)
0229726580149222017013015537+44883-093229FM-15+0255KMSP V0201705N00465002445MN0128755N5-00225-00505100495ADDAA101000025GA1085+002445999GD14991+0024459GE19MSL   +99999+99999GF199999999999002441999999MA1100375097375REMMET11201/30/17 09:53:02 METAR KMSP 301553Z 17009KT 8SM OVC008 M02/M05 A2964 RMK AO2 SNE01 SLP049 P0000 T10221050 (CLB)
0217726580149222017013016537+44883-093229FM-15+0255KMSP V0201805N00725002445MN0112655N5-00065-00335100315ADDAA101000095GA1085+002445999GD14991+0024459GE19MSL   +99999+99999GF199999999999002441999999MA1100205097205REMMET10001/30/17 10:53:02 METAR KMSP 301653Z 18014KT 7SM OVC008 M01/M03 A2959 RMK AO2 SLP031 T10061033 (CLB)
0321726580149222017013017537+44883-093229FM-15+0255KMSP V0201805N00575002745MN0128755N5+00005-00285100125ADDAA101000095AA206001591AJ100059500051099GA1085+002745999GD14991+0027459GE19MSL   +99999+99999GF199999999999002741999999KA1060M+00001KA2060N-00721MA1100005097005MD1890479+9999REMMET13601/30/17 11:53:02 METAR KMSP 301753Z 18011KT 8SM OVC009 00/M03 A2953 RMK AO2 SLP012 4/002 933001 60006 T00001028 10000 21072 58047 (CLB)
0251726580149222017013018004+44883-093217FM-12+025599999V0201801N005719999999N012000199+00001-00281100121ADDAA106002031AJ100053100050099GA1999+002501999GE19MSL   +99999+99999GF108991999999002501999999KA1120M+00001KA2120N-00721MA1999999096891MD1810471+9999REMSYN09272658 12362 81811 10000 21028 39689 40012 58047 60021 91753 333 10000 21072 4/005 555 93018=
0198726580149222017013018077+44883-093229FM-16+0255KMSP V0201905N00465003355MN0128755N5+00005-00225999999ADDGA1085+003355999GD14991+0033559GE19MSL   +99999+99999GF199999999999003351999999MA1099975096975REMMET09201/30/17 12:07:02 SPECI KMSP 301807Z 19009KT 8SM OVC011 00/M02 A2952 RMK AO2 T00001022 (CLB)
0254726580149222017013018267+44883-093229FM-16+0255KMSP V0202005N00575004575MN0128755N5+00175-00225999999ADDGA1075+004575999GA2085+006405999GD13991+0045759GD24991+0064059GE19MSL   +99999+99999GF199999999999004571999999MA1099835096845OC100935REMMET10901/30/17 12:26:02 SPECI KMSP 301826Z 20011G18KT 8SM BKN015 OVC021 02/M02 A2948 RMK AO2 PRESFR T00171022 (CLB)
0217726580149222017013018537+44883-093229FM-15+0255KMSP V0202205N00515005795MN0160935N5+00285-00175099865ADDAA101000095GA1075+005795999GD13991+0057959GE19MSL   +99999+99999GF199999999999005791999999MA1099765096775REMMET10001/30/17 12:53:02 METAR KMSP 301853Z 22010KT 10SM BKN019 03/M02 A2946 RMK AO2 SLP986 T00281017 (CLB)
0218726580149222017013018587+44883-093229FM-16+0255KMSP V0202305N004152200059N0160935N5+00285-00175999999ADDGA1045+005795999GD12991+0057959GE19AGL   +99999+99999GF104995999999005791999999MA1099765096775REMMET09301/30/17 12:58:02 SPECI KMSP 301858Z 23008KT 10SM SCT019 03/M02 A2946 RMK AO2 T00281017 (CLB)EQDD01      0ADE726
0326726580149222017013019537+44883-093229FM-15+0255KMSP V0202305N006252200059N0160935N5+00445-00175099715ADDAA101000095GA1025+007625999GA2045+045725999GA3045+076205999GD11991+0076259GD22991+0457259GD32991+0762059GE19AGL   +99999+99999GF104995999999007621999999MA1099635096645REMMET12801/30/17 13:53:02 METAR KMSP 301953Z 23012KT 10SM FEW025 SCT150 SCT250 04/M02 A2942 RMK AO2 SLP971 VIRGA DSNT SW T00441017 (CLB)EQDD01      0ADE726
0334726580149222017013020537+44883-093229FM-15+0255KMSP V0202405N00365030485MN0160935N5+00505-00115099655ADDAA101000095GA1045+021345999GA2075+030485999GA3075+045725999GD12991+0213459GD23991+0304859GD33991+0457259GD43991+0762019GE19MSL   +99999+99999GF199999999999021341999999MA1099565096575MD1690449+9999REMMET12601/30/17 14:53:02 METAR KMSP 302053Z 24007KT 10SM SCT070 BKN100 BKN150 05/M01 A2940 RMK AO2 SLP965 VIRGA T00501011 56044 (CLB)
0217726580149222017013021537+44883-093229FM-15+0255KMSP V0202705N00315011285MN0160935N5+00505-00115099685ADDAA101000095GA1085+011285999GD14991+0112859GE19MSL   +99999+99999GF199999999999011281999999MA1099595096615REMMET10001/30/17 15:53:02 METAR KMSP 302153Z 27006KT 10SM OVC037 05/M01 A2941 RMK AO2 SLP968 T00501011 (JDB)
0228726580149222017013022537+44883-093229FM-15+0255KMSP V0202805N00775009455MN0160935N5+00445-00115099735ADDAA101000095GA1085+009455999GD14991+0094559GE19MSL   +99999+99999GF199999999999009451999999MA1099635096645OC101035REMMET10301/30/17 16:53:02 METAR KMSP 302253Z 28015G20KT 10SM OVC031 04/M01 A2942 RMK AO2 SLP973 T00441011 (JDB)
0298726580149222017013023537+44883-093229FM-15+0255KMSP V0202905N00575009145MN0160935N5+00395-00115099825ADDAA101000095AJ100039500025099GA1085+009145999GD14991+0091459GE19MSL   +99999+99999GF199999999999009141999999KA1060M+00561KA2060N+00001MA1099735096745MD1390169+9999REMMET12401/30/17 17:53:02 METAR KMSP 302353Z 29011KT 10SM OVC030 04/M01 A2945 RMK AO2 SLP982 4/001 T00391011 10056 20000 53016 (JDB)
0234726580149222017013100004+44883-093217FM-12+025599999V0202901N005719999999N016000199+00391-00111099821ADDAJ100033100030099GA1999+008001999GE19MSL   +99999+99999GF108991999999008001999999KA1120M+00561KA2120N-00931MA1999999096621MD1310161+9999REMSYN08672658 32566 82911 10039 21011 39662 49982 53016 92353 333 10056 21093 4/003 555 93100=
0243726580149222017013100517+44883-093229FM-16+0255KMSP V0202905N00515008235MN0160935N5+00305-00105999999ADDGA1075+008235999GA2085+010365999GD13991+0082359GD24991+0103659GE19MSL   +99999+99999GF199999999999008231999999MA1099835096845REMMET10601/30/17 18:51:03 SPECI KMSP 310051Z 29010KT 10SM BKN027 OVC034 03/M01 A2948 RMK AO2 PRESENT WX VCSH (JDB)
0271726580149222017013100537+44883-093229FM-15+0255KMSP V0202905N00515008235MN0160935N5+00335-00115099935ADDAA101000025GA1075+008235999GA2085+010365999GD13991+0082359GD24991+0103659GE19MSL   +99999+99999GF199999999999008231999999MA1099835096845REMMET12301/30/17 18:53:03 METAR KMSP 310053Z 29010KT 10SM BKN027 OVC034 03/M01 A2948 RMK AO2 SLP993 PRESENT WX VCSH T00331011 (JDB)
0393726580149222017013101407+44883-093229FM-16+0255KMSP V0203205N00935010975MN0144845N5+00175-00175999999ADDAA101000021AU110020025AU220030035AW1615AW2671AW3715GA1025+005495999GA2045+007325999GA3085+010975999GD11991+0054959GD22991+0073259GD34991+0109759GE19MSL   +99999+99999GF199999999999005491999999MA1099905096915OC101395OD149901391330REMMET15201/30/17 19:40:03 SPECI KMSP 310140Z 32018G27KT 9SM -RASN FEW018 SCT024 OVC036 02/M02 A2950 RMK AO2 PK WND 33027/0136 RAB0057SNB21 P0000 T00171017 (JDB)
0254726580149222017013101516+44883-093229FM-16+0255KMSP V0203305N00775010365MN0032195N5+00105-00205999999ADDAU110030015AW1715GA1025+004885999GA2085+010365999GD11991+0048859GD24991+0103659MA1099935096945REMMET14801/30/17 19:51:03 SPECI KMSP 310151Z 33015KT 2SM -SN FEW016 OVC034 01/M02 A2951 RMK AO2 PK WND 33027/0136 SFC VIS 3 RAB0057E44SNB21 P0000 FIBI (JDB)
0367726580149222017013101537+44883-093229FM-15+0255KMSP V0203405N00725008845MN0032195N5+00115-00175100035ADDAA101000025AU110030015AW1715GA1045+004885999GA2075+008845999GA3085+011285999GD12991+0048859GD23991+0088459GD34991+0112859GE19MSL   +99999+99999GF199999999999004881999999MA1099935096945OD149901391330REMMET15701/30/17 19:53:03 METAR KMSP 310153Z 34014KT 2SM -SN SCT016 BKN029 OVC037 01/M02 A2951 RMK AO2 PK WND 33027/0136 RAB0057E44SNB21 SLP003 P0000 T00111017 (JDB)
0322726580149222017013102077+44883-093229FM-16+0255KMSP V0203305N00675009145MN0032195N5+00115-00175999999ADDAA101000021AU110030015AW1715GA1045+004275999GA2075+009145999GA3085+010675999GD12991+0042759GD23991+0091459GD34991+0106759GE19MSL   +99999+99999GF199999999999004271999999MA1099935096945REMMET12601/30/17 20:07:03 SPECI KMSP 310207Z 33013KT 2SM -SN SCT014 BKN030 OVC035 01/M02 A2951 RMK AO2 SFC VIS 5 P0000 T00111017 (JDB)
0322726580149222017013102137+44883-093229FM-16+0255KMSP V0203205N00675004275MN0032195N5+00115-00175999999ADDAA101000021AU110030015AW1715GA1075+004275999GA2075+007925999GA3085+010675999GD13991+0042759GD23991+0079259GD34991+0106759GE19MSL   +99999+99999GF199999999999004271999999MA1099975096975REMMET12601/30/17 20:13:03 SPECI KMSP 310213Z 32013KT 2SM -SN BKN014 BKN026 OVC035 01/M02 A2952 RMK AO2 SFC VIS 5 P0000 T00111017 (JDB)
0312726580149222017013102197+44883-093229FM-16+0255KMSP V0203305N00465004275MN0064375N5+00115-00175999999ADDAA101000021AU110030015AW1715GA1075+004275999GA2075+008535999GA3085+010675999GD13991+0042759GD23991+0085359GD34991+0106759GE19MSL   +99999+99999GF199999999999004271999999MA1099975096975REMMET11601/30/17 20:19:03 SPECI KMSP 310219Z 33009KT 4SM -SN BKN014 BKN028 OVC035 01/M02 A2952 RMK AO2 P0000 T00111017 (JDB)
0332726580149222017013102317+44883-093229FM-16+0255KMSP V0203105N00465006105MN0080475N5+00065-00115999999ADDAA101000021AU110030015AU200001015AW1105AW2715GA1045+003965999GA2075+006105999GA3085+010675999GD12991+0039659GD23991+0061059GD34991+0106759GE19MSL   +99999+99999GF199999999999003961999999MA1099975096975REMMET11901/30/17 20:31:03 SPECI KMSP 310231Z 31009KT 5SM -SN BR SCT013 BKN020 OVC035 01/M01 A2952 RMK AO2 P0000 T00061011 (JDB)
0294726580149222017013102427+44883-093229FM-16+0255KMSP V0203105N00415003965MN0096565N5+00065-00115999999ADDAA101000021AU110030015AU200001015AW1105AW2715GA1075+003965999GA2085+005495999GD13991+0039659GD24991+0054959GE19MSL   +99999+99999GF199999999999003961999999MA1099975096975REMMET11201/30/17 20:42:03 SPECI KMSP 310242Z 31008KT 6SM -SN BR BKN013 OVC018 01/M01 A2952 RMK AO2 P0000 T00061011 (JDB)
0357726580149222017013102537+44883-093229FM-15+0255KMSP V0203005N00415003355MN0064375N5+00065-00115100085ADDAA101000025AA203000021AU110030015AU200001015AW1105AW2715GA1075+003355999GA2085+006105999GD13991+0033559GD24991+0061059GE19MSL   +99999+99999GF199999999999003351999999MA1100005097005MD1390159+9999REMMET13101/30/17 20:53:03 METAR KMSP 310253Z 30008KT 4SM -SN BR BKN011 OVC020 01/M01 A2953 RMK AO2 SLP008 P0000 60000 T00061011 53015 (JDB)EQDQ01  00008PRCP03
0294726580149222017013102567+44883-093229FM-16+0255KMSP V0202905N00315002745MN0048285N5+00065-00115999999ADDAA101000021AU110030015AU200001015AW1105AW2715GA1075+002745999GA2085+005185999GD13991+0027459GD24991+0051859GE19MSL   +99999+99999GF199999999999002741999999MA1100005097005REMMET11201/30/17 20:56:03 SPECI KMSP 310256Z 29006KT 3SM -SN BR BKN009 OVC017 01/M01 A2953 RMK AO2 P0000 T00061011 (JDB)
0263726580149222017013103537+44883-093229FM-15+0255KMSP V0202905N00415002745MN0080475N5+00115-00065100085ADDAA101000395AU110030015AU200001015AW1105AW2715GA1085+002745999GD14991+0027459GE19MSL   +99999+99999GF199999999999002741999999MA1100005097005REMMET11201/30/17 21:53:03 METAR KMSP 310353Z 29008KT 5SM -SN BR OVC009 01/M01 A2953 RMK AO2 SLP008 P0001 T00111006 (JDB)
0267726580149222017013104007+44883-093229FM-16+0255KMSP V0202905N00465003355MN0096565N5+00115-00065999999ADDAA101000021AU110030015AU200001015AW1105AW2715GA1085+003355999GD14991+0033559GE19MSL   +99999+99999GF199999999999003351999999MA1100005097005OC100825REMMET10801/30/17 22:00:03 SPECI KMSP 310400Z 29009G16KT 6SM -SN BR OVC011 01/M01 A2953 RMK AO2 P0000 T00111006 (JDB)
0325726580149222017013104457+44883-093229FM-16+0255KMSP V0202805N00415004275MN0096565N5+00175-00065999999ADDAA101000231AU110030025AU220020035AU300001015AW1105AW2615AW3671AW4715GA1025+002445999GA2085+004275999GD11991+0024459GD24991+0042759GE19MSL   +99999+99999GF199999999999002441999999MA1100005097005REMMET12001/30/17 22:45:03 SPECI KMSP 310445Z 28008KT 6SM -SNRA BR FEW008 OVC014 02/M01 A2953 RMK AO2 RAB02 P0001 T00171006 (JDB)
0293726580149222017013104537+44883-093229FM-15+0255KMSP V0202805N00515003665MN0096565N5+00175-00065100085ADDAA101000595AU110030025AU220020035AU300001015AW1105AW2615AW3671AW4715GA1085+003665999GD14991+0036659GE19MSL   +99999+99999GF199999999999003661999999MA1100005097005REMMET11901/30/17 22:53:03 METAR KMSP 310453Z 28010KT 6SM -SNRA BR OVC012 02/M01 A2953 RMK AO2 RAB02 SLP008 P0001 T00171006 (AP)
0402726580149222017013105537+44883-093229FM-15+0255KMSP V0202905N00675004275MN0160935N5+00175+00005100125ADDAA101000395AA206001091AU118020015AW1645GA1085+004275999GD14991+0042759GE19MSL   +99999+99999GF199999999999004271999999KA1060M+00331KA2240M+00561KA3240N-00941MA1100035097045MD1390069+9999WA1900099REMMET17601/30/17 23:53:03 METAR KMSP 310553Z 29013KT 10SM -FZRA OVC014 02/00 A2954 RMK AO2 SLP012 FZRAB41RAE41SNE0455 P0002 60004 I1000 I6000 T00170000 10033 20006 400561094 53006 (AP)EQDQ01  00108PRCP06
1044726580149222017013105596+44883-093229SOD  +0255KMSP V020999999999999999999999999999+99999+99999999999ADDAA124002595AJ100039599999999AL12401595AN1024001595AT1AU16RA  5AT2AU17FZRA5AT3AU18SN  5AT4AU13BR  5AX1016246AX2066246AX3086246KA1240M+00565KA2240N-00935MG1097174099664OE11240143133099995OE22240111831099995OE33240046599999995REMSOD75824 HR PRECIPITATION (IN): 0.10 SNOW DEPTH (IN):1     24 HR SNOWFALL (IN):0.6  WEATHER(CODE):168  24 HR MAX TEMP (F): 4224 HR MIN TEMP (F): 15AVERAGE STATION PRESSURE:28.695 MINIMUM SEA LEVEL PRESSURE:29.43 TIME OF OCCURRENCE:1551 PEAK WIND SPEED (MPH): 32 PEAK WIND DIR (DEG):330 PEAK WIND TIME (LST):      FASTEST 2MIN SPEED (MPH): 25FASTEST 2MIN DIR (DEG):310 FASTEST 2MIN TIME (LST):     AVERAGE WIND SPEED (MPH):10.4 24 HR AVG TEMP (F): 29DEPART FROM NORMAL: 13  HEATING DEGREE DAYS: 36 COOLING DEGREE DAYS:  0 LATEST DAY MAX TEMP (0700-1900 LST):42  LATEST NIGHT MIN TEMP(1900-0800 LST):15 HOURLY INCREMENTAL PRECIPITATION VALUES (IN):.00 0.00 0.00 0.00 0.00 0.00 T    0.03 0.03 T    0.00 0.00 0.00 0.00 0.00 0.00 0.00 0.00 T    T    T    0.01 0.02 0.01EQDR01   1687AXW093R02   1687AXW093R03   1687AXW093
0228726580149222017013106004+44883-093217FM-12+025599999V0202901N006719999999N016000199+00171+00001100121ADDAA106001031GA1999+004501999GE19MSL   +99999+99999GF108991999999004501999999KA1240M+00331KA2240N-00931MA1999999096921MD1310061+9999REMSYN08672658 11466 82913 10017 20000 39692 40012 53006 60011 90553 333 10033 21093 555 93106=
0340726580149222017013106177+44883-093229FM-16+0255KMSP V0202905N00625005795MN0160935N5+00225-00065999999ADDAA101000021AU118020015AW1645GA1025+003665999GA2075+005795999GA3085+009455999GD11991+0036659GD23991+0057959GD34991+0094559GE19MSL   +99999+99999GF199999999999003661999999MA1100035097045OC101085WA1900099REMMET12701/31/17 00:17:02 SPECI KMSP 310617Z 29012G21KT 10SM -FZRA FEW012 BKN019 OVC031 02/M01 A2954 RMK AO2 P0000 I1000 T00221006 (AP)
0260726580149222017013106537+44883-093229FM-15+0255KMSP V0203105N00725004885MN0160935N5+00225-00065100125ADDAA101000025AU118020015AW1645GA1085+004885999GD14991+0048859GE19MSL   +99999+99999GF199999999999004881999999MA1100075097075WA1900099REMMET11701/31/17 00:53:02 METAR KMSP 310653Z 31014KT 10SM -FZRA OVC016 02/M01 A2955 RMK AO2 SLP012 P0000 I1000 T00221006 (AP)
0218726580149222017013107516+44883-093229FM-16+0255KMSP V0203005N00775003965MN0160935N5+00205-00105999999ADDAU118020015AW1645GA1075+003965999GA2085+005495999GD13991+0039659GD24991+0054959MA1100105097105REMMET11201/31/17 01:51:02 SPECI KMSP 310751Z 30015KT 10SM -FZRA BKN013 OVC018 02/M01 A2956 RMK AO2 P0000 I1000 FIBI (AP)
0271726580149222017013107537+44883-093229FM-15+0255KMSP V0203005N00675004575MN0160935N5+00225-00065100185ADDAA101000025AU118020015AW1645GA1085+004575999GD14991+0045759GE19MSL   +99999+99999GF199999999999004571999999MA1100145097145OC101085WA1900099REMMET12001/31/17 01:53:02 METAR KMSP 310753Z 30013G21KT 10SM -FZRA OVC015 02/M01 A2957 RMK AO2 SLP018 P0000 I1000 T00221006 (AP)
0291726580149222017013108297+44883-093229FM-16+0255KMSP V0203005N00625003965MN0160935N5+00175-00065999999ADDAA101000231AU118020015AW1645GA1075+003965999GA2085+006405999GD13991+0039659GD24991+0064059GE19MSL   +99999+99999GF199999999999003961999999MA1100205097205WA1900099REMMET11701/31/17 02:29:02 SPECI KMSP 310829Z 30012KT 10SM -FZRA BKN013 OVC021 02/M01 A2959 RMK AO2 P0001 I1000 T00171006 (AP)
0256726580149222017013108516+44883-093229FM-16+0255KMSP V0203005N00675005185MN0160935N5+00205-00105999999ADDAU118020015AW1645GA1045+003665999GA2075+005185999GA3085+008235999GD12991+0036659GD23991+0051859GD34991+0082359MA1100245097245REMMET11901/31/17 02:51:02 SPECI KMSP 310851Z 30013KT 10SM -FZRA SCT012 BKN017 OVC027 02/M01 A2960 RMK AO2 P0001 I1000 FIBI (AP)
0409726580149222017013108537+44883-093229FM-15+0255KMSP V0203005N00725005185MN0160935N5+00175-00065100305ADDAA101000395AA203000391AU118020015AW1645GA1045+003665999GA2075+005185999GA3085+007015999GD12991+0036659GD23991+0051859GD34991+0070159GE19MSL   +99999+99999GF199999999999003661999999MA1100245097245MD1390199+9999OC101035WA1900099REMMET15201/31/17 02:53:02 METAR KMSP 310853Z 30014G20KT 10SM -FZRA SCT012 BKN017 OVC023 02/M01 A2960 RMK AO2 SLP030 P0001 60001 I1000 I3000 T00171006 53019 (AP)EQDQ01  00028PRCP03
0306726580149222017013109007+44883-093229FM-16+0255KMSP V0203105N00675004275MN0160935N5+00175-00065999999ADDAA101000021AU118020025AU220030035AW1645AW2675AW3715GA1075+004275999GA2085+006405999GD13991+0042759GD24991+0064059MA1100275097275OC101085WA1900099REMMET13001/31/17 03:00:02 SPECI KMSP 310900Z 31013G21KT 10SM -FZRASN BKN014 OVC021 02/M01 A2961 RMK AO2 SNB0857 P0000 I1000 T00171006 (AP)EQDD01      0ADE735
0263726580149222017013109537+44883-093229FM-15+0255KMSP V0203105N00775003665MN0128755N5+00175-00065100415ADDAA101000025AU118020025AU220030035AW1645AW2675AW3715GA1085+003665999GD14991+0036659MA1100345097335WA1900099REMMET12601/31/17 03:53:02 METAR KMSP 310953Z 31015KT 8SM -FZRASN OVC012 02/M01 A2963 RMK AO2 SNB0857 SLP041 P0000 I1000 T00171006 (AP)EQDD01      0ADE735
0286726580149222017013110437+44883-093229FM-16+0255KMSP V0203005N00675006405MN0144845N5+00175-00115999999ADDAA101000231AU118020025AU220030035AW1645AW2675AW3715GA1045+004275999GA2085+006405999GD12991+0042759GD24991+0064059MA1100445097435WA1900099REMMET11801/31/17 04:43:02 SPECI KMSP 311043Z 30013KT 9SM -FZRASN SCT014 OVC021 02/M01 A2966 RMK AO2 P0001 I1000 T00171011 (AP)EQDD01      0ADE735
0256726580149222017013110516+44883-093229FM-16+0255KMSP V0203105N00775006405MN0144845N5+00205-00105999999ADDGA1025+003965999GA2075+006405999GA3085+008535999GD11991+0039659GD23991+0064059GD34991+0085359MA1100445097435OC100985REMMET12801/31/17 04:51:02 SPECI KMSP 311051Z 31015G19KT 9SM FEW013 BKN021 OVC028 02/M01 A2966 RMK AO2 FZRAE48SNE48 P0001 I1000 FIBI (AP)
0298726580149222017013110537+44883-093229FM-15+0255KMSP V0203205N00675006405MN0144845N5+00175-00115100515ADDAA101000395GA1075+006405999GA2085+008535999GD13991+0064059GD24991+0085359GE19MSL   +99999+99999GF199999999999006401999999MA1100445097435OC100985WA1900099REMMET13301/31/17 04:53:02 METAR KMSP 311053Z 32013G19KT 9SM BKN021 OVC028 02/M01 A2966 RMK AO2 FZRAE48SNE48 SLP051 P0001 I1000 T00171011 (AP)
0385726580149222017013111537+44883-093229FM-15+0255KMSP V0203205N00935008235MN0160935N5+00175-00285100615ADDAA101000095AA206000591AA324003091GA1085+008235999GD14991+0082359GE19MSL   +99999+99999GF199999999999008231999999KA1060M+00221KA2060N+00111MA1100545097535MD1190299+9999OC101495OD149901491300WA1900099REMMET15601/31/17 05:53:02 METAR KMSP 311153Z 32018G29KT 10SM OVC027 02/M03 A2969 RMK AO2 PK WND 30029/1144 SLP061 60002 70012 I6000 T00171028 10022 20011 51029 (AP)EQDQ01  00308PRCP24
0265726580149222017013112004+44883-093217FM-12+025599999V0203201N009319999999N016000199+00171-00281100611ADDAA106000531AA224003031GA1999+008001999GE19MSL   +99999+99999GF108991999999008001999999KA1240M+00561KA2240N+00061MA1999999097411MD1110291+9999OD149901491999REMSYN09872658 12566 83218 10017 21028 39741 40061 51029 69951 91153 333 10056 20006 70030 91029 555 93112=
0216726580149222017013112537+44883-093229FM-15+0255KMSP V0202805N00315007925MN0160935N5+00115-00285100685ADDAA101000095GA1075+007925999GD13991+0079259GE19MSL   +99999+99999GF199999999999007921999999MA1100615097605REMMET09901/31/17 06:53:02 METAR KMSP 311253Z 28006KT 10SM BKN026 01/M03 A2971 RMK AO2 SLP068 T00111028 (AP)
0255726580149222017013113007+44883-093229FM-16+0255KMSP V0202905N003652200059N0160935N5+00065-00285999999ADDGA1045+007925999GA2045+045725999GD12991+0079259GD22991+0457259GE19AGL   +99999+99999GF104995999999007921999999MA1100615097605REMMET09901/31/17 07:00:02 SPECI KMSP 311300Z 29007KT 10SM SCT026 SCT150 01/M03 A2971 RMK AO2 T00061028 (AP)EQDD01      0ADE726
0237726580149222017013113107+44883-093229FM-16+0255KMSP V0202805N00415008535MN0160935N5+00115-00285999999ADDGA1075+008535999GA2075+045725999GD13991+0085359GD23991+0457259GE19MSL   +99999+99999GF199999999999008531999999MA1100645097635REMMET10001/31/17 07:10:02 SPECI KMSP 311310Z 28008KT 10SM BKN028 BKN150 01/M03 A2972 RMK AO2 T00111028 (CLB)
0256726580149222017013113327+44883-093229FM-16+0255KMSP V0202705N003152200059N0160935N5+00115-00285999999ADDGA1045+008535999GA2045+045725999GD12991+0085359GD22991+0457259GE19AGL   +99999+99999GF104995999999008531999999MA1100645097635REMMET10001/31/17 07:32:02 SPECI KMSP 311332Z 27006KT 10SM SCT028 SCT150 01/M03 A2972 RMK AO2 T00111028 (CLB)EQDD01      0ADE726
0274726580149222017013113537+44883-093229FM-15+0255KMSP V0202805N003152200059N0160935N5+00065-00285100765ADDAA101000095GA1045+008535999GA2045+045725999GD12991+0085359GD22991+0457259GE19AGL   +99999+99999GF104995999999008531999999MA1100685097675REMMET10701/31/17 07:53:02 METAR KMSP 311353Z 28006KT 10SM SCT028 SCT150 01/M03 A2973 RMK AO2 SLP076 T00061028 (CLB)EQDD01      0ADE726
0199726580149222017013114037+44883-093229FM-16+0255KMSP V0202805N00265008535MN0160935N5+00065-00285999999ADDGA1075+008535999GD13991+0085359GE19MSL   +99999+99999GF199999999999008531999999MA1100685097675REMMET09301/31/17 08:03:02 SPECI KMSP 311403Z 28005KT 10SM BKN028 01/M03 A2973 RMK AO2 T00061028 (CLB)
0199726580149222017013114157+44883-093229FM-16+0255KMSP V0202805N00315009145MN0160935N5+00115-00225999999ADDGA1075+009145999GD13991+0091459GE19MSL   +99999+99999GF199999999999009141999999MA1100715097705REMMET09301/31/17 08:15:02 SPECI KMSP 311415Z 28006KT 10SM BKN030 01/M02 A2974 RMK AO2 T00111022 (CLB)
0313726580149222017013114537+44883-093229FM-15+0255KMSP V0202805N00315010065MN0160935N5+00175-00225100795ADDAA101000095GA1075+010065999GA2075+013115999GA3085+016765999GD13991+0100659GD23991+0131159GD34991+0167659GE19MSL   +99999+99999GF199999999999010061999999MA1100715097705MD1190169+9999REMMET12001/31/17 08:53:02 METAR KMSP 311453Z 28006KT 10SM BKN033 BKN043 OVC055 02/M02 A2974 RMK AO2 SLP079 T00171022 51016 (CLB)
0237726580149222017013115357+44883-093229FM-16+0255KMSP V0202805N00465006715MN0160935N5+00225-00225999999ADDGA1075+006715999GA2085+009755999GD13991+0067159GD24991+0097559GE19MSL   +99999+99999GF199999999999006711999999MA1100755097735REMMET10001/31/17 09:35:02 SPECI KMSP 311535Z 28009KT 10SM BKN022 OVC032 02/M02 A2975 RMK AO2 T00221022 (CLB)
0255726580149222017013115537+44883-093229FM-15+0255KMSP V0202705N00575006715MN0160935N5+00225-00175100825ADDAA101000095GA1075+006715999GA2075+015245999GD13991+0067159GD23991+0152459GE19MSL   +99999+99999GF199999999999006711999999MA1100755097735REMMET10701/31/17 09:53:02 METAR KMSP 311553Z 27011KT 10SM BKN022 BKN050 02/M02 A2975 RMK AO2 SLP082 T00221017 (CLB)
0237726580149222017013116007+44883-093229FM-16+0255KMSP V0202805N00465015245MN0160935N5+00225-00175999999ADDGA1045+006715999GA2075+015245999GD12991+0067159GD23991+0152459GE19MSL   +99999+99999GF199999999999006711999999MA1100755097735REMMET10001/31/17 10:00:02 SPECI KMSP 311600Z 28009KT 10SM SCT022 BKN050 02/M02 A2975 RMK AO2 T00221017 (CLB)
0248726580149222017013116127+44883-093229FM-16+0255KMSP V0202905N00625006715MN0160935N5+00225-00175999999ADDGA1075+006715999GA2075+015245999GD13991+0067159GD23991+0152459GE19MSL   +99999+99999GF199999999999006711999999MA1100785097765OC100935REMMET10301/31/17 10:12:02 SPECI KMSP 311612Z 29012G18KT 10SM BKN022 BKN050 02/M02 A2976 RMK AO2 T00221017 (CLB)
0237726580149222017013116347+44883-093229FM-16+0255KMSP V0202805N00625012505MN0160935N5+00285-00175999999ADDGA1045+007325999GA2085+012505999GD12991+0073259GD24991+0125059GE19MSL   +99999+99999GF199999999999007321999999MA1100785097765REMMET10001/31/17 10:34:02 SPECI KMSP 311634Z 28012KT 10SM SCT024 OVC041 03/M02 A2976 RMK AO2 T00281017 (CLB)
0217726580149222017013116537+44883-093229FM-15+0255KMSP V0202805N00775011895MN0160935N5+00285-00225100875ADDAA101000095GA1085+011895999GD14991+0118959GE19MSL   +99999+99999GF199999999999011891999999MA1100785097765REMMET10001/31/17 10:53:02 METAR KMSP 311653Z 28015KT 10SM OVC039 03/M02 A2976 RMK AO2 SLP087 T00281022 (CLB)
0362726580149222017013117537+44883-093229FM-15+0255KMSP V0202905N00725010365MN0160935N5+00335-00225100865ADDAA101000095GA1025+007325999GA2075+010365999GA3085+013115999GD11991+0073259GD23991+0103659GD34991+0131159GE19MSL   +99999+99999GF199999999999007321999999KA1060M+00331KA2060N+00061MA1100785097765MD1090089+9999OC100935REMMET13501/31/17 11:53:02 METAR KMSP 311753Z 29014G18KT 10SM FEW024 BKN034 OVC043 03/M02 A2976 RMK AO2 SLP086 T00331022 10033 20006 50008 (CLB)
0231726580149222017013118004+44883-093217FM-12+025599999V0202901N007219999999N016000199+00331-00221100861ADDGA1999+008001999GE19MSL   +99999+99999GF108991999999008001999999KA1120M+00331KA2120N+00001MA1999999097651MD1990081+9999OD149900931999REMSYN08672658 32566 82914 10033 21022 39765 40086 50008 91753 333 10033 20000 91018 555 93118=
0237726580149222017013118177+44883-093229FM-16+0255KMSP V0203105N00725008535MN0160935N5+00335-00225999999ADDGA1075+008535999GA2085+010975999GD13991+0085359GD24991+0109759GE19MSL   +99999+99999GF199999999999008531999999MA1100785097765REMMET10001/31/17 12:17:02 SPECI KMSP 311817Z 31014KT 10SM BKN028 OVC036 03/M02 A2976 RMK AO2 T00331022 (CLB)
0266726580149222017013118537+44883-093229FM-15+0255KMSP V0202905N00725008845MN0160935N5+00335-00285100845ADDAA101000095GA1075+008845999GA2085+010975999GD13991+0088459GD24991+0109759GE19MSL   +99999+99999GF199999999999008841999999MA1100785097765OC100985REMMET11001/31/17 12:53:02 METAR KMSP 311853Z 29014G19KT 10SM BKN029 OVC036 03/M03 A2976 RMK AO2 SLP084 T00331028 (CLB)
0248726580149222017013119097+44883-093229FM-16+0255KMSP V0202905N00675009145MN0160935N5+00335-00285999999ADDGA1075+009145999GA2085+010975999GD13991+0091459GD24991+0109759GE19MSL   +99999+99999GF199999999999009141999999MA1100785097765OC101135REMMET10301/31/17 13:09:02 SPECI KMSP 311909Z 29013G22KT 10SM BKN030 OVC036 03/M03 A2976 RMK AO2 T00331028 (CLB)
0266726580149222017013119537+44883-093229FM-15+0255KMSP V0202905N00775009755MN0160935N5+00285-00335100835ADDAA101000095GA1075+009755999GA2075+025915999GD13991+0097559GD23991+0259159GE19MSL   +99999+99999GF199999999999009751999999MA1100755097735OC101135REMMET11001/31/17 13:53:02 METAR KMSP 311953Z 29015G22KT 10SM BKN032 BKN085 03/M03 A2975 RMK AO2 SLP083 T00281033 (CLB)
0275726580149222017013120537+44883-093229FM-15+0255KMSP V0202805N00465011285MN0160935N5+00285-00285100885ADDAA101000095GA1075+011285999GA2075+013115999GD13991+0112859GD23991+0131159GE19MSL   +99999+99999GF199999999999011281999999MA1100815097805MD1390019+9999REMMET11301/31/17 14:53:02 METAR KMSP 312053Z 28009KT 10SM BKN037 BKN043 03/M03 A2977 RMK AO2 SLP088 T00281028 53001 (CLB)
0282726580149222017013121537+44883-093229FM-15+0255KMSP V0203005N00885015245MN0160935N5+00285-00335100925ADDAA101000095GA1025+011285999GA2085+015245999GD11991+0112859GD24991+0152459GE19MSL   +99999+99999GF199999999999011281999999MA1100855097835OC101185REMMET12601/31/17 15:53:02 METAR KMSP 312153Z 30017G23KT 10SM FEW037 OVC050 03/M03 A2978 RMK AO2 SLP092 PRESENT WX VCSH T00281033 (JDB)
0271726580149222017013122537+44883-093229FM-15+0255KMSP V0203005N00675010975MN0160935N5+00225-00395100985ADDAA101000095GA1075+010975999GA2075+015245999GD13991+0109759GD23991+0152459GE19MSL   +99999+99999GF199999999999010971999999MA1100915097905REMMET12301/31/17 16:53:02 METAR KMSP 312253Z 30013KT 10SM BKN036 BKN050 02/M04 A2980 RMK AO2 SLP098 PRESENT WX VCSH T00221039 (JDB)
0391726580149222017013123537+44883-093229FM-15+0255KMSP V0202905N00515016765MN0160935N5+00115-00285101075ADDAA101000025AA206000021GA1025+010675999GA2075+016765999GD11991+0106759GD23991+0167659GE19MSL   +99999+99999GF199999999999010671999999KA1060M+00331KA2060N+00111MA1100985097965MD1390189+9999OC100985REMMET14901/31/17 17:53:02 METAR KMSP 312353Z 29010G19KT 10SM FEW035 BKN055 01/M03 A2982 RMK AO2 SNB11E22 SLP107 P0000 60000 T00111028 10033 20011 53018 (JDB)EQDQ01  00002PRCP06Q02  00008PRCP06
0267726580149222017020100004+44883-093217FM-12+025599999V0202901N005119999999N016000199+00111-00281101071ADDAA106000091GA1999+012501999GE19MSL   +99999+99999GF106991999999012501999999KA1120M+00331KA2120N+00061MA1999999097841MD1310181+9999OD149900981999REMSYN09272658 12666 62910 10011 21028 39784 40107 53018 69901 92353 333 10033 20006 91019 555 90100=EQDQ01  00002PRCP06
0293726580149222017020100537+44883-093229FM-15+0255KMSP V0202805N00415016765MN0160935N5+00115-00285101185ADDAA101000095GA1045+010065999GA2045+012505999GA3085+016765999GD12991+0100659GD22991+0125059GD34991+0167659GE19MSL   +99999+99999GF199999999999010061999999MA1101085098065REMMET11401/31/17 18:53:03 METAR KMSP 010053Z 28008KT 10SM SCT033 SCT041 OVC055 01/M03 A2985 RMK AO2 SLP118 T00111028 (JDB)
0293726580149222017020101537+44883-093229FM-15+0255KMSP V0202905N00415014335MN0160935N5+00115-00285101215ADDAA101000095GA1025+009755999GA2075+014335999GA3085+016765999GD11991+0097559GD23991+0143359GD34991+0167659GE19MSL   +99999+99999GF199999999999009751999999MA1101125098095REMMET11401/31/17 19:53:03 METAR KMSP 010153Z 29008KT 10SM FEW032 BKN047 OVC055 01/M03 A2986 RMK AO2 SLP121 T00111028 (JDB)
0313726580149222017020102537+44883-093229FM-15+0255KMSP V0202905N00415013415MN0160935N5+00065-00285101295ADDAA101000095GA1025+008845999GA2045+010975999GA3085+013415999GD11991+0088459GD22991+0109759GD34991+0134159GE19MSL   +99999+99999GF199999999999008841999999MA1101195098165MD1190219+9999REMMET12001/31/17 20:53:03 METAR KMSP 010253Z 29008KT 10SM FEW029 SCT036 OVC044 01/M03 A2988 RMK AO2 SLP129 T00061028 51021 (JDB)
0313726580149222017020103537+44883-093229FM-15+0255KMSP V0202905N003152200059N0160935N5-00065-00335101345ADDAA101000095GA1025+010365999GA2045+013415999GA3045+019815999GD11991+0103659GD22991+0134159GD32991+0198159GE19AGL   +99999+99999GF104995999999010361999999MA1101255098235REMMET11501/31/17 21:53:03 METAR KMSP 010353Z 29006KT 10SM FEW034 SCT044 SCT065 M01/M03 A2990 RMK AO2 SLP134 T10061033 (JDB)EQDD01      0ADE726
0217726580149222017020104537+44883-093229FM-15+0255KMSP V0202705N00315012805MN0160935N5-00065-00395101435ADDAA101000095GA1075+012805999GD13991+0128059GE19MSL   +99999+99999GF199999999999012801999999MA1101355098335REMMET10001/31/17 22:53:03 METAR KMSP 010453Z 27006KT 10SM BKN042 M01/M04 A2993 RMK AO2 SLP143 T10061039 (PL)
0406726580149222017020105537+44883-093229FM-15+0255KMSP V0202705N004152200059N0160935N5-00115-00445101505ADDAA101000095GA1025+012195999GA2025+018295999GA3045+030485999GD11991+0121959GD21991+0182959GD32991+0304859GE19AGL   +99999+99999GF104995999999012191999999KA1060M+00111KA2060N-00111KA3240M+00331KA4240N-00111MA1101425098395MD1390219+9999REMMET14201/31/17 23:53:03 METAR KMSP 010553Z 27008KT 10SM FEW040 FEW060 SCT100 M01/M04 A2995 RMK AO2 SLP150 T10111044 10011 21011 400331011 53021 (PL)EQDD01      0ADE726
1006726580149222017020105596+44883-093229SOD  +0255KMSP V020999999999999999999999999999+99999+99999999999ADDAA124000595AJ100003599999999AL12400035AN1024000035AT1AU17FZRA5AT2AU18SN  5AT3AW16RA  5AX1016246AX2066246KA1240M+00335KA2240N-00105MG1097904100104OE11240147530099995OE22240102831099995OE33240056899999995REMSOD75724 HR PRECIPITATION (IN): 0.02 SNOW DEPTH (IN):T     24 HR SNOWFALL (IN):T    WEATHER(CODE):16  24 HR MAX TEMP (F): 3824 HR MIN TEMP (F): 30AVERAGE STATION PRESSURE:28.910 MINIMUM SEA LEVEL PRESSURE:29.56 TIME OF OCCURRENCE:0102 PEAK WIND SPEED (MPH): 33 PEAK WIND DIR (DEG):300 PEAK WIND TIME (LST):      FASTEST 2MIN SPEED (MPH): 23FASTEST 2MIN DIR (DEG):310 FASTEST 2MIN TIME (LST):     AVERAGE WIND SPEED (MPH):12.7 24 HR AVG TEMP (F): 34DEPART FROM NORMAL: 17  HEATING DEGREE DAYS: 31 COOLING DEGREE DAYS:  0 LATEST DAY MAX TEMP (0700-1900 LST):38  LATEST NIGHT MIN TEMP(1900-0800 LST):33 HOURLY INCREMENTAL PRECIPITATION VALUES (IN):    T    0.01 T    0.01 0.00 0.00 0.00 0.00 0.00 0.00 0.00 0.00 0.00 0.00 0.00 0.00 T    0.00 0.00 0.00 0.00 0.00 0.00EQDR01    167AXW093R02    167AXW093
1414726580149222017020105596+44883-093229SOM  +0255KMSP V020999999999999999999999999999+99999+99999999999ADDAB10024995AD10007490910999999996AE1115055005005AH1005001091707455AH2010001091707455AH3015001391707455AH4020001392001375AH5030001592001375AH6045001592002005AI1060001892002005AI2080002092002005AI3100002092002425AI4120002392002425AI5150002392002425AI6180002891011035AK1010191213996AM1000691010252599995AN1744021395KB1744N-09566KB2744M-02725KB3744A-06115KC1N9-02270699995KC2M9+00553099995KD1744H13606KD2744C00005KE1195005275075MH1098494101664MK1104671309525099461011245REMSOM870PCP MTOT:0.98 PCP GT 24HRS:0.29 DATE(S):9-10 DAYS W/PCP >=.01:11 DAYS W/PCP >=.10:5  DAYS W/ PCP >=.50:0 DAYS W/PCP >=1.00:0 MSDP AMTS W/DATE-TIME TAGS:MIN:5 0.04  17/0745 MIN:10 0.04  17/0745 MIN:15 0.05  17/0745 MIN:20 0.05  20/0137 MIN:30 0.06  20/0137 MIN:45 0.06  20/0200 MIN:60 0.07  20/0200 MIN:80 0.08  20/0200 MIN:100 0.08  20/0242 MIN:120 0.09  20/0242 MIN:150 0.09  20/0242 MIN:180 0.11  10/1103 SN GT DP ON GRND:4 DATE(S):12 13 SN GT IN 24HRS:2.2 DATE(S): 1025SN MTOT:8.4 AVG DLY MIN:14.8  AVG DLY MAX:27.1  AVG MLY TMP:21.0  MIN TMP:-9 DATE(S):06 MAX TMP:42  DATE(S):30 DAYS MAX <=32:1 DAYS MAX >=90:0  DAYS MIN <=32:27 DAYS MIN  <=0:7  AVG STP:29.085 LWST SLP:29.37 DATE/TIME:101124 HGST SLP:30.91 DATE/TIME:130952 HDD MTH TOT:1360 DEP NORM:-2553 SEASON(JUL 1-JUN 30):3762 DEP NORM:-25536 CDD MTH TOT:0 DEP NORM:-2553 SEASON(JAN 1-DEC 31):0 DEP NORM:-25536EQDR01  0.297ADP081R02     47AKS094R03  14.87KBN009R04  13607KDH044
0211726580149222017020106004+44883-093217FM-12+025599999V0202701N004119999999N016000199-00111-00441101501ADDGA1999+012501999GE19MSL   +99999+99999GF104991999999012501999999KA1240M+00331KA2240N-00111MA1999999098271MD1310211+9999REMSYN08072658 32666 42708 11011 21044 39827 40150 53021 90553 333 10033 21011 555 90106=
0013726580149222017020106004+44883-093229SHEF +999999999V020999999999999999999999999999+99999+99999999999ADDAL19900131
0255726580149222017020106537+44883-093229FM-15+0255KMSP V0202905N00625018295MN0160935N5-00115-00505101545ADDAA101000095GA1045+014635999GA2075+018295999GD12991+0146359GD23991+0182959GE19MSL   +99999+99999GF199999999999014631999999MA1101465098435REMMET10702/01/17 00:53:02 METAR KMSP 010653Z 29012KT 10SM SCT048 BKN060 M01/M05 A2996 RMK AO2 SLP154 T10111050 (PL)
0217726580149222017020107537+44883-093229FM-15+0255KMSP V0202905N00415018295MN0160935N5-00115-00565101615ADDAA101000095GA1085+018295999GD14991+0182959GE19MSL   +99999+99999GF199999999999018291999999MA1101525098495REMMET10002/01/17 01:53:02 METAR KMSP 010753Z 29008KT 10SM OVC060 M01/M06 A2998 RMK AO2 SLP161 T10111056 (PL)
0392726580149222017020108537+44883-093229FM-15+0255KMSP V0203105N00985009755MN0128755N5-00175-00565101655ADDAA101000025AA203000021AU110030015AW1715GA1025+004275999GA2075+009755999GA3085+012505999GD11991+0042759GD23991+0097559GD34991+0125059GE19MSL   +99999+99999GF199999999999004271999999MA1101565098525MD1290159+9999OC101185REMMET14402/01/17 02:53:02 METAR KMSP 010853Z 31019G23KT 8SM -SN FEW014 BKN032 OVC041 M02/M06 A2999 RMK AO2 SNB31 SLP165 P0000 60000 T10171056 52015 (PL)EQDQ01  00008PRCP03
0261726580149222017020109537+44883-093229FM-15+0255KMSP V0203205N009352200059N0160935N5-00395-00945101735ADDAA101000095GA1025+009145999GD11991+0091459GE19AGL   +99999+99999GF102995999999009141999999MA1101635098595OC101245REMMET11702/01/17 03:53:02 METAR KMSP 010953Z 32018G24KT 10SM FEW030 M04/M09 A3001 RMK AO2 SNE0857 SLP173 P0000 T10391094 (PL)EQDD01      0ADE726
0265726580149222017020110537+44883-093229FM-15+0255KMSP V0203205N009852200059N0160935N5-00615-01175101855ADDAA101000095GA1025+009145999GD11991+0091459GE19AGL   +99999+99999GF102995999999009141999999MA1101735098695OC101185REMMET12102/01/17 04:53:02 METAR KMSP 011053Z 32019G23KT 10SM FEW030 M06/M12 A3004 RMK AO2 PK WND 32027/0958 SLP185 T10611117 (PL)EQDD01      0ADE726
0311726580149222017020111537+44883-093229FM-15+0255KMSP V0203105N007252200059N0160935N5-00785-01285101995ADDAA101000095AA206000021GA1025+007325999GD11991+0073259GE19AGL   +99999+99999GF102995999999007321999999KA1060M-00111KA2060N-00781MA1101865098825MD1390309+9999REMMET12402/01/17 05:53:02 METAR KMSP 011153Z 31014KT 10SM FEW024 M08/M13 A3008 RMK AO2 SLP199 60000 T10781128 11011 21078 53030 (PL)EQDD01      0ADE726
0228726580149222017020112004+44883-093217FM-12+025599999V0203101N007219999999N016000199-00781-01281101991ADDAA106000021GA1999+008001999GE19MSL   +99999+99999GF102991999999008001999999KA1240M+00331KA2240N-00781MA1999999098701MD1310301+9999REMSYN08672658 12566 23114 11078 21128 39870 40199 53030 69901 91153 333 10033 21078 555 90112=
0247726580149222017020112537+44883-093229FM-15+0255KMSP V0203205N008252200059N0160935N5-00895-01445102115ADDAA101000095GA1025+007325999GD11991+0073259GE19AGL   +99999+99999GF102995999999007321999999MA1102005098955OC101185REMMET10302/01/17 06:53:02 METAR KMSP 011253Z 32016G23KT 10SM FEW024 M09/M14 A3012 RMK AO2 SLP211 T10891144 (PL)EQDD01      0ADE726
0237726580149222017020113537+44883-093229FM-15+0255KMSP V0203205N007752200059N0160935N5-01065-01565102265ADDAA101000095GA1025+006715999GD11991+0067159GE19AGL   +99999+99999GF102995999999006711999999MA1102135099095REMMET10102/01/17 07:53:02 METAR KMSP 011353Z 32015KT 10SM FEW022 M11/M16 A3016 RMK AO2 SLP226 T11061156 (CLB)EQDD01      0ADE726
0257726580149222017020114537+44883-093229FM-15+0255KMSP V0203305N006252200059N0160935N5-01065-01565102365ADDAA101000095GA1025+004575999GD11991+0045759GE19AGL   +99999+99999GF102995999999004571999999MA1102245099195MD1190359+9999REMMET10702/01/17 08:53:02 METAR KMSP 011453Z 33012KT 10SM FEW015 M11/M16 A3019 RMK AO2 SLP236 T11061156 51035 (CLB)EQDD01      0ADE726
0193726580149222017020115537+44883-093229FM-15+0255KMSP V0203205N006252200059N0160935N5-01065-01725102465ADDAA101000095GA1005+999999999GD10991+9999999GF100991999999999999999999MA1102305099255REMMET09802/01/17 09:53:02 METAR KMSP 011553Z 32012KT 10SM CLR M11/M17 A3021 RMK AO2 SLP246 T11061172 (CLB)
0193726580149222017020116537+44883-093229FM-15+0255KMSP V0203105N006752200059N0160935N5-00945-01725102505ADDAA101000095GA1005+999999999GD10991+9999999GF100991999999999999999999MA1102375099325REMMET09802/01/17 10:53:02 METAR KMSP 011653Z 31013KT 10SM CLR M09/M17 A3023 RMK AO2 SLP250 T10941172 (CLB)
0251726580149222017020117537+44883-093229FM-15+0255KMSP V0203205N007252200059N0160935N5-00895-01785102505ADDAA101000095GA1005+999999999GD10991+9999999GF100991999999999999999999KA1060M-00781KA2060N-01111MA1102375099325MD1190149+9999REMMET11602/01/17 11:53:02 METAR KMSP 011753Z 32014KT 10SM CLR M09/M18 A3023 RMK AO2 SLP250 T10891178 11078 21111 51014 (CLB)
0147726580149222017020118004+44883-093217FM-12+025599999V0203201N007219999999N016000199-00891-01781102501ADDKA1120M-00111KA2120N-01111MA1999999099201MD1110141+9999REMSYN08072658 32966 03214 11089 21178 39920 40250 51014 91753 333 11011 21111 555 90118=
0193726580149222017020118537+44883-093229FM-15+0255KMSP V0203105N007252200059N0160935N5-00835-01835102525ADDAA101000095GA1005+999999999GD10991+9999999GF100991999999999999999999MA1102405099355REMMET09802/01/17 12:53:02 METAR KMSP 011853Z 31014KT 10SM CLR M08/M18 A3024 RMK AO2 SLP252 T10831183 (CLB)
0193726580149222017020119537+44883-093229FM-15+0255KMSP V0203105N006252200059N0160935N5-00835-01895102475ADDAA101000095GA1005+999999999GD10991+9999999GF100991999999999999999999MA1102345099285REMMET09802/01/17 13:53:02 METAR KMSP 011953Z 31012KT 10SM CLR M08/M19 A3022 RMK AO2 SLP247 T10831189 (CLB)
0213726580149222017020120537+44883-093229FM-15+0255KMSP V0203005N005152200059N0160935N5-00835-01945102505ADDAA101000095GA1005+999999999GD10991+9999999GF100991999999999999999999MA1102375099325MD1590009+9999REMMET10402/01/17 14:53:02 METAR KMSP 012053Z 30010KT 10SM CLR M08/M19 A3023 RMK AO2 SLP250 T10831194 55000 (CLB)
0193726580149222017020121537+44883-093229FM-15+0255KMSP V0203005N006752200059N0160935N5-00835-01895102555ADDAA101000095GA1005+999999999GD10991+9999999GF100991999999999999999999MA1102405099355REMMET09802/01/17 15:53:02 METAR KMSP 012153Z 30013KT 10SM CLR M08/M19 A3024 RMK AO2 SLP255 T10831189 (JDB)
0248726580149222017020122537+44883-093229FM-15+0255KMSP V0202905N006252200059N0160935N5-00945-01725102645ADDAA101000095GA1025+010675999GD11991+0106759GE19AGL   +99999+99999GF102995999999010671999999MA1102475099425OC101035REMMET10402/01/17 16:53:02 METAR KMSP 012253Z 29012G20KT 10SM FEW035 M09/M17 A3026 RMK AO2 SLP264 T10941172 (JDB)EQDD01      0ADE726
0295726580149222017020123537+44883-093229FM-15+0255KMSP V0203005N006252200059N0160935N5-00945-01615102675ADDAA101000095GA1025+010675999GD11991+0106759GE19AGL   +99999+99999GF102995999999010671999999KA1060M-00781KA2060N-01001MA1102515099455MD1190149+9999REMMET11902/01/17 17:53:02 METAR KMSP 012353Z 30012KT 10SM FEW035 M09/M16 A3027 RMK AO2 SLP267 T10941161 11078 21100 51014 (JDB)EQDD01      0ADE726
0211726580149222017020200004+44883-093217FM-12+025599999V0203001N006219999999N016000199-00941-01611102671ADDGA1999+012501999GE19MSL   +99999+99999GF102991999999012501999999KA1120M-00781KA2120N-01001MA1999999099331MD1110141+9999REMSYN08072658 32666 23012 11094 21161 39933 40267 51014 92353 333 11078 21100 555 90200=
0187726580149222017020200537+44883-093229FM-15+0255KMSP V0202905N003652200059N0160935N5-01005-01615102715ADDAA101000095GA1005+999999999GD10991+9999999GF100991999999999999999999MA1102545099485REMMET09202/01/17 18:53:01 METAR KMSP 020053Z 29007KT 10SM CLR M10/M16 A3028 RMK AO2 SLP271 T11001161
0187726580149222017020201537+44883-093229FM-15+0255KMSP V0203005N005752200059N0160935N5-01005-01615102725ADDAA101000095GA1005+999999999GD10991+9999999GF100991999999999999999999MA1102545099485REMMET09202/01/17 19:53:01 METAR KMSP 020153Z 30011KT 10SM CLR M10/M16 A3028 RMK AO2 SLP272 T11001161
0218726580149222017020202537+44883-093229FM-15+0255KMSP V0203005N007752200059N0160935N5-01005-01725102775ADDAA101000095GA1005+999999999GD10991+9999999GF100991999999999999999999MA1102615099555MD1390099+9999OC101135REMMET10102/01/17 20:53:01 METAR KMSP 020253Z 30015G22KT 10SM CLR M10/M17 A3030 RMK AO2 SLP277 T11001172 53009
0198726580149222017020203537+44883-093229FM-15+0255KMSP V0203005N006752200059N0160935N5-01065-01725102835ADDAA101000095GA1005+999999999GD10991+9999999GF100991999999999999999999MA1102645099585OC100985REMMET09502/01/17 21:53:01 METAR KMSP 020353Z 30013G19KT 10SM CLR M11/M17 A3031 RMK AO2 SLP283 T11061172
0198726580149222017020204537+44883-093229FM-15+0255KMSP V0203005N005752200059N0160935N5-01115-01785102835ADDAA101000095GA1005+999999999GD10991+9999999GF100991999999999999999999MA1102645099585OC100985REMMET09502/01/17 22:53:01 METAR KMSP 020453Z 30011G19KT 10SM CLR M11/M18 A3031 RMK AO2 SLP283 T11111178
0317726580149222017020205537+44883-093229FM-15+0255KMSP V0202905N00825009755MN0160935N5-01115-01725102885ADDAA101000095GA1075+009755999GD13991+0097559GE19MSL   +99999+99999GF199999999999009751999999KA1060M-00941KA2060N-01111KA3240M-00111KA4240N-01111MA1102715099655MD1290109+9999OC101185REMMET12602/01/17 23:53:01 METAR KMSP 020553Z 29016G23KT 10SM BKN032 M11/M17 A3033 RMK AO2 SLP288 T11111172 11094 21111 410111111 52010
0934726580149222017020205596+44883-093229SOD  +0255KMSP V020999999999999999999999999999+99999+99999999999ADDAA124000025AJ100003599999999AL12400896AN1024000896AT1AU18SN  5KA1240M-00105KA2240N-01105MG1099174101494OE11240138632099995OE22240107332099995OE33240068499999995REMSOD74324 HR PRECIPITATION (IN):    T SNOW DEPTH (IN):T     24 HR SNOWFALL (IN):0.3  24 HR MAX TEMP (F): 3024 HR MIN TEMP (F): 12AVERAGE STATION PRESSURE(D):29.286 MINIMUM SEA LEVEL PRESSURE:29.97 TIME OF OCCURRENCE:0017 PEAK WIND SPEED (MPH): 31 PEAK WIND DIR (DEG):320 PEAK WIND TIME (LST):      FASTEST 2MIN SPEED (MPH): 24FASTEST 2MIN DIR (DEG):320 FASTEST 2MIN TIME (LST):     AVERAGE WIND SPEED (MPH):15.3 24 HR AVG TEMP (F): 21DEPART FROM NORMAL:  4  HEATING DEGREE DAYS: 44 COOLING DEGREE DAYS:  0 LATEST DAY MAX TEMP (0700-1900 LST): 18 LATEST NIGHT MIN TEMP(1900-0800 LST):13 HOURLY INCREMENTAL PRECIPITATION VALUES (IN):0.00 0.00T     0.00 0.00 0.00 0.00 0.00 0.00 0.00 0.00 0.00 0.00 0.00 0.00 0.00 0.00 0.00 0.00 0.00 0.00 0.00 0.00 0.00EQDR01   0.37ALS031
0231726580149222017020206004+44883-093217FM-12+025599999V0202901N008219999999N016000199-01111-01721102881ADDGA1999+008001999GE19MSL   +99999+99999GF106991999999008001999999KA1240M-00111KA2240N-01111MA1999999099531MD1210101+9999OD149901181999REMSYN08672658 32566 62916 11111 21172 39953 40288 52010 90553 333 11011 21111 91023 555 90206=
0212726580149222017020206537+44883-093229FM-15+0255KMSP V0203005N00675009145MN0160935N5-01115-01725102925ADDAA101000095GA1075+009145999GD13991+0091459GE19MSL   +99999+99999GF199999999999009141999999MA1102745099685REMMET09502/02/17 00:53:01 METAR KMSP 020653Z 30013KT 10SM BKN030 M11/M17 A3034 RMK AO2 SLP292 T11111172
0242726580149222017020207537+44883-093229FM-15+0255KMSP V0202905N006752200059N0160935N5-01225-01835102995ADDAA101000095GA1025+008845999GD11991+0088459GE19AGL   +99999+99999GF102995999999008841999999MA1102815099755OC100935REMMET09802/02/17 01:53:01 METAR KMSP 020753Z 29013G18KT 10SM FEW029 M12/M18 A3036 RMK AO2 SLP299 T11221183EQDD01      0ADE726
0262726580149222017020208537+44883-093229FM-15+0255KMSP V0203105N004652200059N0160935N5-01285-01895103065ADDAA101000095GA1025+009145999GD11991+0091459GE19AGL   +99999+99999GF102995999999009141999999MA1102885099815MD1390169+9999OC100935REMMET10402/02/17 02:53:01 METAR KMSP 020853Z 31009G18KT 10SM FEW030 M13/M19 A3038 RMK AO2 SLP306 T11281189 53016EQDD01      0ADE726
0231726580149222017020209537+44883-093229FM-15+0255KMSP V0203005N005752200059N0160935N5-01335-01895103095ADDAA101000095GA1025+009145999GD11991+0091459GE19AGL   +99999+99999GF102995999999009141999999MA1102915099855REMMET09502/02/17 03:53:01 METAR KMSP 020953Z 30011KT 10SM FEW030 M13/M19 A3039 RMK AO2 SLP309 T11331189EQDD01      0ADE726
0231726580149222017020210537+44883-093229FM-15+0255KMSP V0202805N004652200059N0160935N5-01335-01895103135ADDAA101000095GA1025+009145999GD11991+0091459GE19AGL   +99999+99999GF102995999999009141999999MA1102955099885REMMET09502/02/17 04:53:01 METAR KMSP 021053Z 28009KT 10SM FEW030 M13/M19 A3040 RMK AO2 SLP313 T11331189EQDD01      0ADE726
0245726580149222017020211537+44883-093229FM-15+0255KMSP V0202805N004152200059N0160935N5-01335-01835103145ADDAA101000095GA1005+999999999GD10991+9999999GF100991999999999999999999KA1060M-01111KA2060N-01331MA1102955099885MD1190089+9999REMMET11002/02/17 05:53:01 METAR KMSP 021153Z 28008KT 10SM CLR M13/M18 A3040 RMK AO2 SLP314 T11331183 11111 21133 51008
0147726580149222017020212004+44883-093217FM-12+025599999V0202801N004119999999N016000199-01331-01831103141ADDKA1240M-00111KA2240N-01331MA1999999099761MD1110081+9999REMSYN08072658 32966 02808 11133 21183 39976 40314 51008 91153 333 11011 21133 555 90212=
0187726580149222017020212537+44883-093229FM-15+0255KMSP V0202805N004652200059N0160935N5-01335-01835103155ADDAA101000095GA1005+999999999GD10991+9999999GF100991999999999999999999MA1102955099885REMMET09202/02/17 06:53:02 METAR KMSP 021253Z 28009KT 10SM CLR M13/M18 A3040 RMK AO2 SLP315 T11331183
0187726580149222017020213537+44883-093229FM-15+0255KMSP V0202905N004152200059N0160935N5-01285-01835103145ADDAA101000095GA1005+999999999GD10991+9999999GF100991999999999999999999MA1102955099885REMMET09202/02/17 07:53:02 METAR KMSP 021353Z 29008KT 10SM CLR M13/M18 A3040 RMK AO2 SLP314 T11281183
0262726580149222017020214537+44883-093229FM-15+0255KMSP V0202905N005752200059N0160935N5-01175-01835103175ADDAA101000095GA1025+009145999GD11991+0091459GE19AGL   +99999+99999GF102995999999009141999999MA1102985099915MD1390039+9999OC101035REMMET10402/02/17 08:53:02 METAR KMSP 021453Z 29011G20KT 10SM FEW030 M12/M18 A3041 RMK AO2 SLP317 T11171183 53003EQDD01      0ADE726
0242726580149222017020215537+44883-093229FM-15+0255KMSP V0203005N006252200059N0160935N5-01065-01785103165ADDAA101000095GA1045+009145999GD12991+0091459GE19AGL   +99999+99999GF104995999999009141999999MA1102985099915OC100985REMMET09802/02/17 09:53:02 METAR KMSP 021553Z 30012G19KT 10SM SCT030 M11/M18 A3041 RMK AO2 SLP316 T11061178EQDD01      0ADE726
0242726580149222017020216537+44883-093229FM-15+0255KMSP V0203005N007752200059N0160935N5-01005-01785103165ADDAA101000095GA1025+009145999GD11991+0091459GE19AGL   +99999+99999GF102995999999009141999999MA1102985099915OC101085REMMET09802/02/17 10:53:02 METAR KMSP 021653Z 30015G21KT 10SM FEW030 M10/M18 A3041 RMK AO2 SLP316 T11001178EQDD01      0ADE726
0270726580149222017020217537+44883-093229FM-15+0255KMSP V0203005N00675009755MN0160935N5-00945-01725103125ADDAA101000095GA1075+009755999GD13991+0097559GE19MSL   +99999+99999GF199999999999009751999999KA1060M-00891KA2060N-01331MA1102955099885MD1890049+9999REMMET11302/02/17 11:53:02 METAR KMSP 021753Z 30013KT 10SM BKN032 M09/M17 A3040 RMK AO2 SLP312 T10941172 11089 21133 58004
0211726580149222017020218004+44883-093217FM-12+025599999V0203001N006719999999N016000199-00941-01721103121ADDGA1999+008001999GE19MSL   +99999+99999GF106991999999008001999999KA1120M-00891KA2120N-01331MA1999999099761MD1810041+9999REMSYN08072658 32566 63013 11094 21172 39976 40312 58004 91753 333 11089 21133 555 90218=
0261726580149222017020218537+44883-093229FM-15+0255KMSP V0202805N00885009755MN0160935N5-00945-01785103085ADDAA101000095GA1075+009755999GA2075+076205999GD13991+0097559GD23991+0762059GE19MSL   +99999+99999GF199999999999009751999999MA1102915099855OC101295REMMET10502/02/17 12:53:02 METAR KMSP 021853Z 28017G25KT 10SM BKN032 BKN250 M09/M18 A3039 RMK AO2 SLP308 T10941178
0250726580149222017020219537+44883-093229FM-15+0255KMSP V0202905N00675010365MN0160935N5-00835-01725103045ADDAA101000095GA1075+010365999GA2075+076205999GD13991+0103659GD23991+0762059GE19MSL   +99999+99999GF199999999999010361999999MA1102885099815REMMET10202/02/17 13:53:02 METAR KMSP 021953Z 29013KT 10SM BKN034 BKN250 M08/M17 A3038 RMK AO2 SLP304 T10831172
0289726580149222017020220537+44883-093229FM-15+0255KMSP V0202805N007252200059N0160935N5-00835-01725102995ADDAA101000095GA1045+010675999GA2045+076205999GD12991+0106759GD22991+0762059GE19AGL   +99999+99999GF104995999999010671999999MA1102815099755MD1890149+9999REMMET10802/02/17 14:53:02 METAR KMSP 022053Z 28014KT 10SM SCT035 SCT250 M08/M17 A3036 RMK AO2 SLP299 T10831172 58014EQDD01      0ADE726
0280726580149222017020221537+44883-093229FM-15+0255KMSP V0202905N007752200059N0160935N5-00835-01785103015ADDAA101000095GA1025+011585999GA2025+076205999GD11991+0115859GD21991+0762059GE19AGL   +99999+99999GF102995999999011581999999MA1102815099755OC101085REMMET10502/02/17 15:53:02 METAR KMSP 022153Z 29015G21KT 10SM FEW038 FEW250 M08/M18 A3036 RMK AO2 SLP301 T10831178EQDD01      0ADE726
0187726580149222017020222537+44883-093229FM-15+0255KMSP V0203005N007252200059N0160935N5-00895-01835103025ADDAA101000095GA1005+999999999GD10991+9999999GF100991999999999999999999MA1102845099785REMMET09202/02/17 16:53:02 METAR KMSP 022253Z 30014KT 10SM CLR M09/M18 A3037 RMK AO2 SLP302 T10891183
0251726580149222017020223537+44883-093229FM-15+0255KMSP V0202805N005752200059N0160935N5-01005-01835103085ADDAA101000095GA1005+999999999GD10991+9999999GF100991999999999999999999KA1060M-00831KA2060N-01001MA1102885099815MD1390099+9999REMMET11602/02/17 17:53:02 METAR KMSP 022353Z 28011KT 10SM CLR M10/M18 A3038 RMK AO2 SLP308 T11001183 11083 21100 53009 (JDB)
0147726580149222017020300004+44883-093217FM-12+025599999V0202801N005719999999N016000199-01001-01831103081ADDKA1120M-00831KA2120N-01331MA1999999099691MD1310091+9999REMSYN08072658 32966 02811 11100 21183 39969 40308 53009 92353 333 11083 21133 555 90300=
0193726580149222017020300537+44883-093229FM-15+0255KMSP V0202905N004652200059N0160935N5-01005-01835103085ADDAA101000095GA1005+999999999GD10991+9999999GF100991999999999999999999MA1102885099815REMMET09802/02/17 18:53:03 METAR KMSP 030053Z 29009KT 10SM CLR M10/M18 A3038 RMK AO2 SLP308 T11001183 (JDB)
0193726580149222017020301537+44883-093229FM-15+0255KMSP V0202905N004152200059N0160935N5-01065-01785103055ADDAA101000095GA1005+999999999GD10991+9999999GF100991999999999999999999MA1102885099815REMMET09802/02/17 19:53:03 METAR KMSP 030153Z 29008KT 10SM CLR M11/M18 A3038 RMK AO2 SLP305 T11061178 (JDB)
0213726580149222017020302537+44883-093229FM-15+0255KMSP V0203005N004652200059N0160935N5-01115-01785103075ADDAA101000095GA1005+999999999GD10991+9999999GF100991999999999999999999MA1102885099815MD1590009+9999REMMET10402/02/17 20:53:03 METAR KMSP 030253Z 30009KT 10SM CLR M11/M18 A3038 RMK AO2 SLP307 T11111178 55000 (JDB)
0193726580149222017020303537+44883-093229FM-15+0255KMSP V0202905N004152200059N0160935N5-01115-01785103135ADDAA101000095GA1005+999999999GD10991+9999999GF100991999999999999999999MA1102955099885REMMET09802/02/17 21:53:03 METAR KMSP 030353Z 29008KT 10SM CLR M11/M18 A3040 RMK AO2 SLP313 T11111178 (JDB)
0192726580149222017020304537+44883-093229FM-15+0255KMSP V0202905N004652200059N0160935N5-01225-01835103155ADDAA101000095GA1005+999999999GD10991+9999999GF100991999999999999999999MA1102955099885REMMET09702/02/17 22:53:03 METAR KMSP 030453Z 29009KT 10SM CLR M12/M18 A3040 RMK AO2 SLP315 T11221183 (PL)
0286726580149222017020305537+44883-093229FM-15+0255KMSP V0203105N003152200059N0160935N5-01285-01835103135ADDAA101000095GA1005+999999999GD10991+9999999GF100991999999999999999999KA1060M-01001KA2060N-01281KA3240M-00831KA4240N-01331MA1102955099885MD1090059+9999REMMET12502/02/17 23:53:03 METAR KMSP 030553Z 31006KT 10SM CLR M13/M18 A3040 RMK AO2 SLP313 T11281183 11100 21128 410831133 50005 (PL)
0960726580149222017020305596+44883-093229SOD  +0255KMSP V020999999999999999999999999999+99999+99999999999ADDAA124000095AJ100003599999999AL12400095AN1024000095AX1086246KA1240M-00825KA2240N-01325MG1099854102884OE11240125228099996OE22240098328099995OE33240056899999995REMSOD75624 HR PRECIPITATION (IN): 0.00 SNOW DEPTH (IN):T     24 HR SNOWFALL (IN):0.0  WEATHER(CODE):8  24 HR MAX TEMP (F): 1724 HR MIN TEMP (F):  8AVERAGE STATION PRESSURE:29.485 MINIMUM SEA LEVEL PRESSURE:30.38 TIME OF OCCURRENCE:0025 PEAK WIND SPEED (MPH): 28 PEAK WIND DIR (DEG):280 PEAK WIND TIME (LST):      FASTEST 2MIN SPEED (MPH): 22FASTEST 2MIN DIR (DEG):280 FASTEST 2MIN TIME (LST):     AVERAGE WIND SPEED (MPH):12.7 24 HR AVG TEMP (F): 13DEPART FROM NORMAL: -4  HEATING DEGREE DAYS: 52 COOLING DEGREE DAYS:  0 LATEST DAY MAX TEMP (0700-1900 LST):17  LATEST NIGHT MIN TEMP(1900-0800 LST):8  HOURLY INCREMENTAL PRECIPITATION VALUES (IN):.00 0.00 0.00 0.00 0.00 0.00 0.00 0.00 0.00 0.00 0.00 0.00 0.00 0.00 0.00 0.00 0.00 0.00 0.00 0.00 0.00 0.00 0.00 0.00EQDR01     87AXW093R02    287OES063
0147726580149222017020306004+44883-093217FM-12+025599999V0203101N003119999999N016000199-01281-01831103131ADDKA1240M-01001KA2240N-01331MA1999999099761MD1990051+9999REMSYN08072658 32966 03106 11128 21183 39976 40313 50005 90553 333 11100 21133 555 90306=
0236726580149222017020306537+44883-093229FM-15+0255KMSP V0202905N003652200059N0160935N5-01285-01835103185ADDAA101000095GA1025+057915999GD11991+0579159GE19AGL   +99999+99999GF102995999999057911999999MA1102985099915REMMET10002/03/17 00:53:02 METAR KMSP 030653Z 29007KT 10SM FEW190 M13/M18 A3041 RMK AO2 SLP318 T11281183 (PL)EQDD01      0ADE726
0192726580149222017020307537+44883-093229FM-15+0255KMSP V0202805N003152200059N0160935N5-01285-01835103225ADDAA101000095GA1005+999999999GD10991+9999999GF100991999999999999999999MA1103015099955REMMET09702/03/17 01:53:02 METAR KMSP 030753Z 28006KT 10SM CLR M13/M18 A3042 RMK AO2 SLP322 T11281183 (PL)
0212726580149222017020308537+44883-093229FM-15+0255KMSP V0202805N003152200059N0160935N5-01335-01835103245ADDAA101000095GA1005+999999999GD10991+9999999GF100991999999999999999999MA1103055099985MD1190119+9999REMMET10302/03/17 02:53:02 METAR KMSP 030853Z 28006KT 10SM CLR M13/M18 A3043 RMK AO2 SLP324 T11331183 51011 (PL)
0192726580149222017020309537+44883-093229FM-15+0255KMSP V0202705N002152200059N0160935N5-01335-01835103245ADDAA101000095GA1005+999999999GD10991+9999999GF100991999999999999999999MA1103055099985REMMET09702/03/17 03:53:02 METAR KMSP 030953Z 27004KT 10SM CLR M13/M18 A3043 RMK AO2 SLP324 T11331183 (PL)
0192726580149222017020310537+44883-093229FM-15+0255KMSP V0202705N002652200059N0160935N5-01335-01835103235ADDAA101000095GA1005+999999999GD10991+9999999GF100991999999999999999999MA1103055099985REMMET09702/03/17 04:53:02 METAR KMSP 031053Z 27005KT 10SM CLR M13/M18 A3043 RMK AO2 SLP323 T11331183 (PL)
0250726580149222017020311537+44883-093229FM-15+0255KMSP V0202605N002652200059N0160935N5-01395-01835103285ADDAA101000095GA1005+999999999GD10991+9999999GF100991999999999999999999KA1060M-01221KA2060N-01391MA1103085100015MD1390049+9999REMMET11502/03/17 05:53:02 METAR KMSP 031153Z 26005KT 10SM CLR M14/M18 A3044 RMK AO2 SLP328 T11391183 11122 21139 53004 (PL)
0147726580149222017020312004+44883-093217FM-12+025599999V0202601N002619999999N016000199-01391-01831103281ADDKA1240M-00831KA2240N-01391MA1999999099891MD1310041+9999REMSYN08072658 32966 02605 11139 21183 39989 40328 53004 91153 333 11083 21139 555 90312=
0192726580149222017020312537+44883-093229FM-15+0255KMSP V0202605N003152200059N0160935N5-01395-01835103305ADDAA101000095GA1005+999999999GD10991+9999999GF100991999999999999999999MA1103125100045REMMET09702/03/17 06:53:02 METAR KMSP 031253Z 26006KT 10SM CLR M14/M18 A3045 RMK AO2 SLP330 T11391183 (PL)
0193726580149222017020313537+44883-093229FM-15+0255KMSP V0202605N003152200059N0160935N5-01395-01835103375ADDAA101000095GA1005+999999999GD10991+9999999GF100991999999999999999999MA1103185100115REMMET09802/03/17 07:53:02 METAR KMSP 031353Z 26006KT 10SM CLR M14/M18 A3047 RMK AO2 SLP337 T11391183 (CLB)
0213726580149222017020314537+44883-093229FM-15+0255KMSP V0202705N005152200059N0160935N5-01285-01785103375ADDAA101000095GA1005+999999999GD10991+9999999GF100991999999999999999999MA1103185100115MD1190099+9999REMMET10402/03/17 08:53:02 METAR KMSP 031453Z 27010KT 10SM CLR M13/M18 A3047 RMK AO2 SLP337 T11281178 51009 (CLB)
0193726580149222017020315537+44883-093229FM-15+0255KMSP V0202605N003652200059N0160935N5-01065-01785103425ADDAA101000095GA1005+999999999GD10991+9999999GF100991999999999999999999MA1103225100145REMMET09802/03/17 09:53:02 METAR KMSP 031553Z 26007KT 10SM CLR M11/M18 A3048 RMK AO2 SLP342 T11061178 (CLB)
0193726580149222017020316537+44883-093229FM-15+0255KMSP V0202505N004152200059N0160935N5-01005-01785103395ADDAA101000095GA1005+999999999GD10991+9999999GF100991999999999999999999MA1103185100115REMMET09802/03/17 10:53:02 METAR KMSP 031653Z 25008KT 10SM CLR M10/M18 A3047 RMK AO2 SLP339 T11001178 (CLB)
0251726580149222017020317537+44883-093229FM-15+0255KMSP V0202605N004652200059N0160935N5-00835-01785103345ADDAA101000095GA1005+999999999GD10991+9999999GF100991999999999999999999KA1060M-00781KA2060N-01391MA1103155100085MD1890039+9999REMMET11602/03/17 11:53:02 METAR KMSP 031753Z 26009KT 10SM CLR M08/M18 A3046 RMK AO2 SLP334 T10831178 11078 21139 58003 (CLB)
0147726580149222017020318004+44883-093217FM-12+025599999V0202601N004619999999N016000199-00831-01781103341ADDKA1120M-00781KA2120N-01391MA1999999099961MD1810031+9999REMSYN08072658 32966 02609 11083 21178 39996 40334 58003 91753 333 11078 21139 555 90318=
0193726580149222017020318537+44883-093229FM-15+0255KMSP V0202505N005752200059N0160935N5-00675-01785103265ADDAA101000095GA1005+999999999GD10991+9999999GF100991999999999999999999MA1103085100015REMMET09802/03/17 12:53:02 METAR KMSP 031853Z 25011KT 10SM CLR M07/M18 A3044 RMK AO2 SLP326 T10671178 (CLB)
0204726580149222017020319537+44883-093229FM-15+0255KMSP V0202705N005152200059N0160935N5-00565-01785103135ADDAA101000095GA1005+999999999GD10991+9999999GF100991999999999999999999MA1102985099915OC100885REMMET10102/03/17 13:53:02 METAR KMSP 031953Z 27010G17KT 10SM CLR M06/M18 A3041 RMK AO2 SLP313 T10561178 (CLB)
0213726580149222017020320537+44883-093229FM-15+0255KMSP V0202605N005752200059N0160935N5-00505-01725103115ADDAA101000095GA1005+999999999GD10991+9999999GF100991999999999999999999MA1102955099885MD1690209+9999REMMET10402/03/17 14:53:02 METAR KMSP 032053Z 26011KT 10SM CLR M05/M17 A3040 RMK AO2 SLP311 T10501172 56020 (CLB)
0192726580149222017020321537+44883-093229FM-15+0255KMSP V0202505N005152200059N0160935N5-00445-01785103075ADDAA101000095GA1005+999999999GD10991+9999999GF100991999999999999999999MA1102915099855REMMET09702/03/17 15:53:02 METAR KMSP 032153Z 25010KT 10SM CLR M04/M18 A3039 RMK AO2 SLP307 T10441178 (NK)
0192726580149222017020322537+44883-093229FM-15+0255KMSP V0202605N005152200059N0160935N5-00505-01725103045ADDAA101000095GA1005+999999999GD10991+9999999GF100991999999999999999999MA1102885099815REMMET09702/03/17 16:53:02 METAR KMSP 032253Z 26010KT 10SM CLR M05/M17 A3038 RMK AO2 SLP304 T10501172 (NK)
0250726580149222017020323537+44883-093229FM-15+0255KMSP V0202405N003152200059N0160935N5-00565-01615103005ADDAA101000095GA1005+999999999GD10991+9999999GF100991999999999999999999KA1060M-00441KA2060N-00781MA1102815099755MD1890129+9999REMMET11502/03/17 17:53:02 METAR KMSP 032353Z 24006KT 10SM CLR M06/M16 A3036 RMK AO2 SLP300 T10561161 11044 21078 58012 (NK)
0147726580149222017020400004+44883-093217FM-12+025599999V0202401N003119999999N016000199-00561-01611103001ADDKA1120M-00441KA2120N-01391MA1999999099631MD1810121+9999REMSYN08072658 32966 02406 11056 21161 39963 40300 58012 92353 333 11044 21139 555 90400=
0192726580149222017020400537+44883-093229FM-15+0255KMSP V0202305N003152200059N0160935N5-00615-01505102965ADDAA101000095GA1005+999999999GD10991+9999999GF100991999999999999999999MA1102785099715REMMET09702/03/17 18:53:03 METAR KMSP 040053Z 23006KT 10SM CLR M06/M15 A3035 RMK AO2 SLP296 T10611150 (NK)
0192726580149222017020401537+44883-093229FM-15+0255KMSP V0202505N002152200059N0160935N5-00675-01505102965ADDAA101000095GA1005+999999999GD10991+9999999GF100991999999999999999999MA1102785099715REMMET09702/03/17 19:53:03 METAR KMSP 040153Z 25004KT 10SM CLR M07/M15 A3035 RMK AO2 SLP296 T10671150 (NK)
0212726580149222017020402537+44883-093229FM-15+0255KMSP V0202205N002152200059N0160935N5-00675-01505102945ADDAA101000095GA1005+999999999GD10991+9999999GF100991999999999999999999MA1102785099715MD1690059+9999REMMET10302/03/17 20:53:03 METAR KMSP 040253Z 22004KT 10SM CLR M07/M15 A3035 RMK AO2 SLP294 T10671150 56005 (NK)
0192726580149222017020403537+44883-093229FM-15+0255KMSP V0202005N002152200059N0160935N5-00785-01505102855ADDAA101000095GA1005+999999999GD10991+9999999GF100991999999999999999999MA1102685099615REMMET09702/03/17 21:53:03 METAR KMSP 040353Z 20004KT 10SM CLR M08/M15 A3032 RMK AO2 SLP285 T10781150 (NK)
0192726580149222017020404537+44883-093229FM-15+0255KMSP V0202205N002152200059N0160935N5-00785-01395102825ADDAA101000095GA1005+999999999GD10991+9999999GF100991999999999999999999MA1102645099585REMMET09702/03/17 22:53:03 METAR KMSP 040453Z 22004KT 10SM CLR M08/M14 A3031 RMK AO2 SLP282 T10781139 (PL)
0208726580149222017020405534+44882-093222FM-15+025699999V0201901N002612200019N016093199-00891-01331102721ADDGF100991999999999999999999KA1060M-00561KA2060N-00891KA3240M-00441KA4240N-01391MA1102541999999REMMET103METAR KMSP 040553Z 19005KT 10SM CLR M09/M13 A3028 RMK AO2 SLP272 T10891133 11056 21089 410441139 58021=
0899726580149222017020405596+44883-093229SOD  +0255KMSP V020999999999999999999999999999+99999+99999999999ADDAA124000095AJ100003599999999AL12400095AN1024000095KA1240M-00435KA2240N-01385MG1099814102714OE11240093926099995OE22240071528099995OE33240035399999995REMSOD73924 HR PRECIPITATION (IN): 0.00 SNOW DEPTH (IN):T     24 HR SNOWFALL (IN):0.0  24 HR MAX TEMP (F): 2424 HR MIN TEMP (F):  7AVERAGE STATION PRESSURE:29.475 MINIMUM SEA LEVEL PRESSURE:30.33 TIME OF OCCURRENCE:2359 PEAK WIND SPEED (MPH): 21 PEAK WIND DIR (DEG):260 PEAK WIND TIME (LST):      FASTEST 2MIN SPEED (MPH): 16FASTEST 2MIN DIR (DEG):280 FASTEST 2MIN TIME (LST):     AVERAGE WIND SPEED (MPH): 7.9 24 HR AVG TEMP (F): 16DEPART FROM NORMAL: -1  HEATING DEGREE DAYS: 49 COOLING DEGREE DAYS:  0 LATEST DAY MAX TEMP (0700-1900 LST):24  LATEST NIGHT MIN TEMP(1900-0800 LST):7  HOURLY INCREMENTAL PRECIPITATION VALUES (IN):.00 0.00 0.00 0.00 0.00 0.00 0.00 0.00 0.00 0.00 0.00 0.00 0.00 0.00 0.00 0.00 0.00 0.00 0.00 0.00 0.00 0.00 0.00 0.00
0147726580149222017020406004+44883-093217FM-12+025599999V0201901N002619999999N016000199-00891-01331102721ADDKA1240M-00561KA2240N-01391MA1999999099361MD1810211+9999REMSYN08072658 32966 01905 11089 21133 39936 40272 58021 90553 333 11056 21139 555 90406=
0192726580149222017020406537+44883-093229FM-15+0255KMSP V0202105N003652200059N0160935N5-00895-01335102675ADDAA101000095GA1005+999999999GD10991+9999999GF100991999999999999999999MA1102515099455REMMET09702/04/17 00:53:02 METAR KMSP 040653Z 21007KT 10SM CLR M09/M13 A3027 RMK AO2 SLP267 T10891133 (PL)
0192726580149222017020407537+44883-093229FM-15+0255KMSP V0201905N002652200059N0160935N5-00895-01335102575ADDAA101000095GA1005+999999999GD10991+9999999GF100991999999999999999999MA1102405099355REMMET09702/04/17 01:53:02 METAR KMSP 040753Z 19005KT 10SM CLR M09/M13 A3024 RMK AO2 SLP257 T10891133 (PL)
0212726580149222017020408537+44883-093229FM-15+0255KMSP V0201505N003652200059N0160935N5-01065-01395102455ADDAA101000095GA1005+999999999GD10991+9999999GF100991999999999999999999MA1102305099255MD1890259+9999REMMET10302/04/17 02:53:02 METAR KMSP 040853Z 15007KT 10SM CLR M11/M14 A3021 RMK AO2 SLP245 T11061139 58025 (PL)
0217726580149222017020409537+44883-093229FM-15+0255KMSP V0201705N00515030485MN0160935N5-00945-01395102255ADDAA101000095GA1075+030485999GD13991+0304859GE19MSL   +99999+99999GF199999999999030481999999MA1102105099055REMMET10002/04/17 03:53:02 METAR KMSP 040953Z 17010KT 10SM BKN100 M09/M14 A3015 RMK AO2 SLP225 T10941139 (PL)
0217726580149222017020410537+44883-093229FM-15+0255KMSP V0201705N00465027435MN0160935N5-00835-01395102105ADDAA101000095GA1085+027435999GD14991+0274359GE19MSL   +99999+99999GF199999999999027431999999MA1101965098925REMMET10002/04/17 04:53:02 METAR KMSP 041053Z 17009KT 10SM OVC090 M08/M14 A3011 RMK AO2 SLP210 T10831139 (PL)
0275726580149222017020411537+44883-093229FM-15+0255KMSP V0201605N00465033535MN0160935N5-00725-01285101935ADDAA101000095GA1085+033535999GD14991+0335359GE19MSL   +99999+99999GF199999999999033531999999KA1060M-00721KA2060N-01061MA1101795098765MD1690499+9999REMMET11802/04/17 05:53:02 METAR KMSP 041153Z 16009KT 10SM OVC110 M07/M13 A3006 RMK AO2 SLP193 T10721128 11072 21106 56049 (PL)
0195726580149222017020412004+44883-093217FM-12+025599999V0201601N004619999999N016000199-00721-01281101931ADDGE19MSL   +99999+99999GF108991999999999999999999KA1240M-00441KA2240N-01061MA1999999098641MD1610491+9999REMSYN08072658 32966 81609 11072 21128 39864 40193 56049 91153 333 11044 21106 555 90412=
0255726580149222017020412537+44883-093229FM-15+0255KMSP V0201805N00575042675MN0160935N5-00565-01285101815ADDAA101000095GA1045+030485999GA2085+042675999GD12991+0304859GD24991+0426759GE19MSL   +99999+99999GF199999999999030481999999MA1101665098625REMMET10702/04/17 06:53:02 METAR KMSP 041253Z 18011KT 10SM SCT100 OVC140 M06/M13 A3002 RMK AO2 SLP181 T10561128 (PL)
0256726580149222017020413537+44883-093229FM-15+0255KMSP V0201805N00675042675MN0160935N5-00505-01225101665ADDAA101000095GA1045+033535999GA2085+042675999GD12991+0335359GD24991+0426759GE19MSL   +99999+99999GF199999999999033531999999MA1101525098495REMMET10802/04/17 07:53:02 METAR KMSP 041353Z 18013KT 10SM SCT110 OVC140 M05/M12 A2998 RMK AO2 SLP166 T10501122 (TAN)
0314726580149222017020414537+44883-093229FM-15+0255KMSP V0201805N00625036585MN0160935N5-00445-01175101575ADDAA101000095GA1075+036585999GA2075+042675999GA3085+091445999GD13991+0365859GD23991+0426759GD34991+0914459GE19MSL   +99999+99999GF199999999999036581999999MA1101425098395MD1690359+9999REMMET12102/04/17 08:53:02 METAR KMSP 041453Z 18012KT 10SM BKN120 BKN140 OVC300 M04/M12 A2995 RMK AO2 SLP157 T10441117 56035 (TAN)
0267726580149222017020415537+44883-093229FM-15+0255KMSP V0202005N00675036585MN0160935N5-00225-01065101505ADDAA101000095GA1075+036585999GA2085+073155999GD13991+0365859GD24991+0731559GE19MSL   +99999+99999GF199999999999036581999999MA1101395098365OC101035REMMET11102/04/17 09:53:02 METAR KMSP 041553Z 20013G20KT 10SM BKN120 OVC240 M02/M11 A2994 RMK AO2 SLP150 T10221106 (TAN)
0229726580149222017020416537+44883-093229FM-15+0255KMSP V0202005N00575021345MN0160935N5-00175-01065101405ADDAA101000095GA1085+021345999GD14991+0213459GE19MSL   +99999+99999GF199999999999021341999999MA1101295098265OC100985REMMET10402/04/17 10:53:02 METAR KMSP 041653Z 20011G19KT 10SM OVC070 M02/M11 A2991 RMK AO2 SLP140 T10171106 (TAN)
0363726580149222017020417537+44883-093229FM-15+0255KMSP V0201905N00725073155MN0160935N5-00065-01005101205ADDAA101000095GA1025+021345999GA2045+030485999GA3075+073155999GD11991+0213459GD22991+0304859GD33991+0731559GE19MSL   +99999+99999GF199999999999021341999999KA1060M-00061KA2060N-00721MA1101085098065MD1890349+9999OC101185REMMET13602/04/17 11:53:02 METAR KMSP 041753Z 19014G23KT 10SM FEW070 SCT100 BKN240 M01/M10 A2985 RMK AO2 SLP120 T10061100 11006 21072 58034 (TAN)
0231726580149222017020418004+44883-093217FM-12+025599999V0201901N007219999999N016000199-00061-01001101201ADDGA1999+022501999GE19MSL   +99999+99999GF106991999999022501999999KA1120M-00061KA2120N-00781MA1999999097941MD1810341+9999OD149901181999REMSYN08672658 32866 61914 11006 21100 39794 40120 58034 91753 333 11006 21078 91023 555 90418=
0304726580149222017020418537+44883-093229FM-15+0255KMSP V0202005N00625091445MN0160935N5+00065-01005101035ADDAA101000095GA1025+012195999GA2045+030485999GA3075+091445999GD11991+0121959GD22991+0304859GD33991+0914459GE19MSL   +99999+99999GF199999999999012191999999MA1100915097905OC100985REMMET11702/04/17 12:53:02 METAR KMSP 041853Z 20012G19KT 10SM FEW040 SCT100 BKN300 01/M10 A2980 RMK AO2 SLP103 T00061100 (TAN)
0304726580149222017020419537+44883-093229FM-15+0255KMSP V0202105N00725091445MN0160935N5+00115-00895100925ADDAA101000095GA1045+012195999GA2045+039625999GA3075+091445999GD12991+0121959GD22991+0396259GD33991+0914459GE19MSL   +99999+99999GF199999999999012191999999MA1100815097805OC100985REMMET11702/04/17 13:53:02 METAR KMSP 041953Z 21014G19KT 10SM SCT040 SCT130 BKN300 01/M09 A2977 RMK AO2 SLP092 T00111089 (TAN)
0313726580149222017020420537+44883-093229FM-15+0255KMSP V0202105N00675012505MN0160935N5+00115-00835100885ADDAA101000095GA1075+012505999GA2075+036585999GA3075+054865999GD13991+0125059GD23991+0365859GD33991+0548659GE19MSL   +99999+99999GF199999999999012501999999MA1100755097735MD1690329+9999REMMET12002/04/17 14:53:02 METAR KMSP 042053Z 21013KT 10SM BKN041 BKN120 BKN180 01/M08 A2975 RMK AO2 SLP088 T00111083 56032 (TAN)
0254726580149222017020421537+44883-093229FM-15+0255KMSP V0202205N00465030485MN0160935N5+00115-00785100865ADDAA101000095GA1045+012195999GA2075+030485999GD12991+0121959GD23991+0304859GE19MSL   +99999+99999GF199999999999012191999999MA1100755097735REMMET10602/04/17 15:53:02 METAR KMSP 042153Z 22009KT 10SM SCT040 BKN100 01/M08 A2975 RMK AO2 SLP086 T00111078 (NK)
0292726580149222017020422537+44883-093229FM-15+0255KMSP V0202105N00265033535MN0160935N5+00115-00785100845ADDAA101000095GA1025+012195999GA2075+033535999GA3075+076205999GD11991+0121959GD23991+0335359GD33991+0762059GE19MSL   +99999+99999GF199999999999012191999999MA1100755097735REMMET11302/04/17 16:53:02 METAR KMSP 042253Z 21005KT 10SM FEW040 BKN110 BKN250 01/M08 A2975 RMK AO2 SLP084 T00111078 (NK)
0350726580149222017020423537+44883-093229FM-15+0255KMSP V0202305N00215012195MN0160935N5+00065-00725100875ADDAA101000095GA1075+012195999GA2075+025915999GA3075+033535999GD13991+0121959GD23991+0259159GD33991+0335359GE19MSL   +99999+99999GF199999999999012191999999KA1060M+00171KA2060N-00061MA1100755097735MD1390009+9999REMMET13102/04/17 17:53:02 METAR KMSP 042353Z 23004KT 10SM BKN040 BKN085 BKN110 01/M07 A2975 RMK AO2 SLP087 T00061072 10017 21006 53000 (NK)
0216726580149222017020500004+44883-093217FM-12+025599999V0202301N002119999999N016000199+00061-00721100871ADDGA1999+012501999GE19MSL   +99999+99999GF106991999999012501999999KA1120M+00171KA2120N-01061MA1999999097611REMSYN08072658 32666 62304 10006 21072 39761 40087 53000 92353 333 10017 21106 555 90500=EQDQ013     3APCTEN
0216726580149222017020500537+44883-093229FM-15+0255KMSP V0209999C00005011285MN0160935N5+00065-00675100905ADDAA101000095GA1085+011285999GD14991+0112859GE19MSL   +99999+99999GF199999999999011281999999MA1100815097805REMMET09902/04/17 18:53:03 METAR KMSP 050053Z 00000KT 10SM OVC037 01/M07 A2977 RMK AO2 SLP090 T00061067 (NK)
0254726580149222017020501537+44883-093229FM-15+0255KMSP V0202005N00215036585MN0160935N5+00005-00675100845ADDAA101000095GA1045+011285999GA2075+036585999GD12991+0112859GD23991+0365859GE19MSL   +99999+99999GF199999999999011281999999MA1100755097735REMMET10602/04/17 19:53:03 METAR KMSP 050153Z 20004KT 10SM SCT037 BKN120 00/M07 A2975 RMK AO2 SLP084 T00001067 (NK)
0307726580149222017020502537+44883-093229FM-15+0255KMSP V0202405N00215027435MN0160935N5+00005-00615100825ADDAA101000095GA1025+011285999GA2045+022865999GA3085+027435999GD11991+0112859GD22991+0228659GD34991+0274359GE19MSL   +99999+99999GF199999999999011281999999MA1100715097705MD1890049+9999REMMET11402/04/17 20:53:02 METAR KMSP 050253Z 24004KT 10SM FEW037 SCT075 OVC090 00/M06 A2974 RMK AO2 SLP082 T00001061 58004
0211726580149222017020503537+44883-093229FM-15+0255KMSP V0202605N00265018295MN0160935N5+00005-00615100895ADDAA101000095GA1085+018295999GD14991+0182959GE19MSL   +99999+99999GF199999999999018291999999MA1100785097765REMMET09402/04/17 21:53:02 METAR KMSP 050353Z 26005KT 10SM OVC060 00/M06 A2976 RMK AO2 SLP089 T00001061
0249726580149222017020504537+44883-093229FM-15+0255KMSP V0202705N00315019815MN0160935N5+00005-00565100905ADDAA101000095GA1025+015245999GA2085+019815999GD11991+0152459GD24991+0198159GE19MSL   +99999+99999GF199999999999015241999999MA1100815097805REMMET10102/04/17 22:53:02 METAR KMSP 050453Z 27006KT 10SM FEW050 OVC065 00/M06 A2977 RMK AO2 SLP090 T00001056
0305726580149222017020505537+44883-093229FM-15+0255KMSP V0202905N00415014945MN0160935N5+00005-00565100945ADDAA101000095GA1085+014945999GD14991+0149459GE19MSL   +99999+99999GF199999999999014941999999KA1060M+00061KA2060N-00061KA3240M+00171KA4240N-01061MA1100855097835MD1190129+9999REMMET12202/04/17 23:53:02 METAR KMSP 050553Z 29008KT 10SM OVC049 00/M06 A2978 RMK AO2 SLP094 T00001056 10006 21006 400171106 51012
0899726580149222017020505596+44883-093229SOD  +0255KMSP V020999999999999999999999999999+99999+99999999999ADDAA124000095AJ100003599999999AL12400095AN1024000095KA1240M+00175KA2240N-01055MG1098074100814OE11240125221099995OE22240093918099995OE33240043899999995REMSOD73924 HR PRECIPITATION (IN): 0.00 SNOW DEPTH (IN):T     24 HR SNOWFALL (IN):0.0  24 HR MAX TEMP (F): 3524 HR MIN TEMP (F): 13AVERAGE STATION PRESSURE:28.960 MINIMUM SEA LEVEL PRESSURE:29.77 TIME OF OCCURRENCE:2058 PEAK WIND SPEED (MPH): 28 PEAK WIND DIR (DEG):210 PEAK WIND TIME (LST):      FASTEST 2MIN SPEED (MPH): 21FASTEST 2MIN DIR (DEG):180 FASTEST 2MIN TIME (LST):     AVERAGE WIND SPEED (MPH): 9.8 24 HR AVG TEMP (F): 24DEPART FROM NORMAL:  6  HEATING DEGREE DAYS: 41 COOLING DEGREE DAYS:  0 LATEST DAY MAX TEMP (0700-1900 LST):35  LATEST NIGHT MIN TEMP(1900-0800 LST):13 HOURLY INCREMENTAL PRECIPITATION VALUES (IN):.00 0.00 0.00 0.00 0.00 0.00 0.00 0.00 0.00 0.00 0.00 0.00 0.00 0.00 0.00 0.00 0.00 0.00 0.00 0.00 0.00 0.00 0.00 0.00
0211726580149222017020506004+44883-093217FM-12+025599999V0202901N004119999999N016000199+00001-00561100941ADDGA1999+012501999GE19MSL   +99999+99999GF108991999999012501999999KA1240M+00061KA2240N-01061MA1999999097711MD1110121+9999REMSYN08072658 32666 82908 10000 21056 39771 40094 51012 90553 333 10006 21106 555 90506=
0255726580149222017020506537+44883-093229FM-15+0255KMSP V0203005N00625010975MN0160935N5-00065-00505101015ADDAA101000095GA1075+010975999GA2085+015245999GD13991+0109759GD24991+0152459GE19MSL   +99999+99999GF199999999999010971999999MA1100915097905REMMET10702/05/17 00:53:02 METAR KMSP 050653Z 30012KT 10SM BKN036 OVC050 M01/M05 A2980 RMK AO2 SLP101 T10061050 (AP)
0237726580149222017020507167+44883-093229FM-16+0255KMSP V0203005N00515006405MN0160935N5-00065-00505999999ADDGA1075+006405999GA2085+010675999GD13991+0064059GD24991+0106759GE19MSL   +99999+99999GF199999999999006401999999MA1100955097935REMMET10002/05/17 01:16:02 SPECI KMSP 050716Z 30010KT 10SM BKN021 OVC035 M01/M05 A2981 RMK AO2 T10061050 (AP)
0217726580149222017020507537+44883-093229FM-15+0255KMSP V0203005N00575005795MN0160935N5-00065-00505101125ADDAA101000095GA1085+005795999GD14991+0057959GE19MSL   +99999+99999GF199999999999005791999999MA1101055098035REMMET10002/05/17 01:53:02 METAR KMSP 050753Z 30011KT 10SM OVC019 M01/M05 A2984 RMK AO2 SLP112 T10061050 (AP)
0248726580149222017020508537+44883-093229FM-15+0255KMSP V0203105N00775005795MN0160935N5-00115-00565101325ADDAA101000095GA1085+005795999GD14991+0057959GE19MSL   +99999+99999GF199999999999005791999999MA1101225098195MD1390379+9999OC101035REMMET10902/05/17 02:53:02 METAR KMSP 050853Z 31015G20KT 10SM OVC019 M01/M06 A2989 RMK AO2 SLP132 T10111056 53037 (AP)
0249726580149222017020509537+44883-093229FM-15+0255KMSP V0203405N00885006715MN0160935N5-00285-00835101465ADDAA101000095GA1085+006715999GD14991+0067159GE19MSL   +99999+99999GF199999999999006711999999MA1101355098335OD149901331320REMMET11802/05/17 03:53:02 METAR KMSP 050953Z 34017KT 10SM OVC022 M03/M08 A2993 RMK AO2 PK WND 32026/0927 SLP146 T10281083 (AP)
0218726580149222017020510377+44883-093229FM-16+0255KMSP V0203305N006752200059N0160935N5-00505-01005999999ADDGA1045+007925999GD12991+0079259GE19AGL   +99999+99999GF104995999999007921999999MA1101495098465REMMET09302/05/17 04:37:02 SPECI KMSP 051037Z 33013KT 10SM SCT026 M05/M10 A2997 RMK AO2 T10501100 (AP)EQDD01      0ADE726
0236726580149222017020510537+44883-093229FM-15+0255KMSP V0203305N007252200059N0160935N5-00565-01065101635ADDAA101000095GA1025+007925999GD11991+0079259GE19AGL   +99999+99999GF102995999999007921999999MA1101525098495REMMET10002/05/17 04:53:02 METAR KMSP 051053Z 33014KT 10SM FEW026 M06/M11 A2998 RMK AO2 SLP163 T10561106 (AP)EQDD01      0ADE726
0294726580149222017020511537+44883-093229FM-15+0255KMSP V0203405N006752200059N0160935N5-00675-01115101765ADDAA101000095GA1025+007625999GD11991+0076259GE19AGL   +99999+99999GF102995999999007621999999KA1060M+00001KA2060N-00671MA1101665098625MD1190419+9999REMMET11802/05/17 05:53:02 METAR KMSP 051153Z 34013KT 10SM FEW025 M07/M11 A3002 RMK AO2 SLP176 T10671111 10000 21067 51041 (AP)EQDD01      0ADE726
0211726580149222017020512004+44883-093217FM-12+025599999V0203401N006719999999N016000199-00671-01111101761ADDGA1999+008001999GE19MSL   +99999+99999GF102991999999008001999999KA1240M+00171KA2240N-00671MA1999999098501MD1110411+9999REMSYN08072658 32566 23413 11067 21111 39850 40176 51041 91153 333 10017 21067 555 90512=
0236726580149222017020512537+44883-093229FM-15+0255KMSP V0203305N006752200059N0160935N5-00725-01225101885ADDAA101000095GA1025+006405999GD11991+0064059GE19AGL   +99999+99999GF102995999999006401999999MA1101765098725REMMET10002/05/17 06:53:02 METAR KMSP 051253Z 33013KT 10SM FEW021 M07/M12 A3005 RMK AO2 SLP188 T10721122 (AP)EQDD01      0ADE726
0192726580149222017020513537+44883-093229FM-15+0255KMSP V0203505N003652200059N0160935N5-00785-01225101965ADDAA101000095GA1005+999999999GD10991+9999999GF100991999999999999999999MA1101835098795REMMET09702/05/17 07:53:02 METAR KMSP 051353Z 35007KT 10SM CLR M08/M12 A3007 RMK AO2 SLP196 T10781122 (AP)
0256726580149222017020514537+44883-093229FM-15+0255KMSP V0203305N005752200059N0160935N5-00675-01175102005ADDAA101000095GA1025+009145999GD11991+0091459GE19AGL   +99999+99999GF102995999999009141999999MA1101905098855MD1190239+9999REMMET10602/05/17 08:53:02 METAR KMSP 051453Z 33011KT 10SM FEW030 M07/M12 A3009 RMK AO2 SLP200 T10671117 51023 (NK)EQDD01      0ADE726
0236726580149222017020515537+44883-093229FM-15+0255KMSP V0203505N004152200059N0160935N5-00615-01285102045ADDAA101000095GA1025+007015999GD11991+0070159GE19AGL   +99999+99999GF102995999999007011999999MA1101935098895REMMET10002/05/17 09:53:02 METAR KMSP 051553Z 35008KT 10SM FEW023 M06/M13 A3010 RMK AO2 SLP204 T10611128 (NK)EQDD01      0ADE726
0274726580149222017020516537+44883-093229FM-15+0255KMSP V0203205N005152200059N0160935N5-00505-01285102095ADDAA101000095GA1025+007015999GA2025+076205999GD11991+0070159GD21991+0762059GE19AGL   +99999+99999GF102995999999007011999999MA1101965098925REMMET10702/05/17 10:53:02 METAR KMSP 051653Z 32010KT 10SM FEW023 FEW250 M05/M13 A3011 RMK AO2 SLP209 T10501128 (NK)EQDD01      0ADE726
0294726580149222017020517537+44883-093229FM-15+0255KMSP V0203405N005152200059N0160935N5-00445-01395102135ADDAA101000095GA1025+076205999GD11991+0762059GE19AGL   +99999+99999GF102995999999076201999999KA1060M-00441KA2060N-00781MA1102035098995MD1190139+9999REMMET11802/05/17 11:53:02 METAR KMSP 051753Z 34010KT 10SM FEW250 M04/M14 A3013 RMK AO2 SLP213 T10441139 11044 21078 51013 (NK)EQDD01      0ADE726
0195726580149222017020518004+44883-093217FM-12+025599999V0203401N005119999999N016000199-00441-01391102131ADDGE19MSL   +99999+99999GF102991999999999999999999KA1120M+00001KA2120N-00781MA1999999098871MD1110131+9999REMSYN08072658 32966 23410 11044 21139 39887 40213 51013 91753 333 10000 21078 555 90518=
0236726580149222017020518537+44883-093229FM-15+0255KMSP V0203405N002652200059N0160935N5-00395-01395102095ADDAA101000095GA1045+076205999GD12991+0762059GE19AGL   +99999+99999GF104995999999076201999999MA1101965098925REMMET10002/05/17 12:53:02 METAR KMSP 051853Z 34005KT 10SM SCT250 M04/M14 A3011 RMK AO2 SLP209 T10391139 (NK)EQDD01      0ADE726
0237726580149222017020519537+44883-093229FM-15+0255KMSP V0203205N003652200059N0160935N5-00335-01505102005ADDAA101000095GA1045+091445999GD12991+0914459GE19AGL   +99999+99999GF104995999999091441999999MA1101905098855REMMET10102/05/17 13:53:02 METAR KMSP 051953Z 32007KT 10SM SCT300 M03/M15 A3009 RMK AO2 SLP200 T10331150 (JDB)EQDD01      0ADE726
0257726580149222017020520537+44883-093229FM-15+0255KMSP V0200305N001552200059N0160935N5-00335-01565101945ADDAA101000095GA1045+091445999GD12991+0914459GE19AGL   +99999+99999GF104995999999091441999999MA1101835098795MD1890189+9999REMMET10702/05/17 14:53:02 METAR KMSP 052053Z 03003KT 10SM SCT300 M03/M16 A3007 RMK AO2 SLP194 T10331156 58018 (JDB)EQDD01      0ADE726
0313726580149222017020521537+44883-093229FM-15+0255KMSP V0203505N001552200059N0160935N5-00395-01565101955ADDAA101000095GA1025+027435999GA2025+054865999GA3045+091445999GD11991+0274359GD21991+0548659GD32991+0914459GE19AGL   +99999+99999GF104995999999027431999999MA1101835098795REMMET11502/05/17 15:53:02 METAR KMSP 052153Z 35003KT 10SM FEW090 FEW180 SCT300 M04/M16 A3007 RMK AO2 SLP195 T10391156 (JDB)EQDD01      0ADE726
0275726580149222017020522537+44883-093229FM-15+0255KMSP V0201305N001552200059N0160935N5-00395-01505101935ADDAA101000095GA1025+027435999GA2045+091445999GD11991+0274359GD22991+0914459GE19AGL   +99999+99999GF104995999999027431999999MA1101795098765REMMET10802/05/17 16:53:02 METAR KMSP 052253Z 13003KT 10SM FEW090 SCT300 M04/M15 A3006 RMK AO2 SLP193 T10391150 (JDB)EQDD01      0ADE726
0314726580149222017020523537+44883-093229FM-15+0255KMSP V0209999C00005091445MN0160935N5-00445-01505101955ADDAA101000095GA1025+027435999GA2075+091445999GD11991+0274359GD23991+0914459GE19MSL   +99999+99999GF199999999999027431999999KA1060M-00281KA2060N-00441MA1101795098765MD1590029+9999REMMET12602/05/17 17:53:02 METAR KMSP 052353Z 00000KT 10SM FEW090 BKN300 M04/M15 A3006 RMK AO2 SLP195 T10441150 11028 21044 55002 (JDB)
0195726580149222017020600004+44883-093217FM-12+025599999V0209999C000019999999N016000199-00441-01501101951ADDGE19MSL   +99999+99999GF106991999999999999999999KA1120M-00281KA2120N-00671MA1999999098641MD1510021+9999REMSYN08072658 32966 60000 11044 21150 39864 40195 55002 92353 333 11028 21067 555 90600=
0212726580149222017020600537+44883-093229FM-15+0255KMSP V0201305N00265091445MN0160935N5-00505-01395101925ADDAA101000095GA1075+091445999GD13991+0914459GE19MSL   +99999+99999GF199999999999091441999999MA1101795098765REMMET09502/05/17 18:53:01 METAR KMSP 060053Z 13005KT 10SM BKN300 M05/M14 A3006 RMK AO2 SLP192 T10501139
0212726580149222017020601537+44883-093229FM-15+0255KMSP V0200905N00315091445MN0160935N5-00505-01445101945ADDAA101000095GA1085+091445999GD14991+0914459GE19MSL   +99999+99999GF199999999999091441999999MA1101795098765REMMET09502/05/17 19:53:01 METAR KMSP 060153Z 09006KT 10SM OVC300 M05/M14 A3006 RMK AO2 SLP194 T10501144
0232726580149222017020602537+44883-093229FM-15+0255KMSP V0201205N00315091445MN0160935N5-00565-01445101805ADDAA101000095GA1085+091445999GD14991+0914459GE19MSL   +99999+99999GF199999999999091441999999MA1101665098625MD1890149+9999REMMET10102/05/17 20:53:02 METAR KMSP 060253Z 12006KT 10SM OVC300 M06/M14 A3002 RMK AO2 SLP180 T10561144 58014
0212726580149222017020603537+44883-093229FM-15+0255KMSP V0201005N00265091445MN0160935N5-00615-01505101765ADDAA101000095GA1085+091445999GD14991+0914459GE19MSL   +99999+99999GF199999999999091441999999MA1101635098595REMMET09502/05/17 21:53:02 METAR KMSP 060353Z 10005KT 10SM OVC300 M06/M15 A3001 RMK AO2 SLP176 T10611150
0212726580149222017020604537+44883-093229FM-15+0255KMSP V0200705N00265091445MN0160935N5-00675-01445101735ADDAA101000095GA1085+091445999GD14991+0914459GE19MSL   +99999+99999GF199999999999091441999999MA1101595098565REMMET09502/05/17 22:53:02 METAR KMSP 060453Z 07005KT 10SM OVC300 M07/M14 A3000 RMK AO2 SLP173 T10671144
0306726580149222017020605537+44883-093229FM-15+0255KMSP V0201205N00265091445MN0160935N5-00675-01395101675ADDAA101000095GA1085+091445999GD14991+0914459GE19MSL   +99999+99999GF199999999999091441999999KA1060M-00441KA2060N-00671KA3240M+00001KA4240N-00781MA1101525098495MD1890139+9999REMMET12302/05/17 23:53:02 METAR KMSP 060553Z 12005KT 10SM OVC300 M07/M14 A2998 RMK AO2 SLP167 T10671139 11044 21067 400001078 58013
0899726580149222017020605596+44883-093229SOD  +0255KMSP V020999999999999999999999999999+99999+99999999999ADDAA124000095AJ100003599999999AL12400095AN1024000095KA1240M+00005KA2240N-00775MG1098704100954OE11240134132099995OE22240107332099995OE33240041699999995REMSOD73924 HR PRECIPITATION (IN): 0.00 SNOW DEPTH (IN):T     24 HR SNOWFALL (IN):0.0  24 HR MAX TEMP (F): 3224 HR MIN TEMP (F): 18AVERAGE STATION PRESSURE:29.145 MINIMUM SEA LEVEL PRESSURE:29.81 TIME OF OCCURRENCE:0030 PEAK WIND SPEED (MPH): 30 PEAK WIND DIR (DEG):320 PEAK WIND TIME (LST):      FASTEST 2MIN SPEED (MPH): 24FASTEST 2MIN DIR (DEG):320 FASTEST 2MIN TIME (LST):     AVERAGE WIND SPEED (MPH): 9.3 24 HR AVG TEMP (F): 25DEPART FROM NORMAL:  7  HEATING DEGREE DAYS: 40 COOLING DEGREE DAYS:  0 LATEST DAY MAX TEMP (0700-1900 LST):27  LATEST NIGHT MIN TEMP(1900-0800 LST):18 HOURLY INCREMENTAL PRECIPITATION VALUES (IN):.00 0.00 0.00 0.00 0.00 0.00 0.00 0.00 0.00 0.00 0.00 0.00 0.00 0.00 0.00 0.00 0.00 0.00 0.00 0.00 0.00 0.00 0.00 0.00
0195726580149222017020606004+44883-093217FM-12+025599999V0201201N002619999999N016000199-00671-01391101671ADDGE19MSL   +99999+99999GF108991999999999999999999KA1240M+00001KA2240N-00671MA1999999098371MD1810131+9999REMSYN08072658 32966 81205 11067 21139 39837 40167 58013 90553 333 10000 21067 555 90606=
0217726580149222017020606537+44883-093229FM-15+0255KMSP V0201205N00265091445MN0160935N5-00725-01285101645ADDAA101000095GA1075+091445999GD13991+0914459GE19MSL   +99999+99999GF199999999999091441999999MA1101525098495REMMET10002/06/17 00:53:02 METAR KMSP 060653Z 12005KT 10SM BKN300 M07/M13 A2998 RMK AO2 SLP164 T10721128 (NK)
0217726580149222017020607537+44883-093229FM-15+0255KMSP V0201305N00315091445MN0160935N5-00725-01225101575ADDAA101000095GA1075+091445999GD13991+0914459GE19MSL   +99999+99999GF199999999999091441999999MA1101465098435REMMET10002/06/17 01:53:02 METAR KMSP 060753Z 13006KT 10SM BKN300 M07/M12 A2996 RMK AO2 SLP157 T10721122 (NK)
0237726580149222017020608537+44883-093229FM-15+0255KMSP V0201205N00465091445MN0160935N5-00725-01175101465ADDAA101000095GA1075+091445999GD13991+0914459GE19MSL   +99999+99999GF199999999999091441999999MA1101325098295MD1890199+9999REMMET10602/06/17 02:53:02 METAR KMSP 060853Z 12009KT 10SM BKN300 M07/M12 A2992 RMK AO2 SLP146 T10721117 58019 (NK)
0224726580149222017020609537+44883-093229FM-15+0255KMSP V0201305N00365091445MN0160935N5-00725-01115101365ADDAA101000095GA1075+091445999GD13991+0914459GE19MSL   +99999+99999GF199999999999091441999999MA1101225098195REMMET10702/06/17 03:53:02 METAR KMSP 060953Z 13007KT 10SM BKN300 M07/M11 A2989 RMK AO2 PRESFR SLP136 T10721111 (NK)
0216726580149222017020610537+44883-093229FM-15+0255KMSP V0201305N00365091445MN0144845N5-00725-01065101255ADDAA101000095GA1075+091445999GD13991+0914459GE19MSL   +99999+99999GF199999999999091441999999MA1101125098095REMMET09902/06/17 04:53:02 METAR KMSP 061053Z 13007KT 9SM BKN300 M07/M11 A2986 RMK AO2 SLP125 T10721106 (NK)
0275726580149222017020611537+44883-093229FM-15+0255KMSP V0200805N00365091445MN0160935N5-00725-01115101205ADDAA101000095GA1075+091445999GD13991+0914459GE19MSL   +99999+99999GF199999999999091441999999KA1060M-00671KA2060N-00781MA1101085098065MD1690269+9999REMMET11802/06/17 05:53:02 METAR KMSP 061153Z 08007KT 10SM BKN300 M07/M11 A2985 RMK AO2 SLP120 T10721111 11067 21078 56026 (NK)
0195726580149222017020612004+44883-093217FM-12+025599999V0200801N003619999999N016000199-00721-01111101201ADDGE19MSL   +99999+99999GF106991999999999999999999KA1240M+00001KA2240N-00781MA1999999097941MD1610261+9999REMSYN08072658 32966 60807 11072 21111 39794 40120 56026 91153 333 10000 21078 555 90612=
0217726580149222017020612537+44883-093229FM-15+0255KMSP V0201205N00465091445MN0160935N5-00725-01115101155ADDAA101000095GA1075+091445999GD13991+0914459GE19MSL   +99999+99999GF199999999999091441999999MA1101025098005REMMET10002/06/17 06:53:02 METAR KMSP 061253Z 12009KT 10SM BKN300 M07/M11 A2983 RMK AO2 SLP115 T10721111 (NK)
0218726580149222017020613537+44883-093229FM-15+0255KMSP V0201305N00415091445MN0160935N5-00725-01115101075ADDAA101000095GA1085+091445999GD14991+0914459GE19MSL   +99999+99999GF199999999999091441999999MA1100955097935REMMET10102/06/17 07:53:02 METAR KMSP 061353Z 13008KT 10SM OVC300 M07/M11 A2981 RMK AO2 SLP107 T10721111 (CLB)
0237726580149222017020614537+44883-093229FM-15+0255KMSP V0201205N00365091445MN0144845N5-00615-01005101055ADDAA101000095GA1085+091445999GD14991+0914459GE19MSL   +99999+99999GF199999999999091441999999MA1100915097905MD1690159+9999REMMET10602/06/17 08:53:02 METAR KMSP 061453Z 12007KT 9SM OVC300 M06/M10 A2980 RMK AO2 SLP105 T10611100 56015 (CLB)
0218726580149222017020615537+44883-093229FM-15+0255KMSP V0201205N00365091445MN0160935N5-00445-00945100995ADDAA101000095GA1085+091445999GD14991+0914459GE19MSL   +99999+99999GF199999999999091441999999MA1100885097865REMMET10102/06/17 09:53:02 METAR KMSP 061553Z 12007KT 10SM OVC300 M04/M09 A2979 RMK AO2 SLP099 T10441094 (CLB)
0218726580149222017020616537+44883-093229FM-15+0255KMSP V0201105N00365091445MN0160935N5-00285-00835100935ADDAA101000095GA1075+091445999GD13991+0914459GE19MSL   +99999+99999GF199999999999091441999999MA1100815097805REMMET10102/06/17 10:53:02 METAR KMSP 061653Z 11007KT 10SM BKN300 M03/M08 A2977 RMK AO2 SLP093 T10281083 (CLB)
0276726580149222017020617537+44883-093229FM-15+0255KMSP V0201205N00365091445MN0160935N5-00115-00785100855ADDAA101000095GA1075+091445999GD13991+0914459GE19MSL   +99999+99999GF199999999999091441999999KA1060M-00111KA2060N-00721MA1100715097705MD1890199+9999REMMET11902/06/17 11:53:02 METAR KMSP 061753Z 12007KT 10SM BKN300 M01/M08 A2974 RMK AO2 SLP085 T10111078 11011 21072 58019 (CLB)
0195726580149222017020618004+44883-093217FM-12+025599999V0201201N003619999999N016000199-00111-00781100851ADDGE19MSL   +99999+99999GF106991999999999999999999KA1120M-00111KA2120N-00721MA1999999097581MD1810191+9999REMSYN08072658 32966 61207 11011 21078 39758 40085 58019 91753 333 11011 21072 555 90618=
0255726580149222017020618537+44883-093229FM-15+0255KMSP V0201005N00265091445MN0160935N5+00005-00725100745ADDAA101000095GA1025+060965999GA2075+091445999GD11991+0609659GD23991+0914459GE19MSL   +99999+99999GF199999999999060961999999MA1100615097605REMMET10702/06/17 12:53:02 METAR KMSP 061853Z 10005KT 10SM FEW200 BKN300 00/M07 A2971 RMK AO2 SLP074 T00001072 (CLB)
0255726580149222017020619537+44883-093229FM-15+0255KMSP V0200805N00415091445MN0160935N5+00005-00675100615ADDAA101000095GA1025+060965999GA2075+091445999GD11991+0609659GD23991+0914459GE19MSL   +99999+99999GF199999999999060961999999MA1100515097505REMMET10702/06/17 13:53:02 METAR KMSP 061953Z 08008KT 10SM FEW200 BKN300 00/M07 A2968 RMK AO2 SLP061 T00001067 (CLB)
0275726580149222017020620537+44883-093229FM-15+0255KMSP V0201105N00365054865MN0160935N5+00065-00675100555ADDAA101000095GA1075+054865999GA2085+076205999GD13991+0548659GD24991+0762059GE19MSL   +99999+99999GF199999999999054861999999MA1100445097435MD1690289+9999REMMET11302/06/17 14:53:02 METAR KMSP 062053Z 11007KT 10SM BKN180 OVC250 01/M07 A2966 RMK AO2 SLP055 T00061067 56028 (CLB)
0255726580149222017020621537+44883-093229FM-15+0255KMSP V0201005N00415051825MN0160935N5+00005-00675100575ADDAA101000095GA1075+051825999GA2085+076205999GD13991+0518259GD24991+0762059GE19MSL   +99999+99999GF199999999999051821999999MA1100475097475REMMET10702/06/17 15:53:02 METAR KMSP 062153Z 10008KT 10SM BKN170 OVC250 00/M07 A2967 RMK AO2 SLP057 T00001067 (JDB)
0255726580149222017020622537+44883-093229FM-15+0255KMSP V0200605N00465076205MN0160935N5+00005-00725100565ADDAA101000095GA1045+048775999GA2085+076205999GD12991+0487759GD24991+0762059GE19MSL   +99999+99999GF199999999999048771999999MA1100445097435REMMET10702/06/17 16:53:02 METAR KMSP 062253Z 06009KT 10SM SCT160 OVC250 00/M07 A2966 RMK AO2 SLP056 T00001072 (JDB)
0314726580149222017020623537+44883-093229FM-15+0255KMSP V0200705N00415042675MN0160935N5-00065-00725100605ADDAA101000095GA1045+007325999GA2085+042675999GD12991+0073259GD24991+0426759GE19MSL   +99999+99999GF199999999999007321999999KA1060M+00061KA2060N-00111MA1100475097475MD1390049+9999REMMET12602/06/17 17:53:02 METAR KMSP 062353Z 07008KT 10SM SCT024 OVC140 M01/M07 A2967 RMK AO2 SLP060 T10061072 10006 21011 53004 (JDB)
0211726580149222017020700004+44883-093217FM-12+025599999V0200701N004119999999N016000199-00061-00721100601ADDGA1999+008001999GE19MSL   +99999+99999GF108991999999008001999999KA1120M+00061KA2120N-00781MA1999999097351MD1310041+9999REMSYN08072658 32566 80708 11006 21072 39735 40060 53004 92353 333 10006 21078 555 90700=
0194726580149222017020700337+44883-093229FM-16+0255KMSP V0200605N00515007325MN0160935N5-00065-00725999999ADDGA1085+007325999GD14991+0073259GE19MSL   +99999+99999GF199999999999007321999999MA1100415097405REMMET08802/06/17 18:33:01 SPECI KMSP 070033Z 06010KT 10SM OVC024 M01/M07 A2965 RMK AO2 T10061072
0212726580149222017020700537+44883-093229FM-15+0255KMSP V0200505N00365007015MN0160935N5-00065-00725100555ADDAA101000095GA1085+007015999GD14991+0070159GE19MSL   +99999+99999GF199999999999007011999999MA1100445097435REMMET09502/06/17 18:53:01 METAR KMSP 070053Z 05007KT 10SM OVC023 M01/M07 A2966 RMK AO2 SLP055 T10061072
0211726580149222017020701537+44883-093229FM-15+0255KMSP V0200605N00415006715MN0160935N5+00005-00675100455ADDAA101000095GA1085+006715999GD14991+0067159GE19MSL   +99999+99999GF199999999999006711999999MA1100345097335REMMET09402/06/17 19:53:01 METAR KMSP 070153Z 06008KT 10SM OVC022 00/M07 A2963 RMK AO2 SLP045 T00001067
0231726580149222017020702537+44883-093229FM-15+0255KMSP V0200805N00465006105MN0160935N5+00005-00675100345ADDAA101000095GA1085+006105999GD14991+0061059GE19MSL   +99999+99999GF199999999999006101999999MA1100245097245MD1890259+9999REMMET10002/06/17 20:53:01 METAR KMSP 070253Z 08009KT 10SM OVC020 00/M07 A2960 RMK AO2 SLP034 T00001067 58025
0211726580149222017020703537+44883-093229FM-15+0255KMSP V0200805N00415006105MN0160935N5+00065-00615100345ADDAA101000095GA1085+006105999GD14991+0061059GE19MSL   +99999+99999GF199999999999006101999999MA1100245097245REMMET09402/06/17 21:53:02 METAR KMSP 070353Z 08008KT 10SM OVC020 01/M06 A2960 RMK AO2 SLP034 T00061061
0211726580149222017020704537+44883-093229FM-15+0255KMSP V0200105N00315005495MN0160935N5+00065-00565100325ADDAA101000095GA1085+005495999GD14991+0054959GE19MSL   +99999+99999GF199999999999005491999999MA1100205097205REMMET09402/06/17 22:53:02 METAR KMSP 070453Z 01006KT 10SM OVC018 01/M06 A2959 RMK AO2 SLP032 T00061056
0304726580149222017020705537+44883-093229FM-15+0255KMSP V0200605N00465004575MN0128755N5+00005-00505100245ADDAA101000095GA1085+004575999GD14991+0045759GE19MSL   +99999+99999GF199999999999004571999999KA1060M+00061KA2060N-00061KA3240M+00061KA4240N-00781MA1100145097145MD1890079+9999REMMET12102/06/17 23:53:02 METAR KMSP 070553Z 06009KT 8SM OVC015 00/M05 A2957 RMK AO2 SLP024 T00001050 10006 21006 400061078 58007
0899726580149222017020705596+44883-093229SOD  +0255KMSP V020999999999999999999999999999+99999+99999999999ADDAA124000095AJ100003599999999AL12400095AN1024000095KA1240M+00065KA2240N-00775MG1097584100244OE11240080505099995OE22240062606099995OE33240038099999995REMSOD73924 HR PRECIPITATION (IN): 0.00 SNOW DEPTH (IN):T     24 HR SNOWFALL (IN):0.0  24 HR MAX TEMP (F): 3324 HR MIN TEMP (F): 18AVERAGE STATION PRESSURE:28.815 MINIMUM SEA LEVEL PRESSURE:29.60 TIME OF OCCURRENCE:2359 PEAK WIND SPEED (MPH): 18 PEAK WIND DIR (DEG): 50 PEAK WIND TIME (LST):      FASTEST 2MIN SPEED (MPH): 14FASTEST 2MIN DIR (DEG): 60 FASTEST 2MIN TIME (LST):     AVERAGE WIND SPEED (MPH): 8.5 24 HR AVG TEMP (F): 26DEPART FROM NORMAL:  8  HEATING DEGREE DAYS: 39 COOLING DEGREE DAYS:  0 LATEST DAY MAX TEMP (0700-1900 LST):33  LATEST NIGHT MIN TEMP(1900-0800 LST):18 HOURLY INCREMENTAL PRECIPITATION VALUES (IN):.00 0.00 0.00 0.00 0.00 0.00 0.00 0.00 0.00 0.00 0.00 0.00 0.00 0.00 0.00 0.00 0.00 0.00 0.00 0.00 0.00 0.00 0.00 0.00
0211726580149222017020706004+44883-093217FM-12+025599999V0200601N004619999999N012000199+00001-00501100241ADDGA1999+004501999GE19MSL   +99999+99999GF108991999999004501999999KA1240M+00061KA2240N-00781MA1999999097021MD1810071+9999REMSYN08072658 32462 80609 10000 21050 39702 40024 58007 90553 333 10006 21078 555 90706=
0200726580149222017020706537+44883-093229FM-15+0255KMSP V0200305N00365005185MN0112655N5-00115-00615100165ADDGA1085+005185999GD14991+0051859GE19MSL   +99999+99999GF199999999999005181999999MA1100075097075REMMET09402/07/17 00:53:02 METAR KMSP 070653Z 03007KT 7SM OVC017 M01/M06 A2955 RMK AO2 SLP016 T10111061
0200726580149222017020707537+44883-093229FM-15+0255KMSP V0200105N00265004885MN0128755N5-00115-00565100085ADDGA1085+004885999GD14991+0048859GE19MSL   +99999+99999GF199999999999004881999999MA1100005097005REMMET09402/07/17 01:53:02 METAR KMSP 070753Z 01005KT 8SM OVC016 M01/M06 A2953 RMK AO2 SLP008 T10111056
0221726580149222017020708537+44883-093229FM-15+0255KMSP V0200105N00365006105MN0160935N5-00115-00615100075ADDGA1085+006105999GD14991+0061059GE19MSL   +99999+99999GF199999999999006101999999MA1100005097005MD1690169+9999REMMET10102/07/17 02:53:02 METAR KMSP 070853Z 01007KT 10SM OVC020 M01/M06 A2953 RMK AO2 SLP007 T10111061 56016
0201726580149222017020709537+44883-093229FM-15+0255KMSP V0203605N00415005185MN0160935N5-00175-00565100015ADDGA1085+005185999GD14991+0051859GE19MSL   +99999+99999GF199999999999005181999999MA1099935096945REMMET09502/07/17 03:53:02 METAR KMSP 070953Z 36008KT 10SM OVC017 M02/M06 A2951 RMK AO2 SLP001 T10171056
0231726580149222017020710427+44883-093229FM-16+0255KMSP V0203605N00315003355MN0144845N5-00175-00565999999ADDGA1075+003355999GA2085+005185999GD13991+0033559GD24991+0051859GE19MSL   +99999+99999GF199999999999003351999999MA1099935096945REMMET09402/07/17 04:42:02 SPECI KMSP 071042Z 36006KT 9SM BKN011 OVC017 M02/M06 A2951 RMK AO2 T10171056
0238726580149222017020710537+44883-093229FM-15+0255KMSP V0203605N00365003055MN0144845N5-00175-00565100045ADDGA1075+003055999GA2085+004575999GD13991+0030559GD24991+0045759GE19MSL   +99999+99999GF199999999999003051999999MA1099975096975REMMET10102/07/17 04:53:02 METAR KMSP 071053Z 36007KT 9SM BKN010 OVC015 M02/M06 A2952 RMK AO2 SLP004 T10171056
0231726580149222017020711177+44883-093229FM-16+0255KMSP V0203405N00625002745MN0144845N5-00225-00565999999ADDGA1075+002745999GA2085+004275999GD13991+0027459GD24991+0042759GE19MSL   +99999+99999GF199999999999002741999999MA1100005097005REMMET09402/07/17 05:17:02 SPECI KMSP 071117Z 34012KT 9SM BKN009 OVC014 M02/M06 A2953 RMK AO2 T10221056
0280726580149222017020711457+44883-093229FM-16+0255KMSP V0203405N00415002745MN0040235N5-00335-00445999999ADDAA101000021AU118010015AU200001015AW1105AW2545GA1085+002745999GD14991+0027459GE19MSL   +99999+99999GF199999999999002741999999MA1099975096975WA1900199REMMET12002/07/17 05:45:02 SPECI KMSP 071145Z 34008KT 2 1/2SM -FZDZ BR OVC009 M03/M04 A2952 RMK AO2 FZDZB45 P0000 I1001 T10331044
0374726580149222017020711537+44883-093229FM-15+0255KMSP V0203405N00465001835MN0040235N5-00335-00445100075ADDAA101000021AA206000021AU118010015AU200001015AW1105AW2545GA1085+001835999GD14991+0018359GE19MSL   +99999+99999GF199999999999001831999999KA1060M+00001MA1099975096975MD1590019+9999WA1900199REMMET15702/07/17 05:53:02 METAR KMSP 071153Z 34009KT 2 1/2SM -FZDZ BR OVC006 M03/M04 A2952 RMK AO2 FZDZB45 SLP007 P0000 60000 I1002 I6002 T10331044 10000 21033 55001EQDQ01  00008PRCP06
0246726580149222017020712004+44883-093217FM-12+025599999V0203401N004619999999N004000199-00331-00441100071ADDAA106000021GA1999+001501999GE19MSL   +99999+99999GF108991999999001501999999KA1240M+00061KA2240N-00331MA1999999096851MD1510011+9999MW1101REMSYN09872658 11240 83409 11033 21044 39685 40007 55001 69901 710// 91153 333 10006 21033 96010 555 90712=
0272726580149222017020712307+44883-093229FM-16+0255KMSP V0203605N00365001225MN0040235N5-00335-00445999999ADDAA101000021AU118010015AU200001015AW1105AW2545GA1085+001225999GD14991+0012259GE19MSL   +99999+99999GF199999999999001221999999MA1099935096945WA1900199REMMET11202/07/17 06:30:02 SPECI KMSP 071230Z 36007KT 2 1/2SM -FZDZ BR OVC004 M03/M04 A2951 RMK AO2 P0000 I1001 T10331044
0258726580149222017020712507+44883-093229FM-16+0255KMSP V0203405N00515001225MN0048285N5-00305-00405999999ADDAA101000021AU118010015AU200001015AW1105AW2545GA1085+001225999GD14991+0012259GE19MSL   +99999+99999GF199999999999001221999999MA1100005097005WA1900199REMMET09802/07/17 06:50:02 SPECI KMSP 071250Z 34010KT 3SM -FZDZ BR OVC004 M03/M04 A2953 RMK AO2 P0000 I1002
0282726580149222017020712537+44883-093229FM-15+0255KMSP V0203405N00465001225MN0048285N5-00335-00445100125ADDAA101000021AU118010015AU200001015AW1105AW2545GA1085+001225999GD14991+0012259GE19MSL   +99999+99999GF199999999999001221999999MA1100035097045WA1900199REMMET12202/07/17 06:53:02 METAR KMSP 071253Z 34009KT 3SM -FZDZ BR OVC004 M03/M04 A2954 RMK AO2 PRESRR SLP012 P0000 I1002 T10331044
0268726580149222017020713227+44883-093229FM-16+0255KMSP V0203505N00415001525MN0064375N5-00335-00505999999ADDAA101000021AU118010015AU200001015AW1105AW2545GA1085+001525999GD14991+0015259GE19MSL   +99999+99999GF199999999999001521999999MA1100035097045WA1900099REMMET10802/07/17 07:22:02 SPECI KMSP 071322Z 35008KT 4SM -FZDZ BR OVC005 M03/M05 A2954 RMK AO2 P0000 I1000 T10331050
0285726580149222017020713537+44883-093229FM-15+0255KMSP V0203405V00625001525MN0048285N5-00395-00505100155ADDAA101000021AU118010015AU200001015AW1105AW2545GA1085+001525999GD14991+0015259GE19MSL   +99999+99999GF199999999999001521999999MA1100075097075WA1900099REMMET12502/07/17 07:53:02 METAR KMSP 071353Z 34012KT 3SM -FZDZ BR OVC005 M04/M05 A2955 RMK AO2 SFC VIS 4 SLP015 P0000 I1000 T10391050
0272726580149222017020714367+44883-093229FM-16+0255KMSP V0203405N00365001525MN0040235N5-00395-00505999999ADDAA101000021AU118010015AU200001015AW1105AW2545GA1085+001525999GD14991+0015259GE19MSL   +99999+99999GF199999999999001521999999MA1100105097105WA1900199REMMET11202/07/17 08:36:02 SPECI KMSP 071436Z 34007KT 2 1/2SM -FZDZ BR OVC005 M04/M05 A2956 RMK AO2 P0000 I1001 T10391050
0355726580149222017020714537+44883-093229FM-15+0255KMSP V0203205N00575001525MN0032195N5-00395-00565100245ADDAA101000021AA203000021AU118010015AU200001015AW1105AW2545GA1085+001525999GD14991+0015259GE19MSL   +99999+99999GF199999999999001521999999MA1100145097145MD1390129+9999WA1900299REMMET15102/07/17 08:53:02 METAR KMSP 071453Z 32011KT 2SM R30L/5500VP6000FT -FZDZ BR OVC005 M04/M06 A2957 RMK AO2 SLP024 P0000 60000 I1002 I3004 T10391056 53012EQDQ01  00008PRCP03
0283726580149222017020715037+44883-093229FM-16+0255KMSP V0203305N00465001525MN0032195N5-00395-00565999999ADDAA101000231AU118020015AU200001015AW1105AW2645GA1085+001525999GD14991+0015259GE19MSL   +99999+99999GF199999999999001521999999MA1100105097105WA1900199REMMET12302/07/17 09:03:02 SPECI KMSP 071503Z 33009KT 2SM -FZRA BR OVC005 M04/M06 A2956 RMK AO2 FZDZE03FZRAB03 P0001 I1001 T10391056
0289726580149222017020715377+44883-093229FM-16+0255KMSP V0203305N00575001525MN0048285N5-00395-00565999999ADDAA101000231AU118010015AU200001015AW1105AW2545GA1085+001525999GD14991+0015259GE19MSL   +99999+99999GF199999999999001521999999MA1100145097145WA1900199REMMET12902/07/17 09:37:02 SPECI KMSP 071537Z 33011KT 3SM -FZDZ BR OVC005 M04/M06 A2957 RMK AO2 FZDZE03B37FZRAB03E37 P0001 I1003 T10391056
0314726580149222017020715537+44883-093229FM-15+0255KMSP V0203205N00575001835MN0048285N5-00395-00565100215ADDAA101000395AU118010015AU200001015AW1105AW2545GA1085+001835999GD14991+0018359GE19MSL   +99999+99999GF199999999999001831999999MA1100105097105WA1900199REMMET15402/07/17 09:53:02 METAR KMSP 071553Z 32011KT 3SM R30L/5500VP6000FT -FZDZ BR OVC006 M04/M06 A2956 RMK AO2 FZDZE03B37FZRAB03E37 SLP021 P0001 I1003 T10391056
0275726580149222017020716537+44883-093229FM-15+0255KMSP V0203205N00675002135MN0064375N5-00395-00565100255ADDAA101000021AU118010015AU200001015AW1105AW2545GA1085+002135999GD14991+0021359GE19MSL   +99999+99999GF199999999999002131999999MA1100145097145WA1900199REMMET11502/07/17 10:53:02 METAR KMSP 071653Z 32013KT 4SM -FZDZ BR OVC007 M04/M06 A2957 RMK AO2 SLP025 P0000 I1001 T10391056
0355726580149222017020717537+44883-093229FM-15+0255KMSP V0203305N00675002445MN0112655N5-00395-00565100285ADDAA101000021AA206000391AU118010015AW1545GA1085+002445999GD14991+0024459GE19MSL   +99999+99999GF199999999999002441999999KA1060M-00331KA2060N-00391MA1100175097175MD1390059+9999WA1900399REMMET14202/07/17 11:53:02 METAR KMSP 071753Z 33013KT 7SM -FZDZ OVC008 M04/M06 A2958 RMK AO2 SLP028 P0000 60001 I1000 I6008 T10391056 11033 21039 53005EQDQ01  00028PRCP06
0228726580149222017020718004+44883-093217FM-12+025599999V0203301N006719999999N011000199-00391-00561100281ADDAA106000331GA1999+002501999GE19MSL   +99999+99999GF108991999999002501999999KA1120M+00001KA2120N-00391MA1999999097051MD1310051+9999REMSYN08672658 11361 83313 11039 21056 39705 40028 53005 69931 91753 333 10000 21039 555 90718=
0248726580149222017020718327+44883-093229FM-16+0255KMSP V0203205N00885002135MN0112655N5-00505-00725999999ADDAA101000021AU118010015AW1545GA1085+002135999GD14991+0021359GE19MSL   +99999+99999GF199999999999002131999999MA1100205097205WA1900099REMMET10502/07/17 12:32:02 SPECI KMSP 071832Z 32017KT 7SM -FZDZ OVC007 M05/M07 A2959 RMK AO2 P0000 I1000 T10501072
0277726580149222017020718537+44883-093229FM-15+0255KMSP V0203005N00775002135MN0112655N5-00505-00725100365ADDAA101000021AU110030015AW1715GA1085+002135999GD14991+0021359GE19MSL   +99999+99999GF199999999999002131999999MA1100245097245OC101135WA1900099REMMET12602/07/17 12:53:02 METAR KMSP 071853Z 30015G22KT 7SM -SN OVC007 M05/M07 A2960 RMK AO2 FZDZE52SNB52 SLP036 P0000 I1000 T10501072
0227726580149222017020719327+44883-093229FM-16+0255KMSP V0203205N00725003665MN0144845N5-00505-00785999999ADDAA101000021GA1085+003665999GD14991+0036659GE19MSL   +99999+99999GF199999999999003661999999MA1100245097245OC101295REMMET10202/07/17 13:32:02 SPECI KMSP 071932Z 32014G25KT 9SM OVC012 M05/M08 A2960 RMK AO2 SNE32 P0000 T10501078
0224726580149222017020719537+44883-093229FM-15+0255KMSP V0203105N00825004275MN0160935N5-00505-00785100355ADDAA101000021GA1085+004275999GD14991+0042759GE19MSL   +99999+99999GF199999999999004271999999MA1100245097245REMMET10702/07/17 13:53:02 METAR KMSP 071953Z 31016KT 10SM OVC014 M05/M08 A2960 RMK AO2 SNE32 SLP035 P0000 T10501078
0194726580149222017020720207+44883-093229FM-16+0255KMSP V0203105N00885004575MN0160935N5-00505-00835999999ADDGA1085+004575999GD14991+0045759GE19MSL   +99999+99999GF199999999999004571999999MA1100275097275REMMET08802/07/17 14:20:02 SPECI KMSP 072020Z 31017KT 10SM OVC015 M05/M08 A2961 RMK AO2 T10501083
0279726580149222017020720537+44883-093229FM-15+0255KMSP V0203205N00885004575MN0160935N5-00505-00835100465ADDAA103000021GA1085+004575999GD14991+0045759GE19MSL   +99999+99999GF199999999999004571999999MA1100345097335MD1390169+9999WA1900099REMMET12002/07/17 14:53:02 METAR KMSP 072053Z 32017KT 10SM OVC015 M05/M08 A2963 RMK AO2 PRESRR SLP046 60000 I3000 T10501083 53016EQDQ01  00008PRCP03
0146726580149222017020721346+44883-093229FM-16+0255KMSP V0203105N00625005185MN0160935N5-00565-00895999999ADDGA1085+005185999GD14991+0051859MA1100415097405REMMET08802/07/17 15:34:02 SPECI KMSP 072134Z 31012KT 10SM OVC017 M06/M09 A2965 RMK AO2 T10561089
0153726580149222017020721536+44883-093229FM-15+0255KMSP V0203305N00775005495MN0160935N5-00565-00945100585ADDGA1085+005495999GD14991+0054959MA1100475097475REMMET09502/07/17 15:53:02 METAR KMSP 072153Z 33015KT 10SM OVC018 M06/M09 A2967 RMK AO2 SLP058 T10561094
0237726580149222017020723536+44883-093229FM-15+0255KMSP V0203305N00775007925MN0160935N5-00675-01175100865ADDAA106000021GA1085+007925999GD14991+0079259MA1100755097735MD1390389+9999OC101085REMMET14602/07/17 17:53:02 METAR KMSP 072353Z 33015G21KT 10SM OVC026 M07/M12 A2975 RMK AO2 PK WND 32027/2317 SLP086 60000 I6000 T10671117 11039 21067 53038
0153726580149222017020800536+44883-093229FM-15+0255KMSP V0203405N00625009145MN0160935N5-00725-01285100975ADDGA1075+009145999GD13991+0091459MA1100855097835REMMET09502/07/17 18:53:01 METAR KMSP 080053Z 34012KT 10SM BKN030 M07/M13 A2978 RMK AO2 SLP097 T10721128
0191726580149222017020801536+44883-093229FM-15+0255KMSP V0203305N004652200059N0160935N5-00785-01335101055ADDGA1045+008235999GA2045+009755999GD12991+0082359GD22991+0097559MA1100915097905REMMET10202/07/17 19:53:01 METAR KMSP 080153Z 33009KT 10SM SCT027 SCT032 M08/M13 A2980 RMK AO2 SLP105 T10781133
0211726580149222017020802536+44883-093229FM-15+0255KMSP V0203105N004152200059N0160935N5-00835-01395101155ADDGA1025+008235999GA2045+009755999GD11991+0082359GD22991+0097559MA1101025098005MD1190279+9999REMMET10802/07/17 20:53:02 METAR KMSP 080253Z 31008KT 10SM FEW027 SCT032 M08/M14 A2983 RMK AO2 SLP115 T10831139 51027
0146726580149222017020803336+44883-093229FM-16+0255KMSP V0203005N00365008845MN0160935N5-00895-01335999999ADDGA1075+008845999GD13991+0088459MA1101085098065REMMET08802/07/17 21:33:02 SPECI KMSP 080333Z 30007KT 10SM BKN029 M09/M13 A2985 RMK AO2 T10891133
0153726580149222017020803536+44883-093229FM-15+0255KMSP V0203105N003652200059N0160935N5-00895-01395101175ADDGA1045+009145999GD12991+0091459MA1101025098005REMMET09502/07/17 21:53:02 METAR KMSP 080353Z 31007KT 10SM SCT030 M09/M14 A2983 RMK AO2 SLP117 T10891139
0160726580149222017020804536+44883-093229FM-15+0255KMSP V0203005N00515009755MN0160935N5-00945-01395101325ADDGA1075+009755999GD13991+0097559MA1101195098165REMMET10202/07/17 22:53:02 METAR KMSP 080453Z 30010KT 10SM BKN032 M09/M14 A2988 RMK AO2 PRESRR SLP132 T10941139
0195726580149222017020805536+44883-093229FM-15+0255KMSP V0203205N00575009755MN0160935N5-01115-01505101445ADDGA1075+009755999GD13991+0097559MA1101295098265MD1390289+9999REMMET12302/07/17 23:53:02 METAR KMSP 080553Z 32011KT 10SM BKN032 M11/M15 A2991 RMK AO2 SLP144 T11111150 11067 21111 400001111 53028
005172658014922201702080559O+44883-093217SOD  +025599999V020999999999999999999999999999+99999+99999999999ADDAT1AU17FZRA5AT2AU15FZDZ5AT3AU18SN  5AT4AU13BR  5
